adresse,Building_Number,repetition,type_voie,Street_Name,Zip_Code,City,Country,Recipient,prompt
société leroy 44 b avenue jean jaurès 92100 lyon france,44,B,avenue,Jean Jaurès,92100,Lyon,France,Société Leroy,"Parsing: société leroy 44 b avenue jean jaurès 92100 lyon france
Champs: {""Building_Number"": 44, ""City"": ""Lyon"", ""Country"": ""France"", ""Recipient"": ""Société Leroy"", ""Street_Name"": ""Jean Jaurès"", ""Zip_Code"": 92100, ""repetition"": ""B"", ""type_voie"": ""avenue""}"
boulangerie martin 130 bis avenue de verdun 69003 lyon france,130,bis,avenue,de Verdun,69003,Lyon,France,Boulangerie Martin,"Parsing: boulangerie martin 130 bis avenue de verdun 69003 lyon france
Champs: {""Building_Number"": 130, ""City"": ""Lyon"", ""Country"": ""France"", ""Recipient"": ""Boulangerie Martin"", ""Street_Name"": ""de Verdun"", ""Zip_Code"": 69003, ""repetition"": ""bis"", ""type_voie"": ""avenue""}"
Dr. Roux 10 bis boulevard Jean Jaurès 6000 Toulouse France,10,bis,boulevard,Jean Jaurès,6000,Toulouse,France,Dr. Roux,"Parsing: Dr. Roux 10 bis boulevard Jean Jaurès 6000 Toulouse France
Champs: {""Building_Number"": 10, ""City"": ""Toulouse"", ""Country"": ""France"", ""Recipient"": ""Dr. Roux"", ""Street_Name"": ""Jean Jaurès"", ""Zip_Code"": 6000, ""repetition"": ""bis"", ""type_voie"": ""boulevard""}"
m. morel 135 ter boulevard de la république 67000 boulogne-billancourt france,135,ter,boulevard,de la République,67000,Boulogne-Billancourt,France,M. Morel,"Parsing: m. morel 135 ter boulevard de la république 67000 boulogne-billancourt france
Champs: {""Building_Number"": 135, ""City"": ""Boulogne-Billancourt"", ""Country"": ""France"", ""Recipient"": ""M. Morel"", ""Street_Name"": ""de la République"", ""Zip_Code"": 67000, ""repetition"": ""ter"", ""type_voie"": ""boulevard""}"
Café de la Gare 40 bis route de la République 44000 Strasbourg France,40,bis,route,de la République,44000,Strasbourg,France,Café de la Gare,"Parsing: Café de la Gare 40 bis route de la République 44000 Strasbourg France
Champs: {""Building_Number"": 40, ""City"": ""Strasbourg"", ""Country"": ""France"", ""Recipient"": ""Café de la Gare"", ""Street_Name"": ""de la République"", ""Zip_Code"": 44000, ""repetition"": ""bis"", ""type_voie"": ""route""}"
Société Leroy 22 B boulevard Jean Jaurès 69003 Strasbourg France,22,B,boulevard,Jean Jaurès,69003,Strasbourg,France,Société Leroy,"Parsing: Société Leroy 22 B boulevard Jean Jaurès 69003 Strasbourg France
Champs: {""Building_Number"": 22, ""City"": ""Strasbourg"", ""Country"": ""France"", ""Recipient"": ""Société Leroy"", ""Street_Name"": ""Jean Jaurès"", ""Zip_Code"": 69003, ""repetition"": ""B"", ""type_voie"": ""boulevard""}"
de Verdun bis France route 198 92100 Boulogne-Billancourt M. Durant,198,bis,route,de Verdun,92100,Boulogne-Billancourt,France,M. Durant,"Parsing: de Verdun bis France route 198 92100 Boulogne-Billancourt M. Durant
Champs: {""Building_Number"": 198, ""City"": ""Boulogne-Billancourt"", ""Country"": ""France"", ""Recipient"": ""M. Durant"", ""Street_Name"": ""de Verdun"", ""Zip_Code"": 92100, ""repetition"": ""bis"", ""type_voie"": ""route""}"
Crèche Les Poussins France 75001 Victor Hugo A Paris impasse 166,166,A,impasse,Victor Hugo,75001,Paris,France,Crèche Les Poussins,"Parsing: Crèche Les Poussins France 75001 Victor Hugo A Paris impasse 166
Champs: {""Building_Number"": 166, ""City"": ""Paris"", ""Country"": ""France"", ""Recipient"": ""Crèche Les Poussins"", ""Street_Name"": ""Victor Hugo"", ""Zip_Code"": 75001, ""repetition"": ""A"", ""type_voie"": ""impasse""}"
188 B avenue Jean Jaurès 67000 Toulouse France,188,B,avenue,Jean Jaurès,67000,Toulouse,France,,"Parsing: 188 B avenue Jean Jaurès 67000 Toulouse France
Champs: {""Building_Number"": 188, ""City"": ""Toulouse"", ""Country"": ""France"", ""Recipient"": null, ""Street_Name"": ""Jean Jaurès"", ""Zip_Code"": 67000, ""repetition"": ""B"", ""type_voie"": ""avenue""}"
132 B boulevard Victor Hugo 44000 Nice France,132,B,boulevard,Victor Hugo,44000,Nice,France,,"Parsing: 132 B boulevard Victor Hugo 44000 Nice France
Champs: {""Building_Number"": 132, ""City"": ""Nice"", ""Country"": ""France"", ""Recipient"": null, ""Street_Name"": ""Victor Hugo"", ""Zip_Code"": 44000, ""repetition"": ""B"", ""type_voie"": ""boulevard""}"
Jean Jaurès Strasbourg Café de la Gare 28 impasse B France 31000,28,B,impasse,Jean Jaurès,31000,Strasbourg,France,Café de la Gare,"Parsing: Jean Jaurès Strasbourg Café de la Gare 28 impasse B France 31000
Champs: {""Building_Number"": 28, ""City"": ""Strasbourg"", ""Country"": ""France"", ""Recipient"": ""Café de la Gare"", ""Street_Name"": ""Jean Jaurès"", ""Zip_Code"": 31000, ""repetition"": ""B"", ""type_voie"": ""impasse""}"
M. Durant 159 bis avenue des Lilas 13008 Marseille France,159,bis,avenue,des Lilas,13008,Marseille,France,M. Durant,"Parsing: M. Durant 159 bis avenue des Lilas 13008 Marseille France
Champs: {""Building_Number"": 159, ""City"": ""Marseille"", ""Country"": ""France"", ""Recipient"": ""M. Durant"", ""Street_Name"": ""des Lilas"", ""Zip_Code"": 13008, ""repetition"": ""bis"", ""type_voie"": ""avenue""}"
M. Garnier 36 impasse de la République 31000 Marseille France,36,,impasse,de la République,31000,Marseille,France,M. Garnier,"Parsing: M. Garnier 36 impasse de la République 31000 Marseille France
Champs: {""Building_Number"": 36, ""City"": ""Marseille"", ""Country"": ""France"", ""Recipient"": ""M. Garnier"", ""Street_Name"": ""de la République"", ""Zip_Code"": 31000, ""repetition"": null, ""type_voie"": ""impasse""}"
140 du général leclerc france a sci horizon chemin 33000 nice,140,A,chemin,du Général Leclerc,33000,Nice,France,SCI Horizon,"Parsing: 140 du général leclerc france a sci horizon chemin 33000 nice
Champs: {""Building_Number"": 140, ""City"": ""Nice"", ""Country"": ""France"", ""Recipient"": ""SCI Horizon"", ""Street_Name"": ""du Général Leclerc"", ""Zip_Code"": 33000, ""repetition"": ""A"", ""type_voie"": ""chemin""}"
crèche les poussins 108 ter avenue des lilas 44000 nice france,108,ter,avenue,des Lilas,44000,Nice,France,Crèche Les Poussins,"Parsing: crèche les poussins 108 ter avenue des lilas 44000 nice france
Champs: {""Building_Number"": 108, ""City"": ""Nice"", ""Country"": ""France"", ""Recipient"": ""Crèche Les Poussins"", ""Street_Name"": ""des Lilas"", ""Zip_Code"": 44000, ""repetition"": ""ter"", ""type_voie"": ""avenue""}"
Entreprise Dupuis 177 B impasse de Verdun 13008 Lyon France,177,B,impasse,de Verdun,13008,Lyon,France,Entreprise Dupuis,"Parsing: Entreprise Dupuis 177 B impasse de Verdun 13008 Lyon France
Champs: {""Building_Number"": 177, ""City"": ""Lyon"", ""Country"": ""France"", ""Recipient"": ""Entreprise Dupuis"", ""Street_Name"": ""de Verdun"", ""Zip_Code"": 13008, ""repetition"": ""B"", ""type_voie"": ""impasse""}"
route France Crèche Les Poussins des Lilas 33000 A Strasbourg 16,16,A,route,des Lilas,33000,Strasbourg,France,Crèche Les Poussins,"Parsing: route France Crèche Les Poussins des Lilas 33000 A Strasbourg 16
Champs: {""Building_Number"": 16, ""City"": ""Strasbourg"", ""Country"": ""France"", ""Recipient"": ""Crèche Les Poussins"", ""Street_Name"": ""des Lilas"", ""Zip_Code"": 33000, ""repetition"": ""A"", ""type_voie"": ""route""}"
91 société leroy 69003 toulouse boulevard france jean jaurès,91,,boulevard,Jean Jaurès,69003,Toulouse,France,Société Leroy,"Parsing: 91 société leroy 69003 toulouse boulevard france jean jaurès
Champs: {""Building_Number"": 91, ""City"": ""Toulouse"", ""Country"": ""France"", ""Recipient"": ""Société Leroy"", ""Street_Name"": ""Jean Jaurès"", ""Zip_Code"": 69003, ""repetition"": null, ""type_voie"": ""boulevard""}"
du général leclerc 31000 strasbourg chemin 93 a france crèche les poussins,93,A,chemin,du Général Leclerc,31000,Strasbourg,France,Crèche Les Poussins,"Parsing: du général leclerc 31000 strasbourg chemin 93 a france crèche les poussins
Champs: {""Building_Number"": 93, ""City"": ""Strasbourg"", ""Country"": ""France"", ""Recipient"": ""Crèche Les Poussins"", ""Street_Name"": ""du Général Leclerc"", ""Zip_Code"": 31000, ""repetition"": ""A"", ""type_voie"": ""chemin""}"
café de la gare 162 b chemin de la république 75001 toulouse france,162,B,chemin,de la République,75001,Toulouse,France,Café de la Gare,"Parsing: café de la gare 162 b chemin de la république 75001 toulouse france
Champs: {""Building_Number"": 162, ""City"": ""Toulouse"", ""Country"": ""France"", ""Recipient"": ""Café de la Gare"", ""Street_Name"": ""de la République"", ""Zip_Code"": 75001, ""repetition"": ""B"", ""type_voie"": ""chemin""}"
chemin 67000 110 b victor hugo bordeaux france,110,B,chemin,Victor Hugo,67000,Bordeaux,France,,"Parsing: chemin 67000 110 b victor hugo bordeaux france
Champs: {""Building_Number"": 110, ""City"": ""Bordeaux"", ""Country"": ""France"", ""Recipient"": null, ""Street_Name"": ""Victor Hugo"", ""Zip_Code"": 67000, ""repetition"": ""B"", ""type_voie"": ""chemin""}"
strasbourg victor hugo ter france 13008 12 mme faure impasse,12,ter,impasse,Victor Hugo,13008,Strasbourg,France,Mme Faure,"Parsing: strasbourg victor hugo ter france 13008 12 mme faure impasse
Champs: {""Building_Number"": 12, ""City"": ""Strasbourg"", ""Country"": ""France"", ""Recipient"": ""Mme Faure"", ""Street_Name"": ""Victor Hugo"", ""Zip_Code"": 13008, ""repetition"": ""ter"", ""type_voie"": ""impasse""}"
mme faure 93 bis impasse de verdun 75001 boulogne-billancourt france,93,bis,impasse,de Verdun,75001,Boulogne-Billancourt,France,Mme Faure,"Parsing: mme faure 93 bis impasse de verdun 75001 boulogne-billancourt france
Champs: {""Building_Number"": 93, ""City"": ""Boulogne-Billancourt"", ""Country"": ""France"", ""Recipient"": ""Mme Faure"", ""Street_Name"": ""de Verdun"", ""Zip_Code"": 75001, ""repetition"": ""bis"", ""type_voie"": ""impasse""}"
Dupont Boulogne-Billancourt rue France Jean Jaurès 67000 107,107,,rue,Jean Jaurès,67000,Boulogne-Billancourt,France,Dupont,"Parsing: Dupont Boulogne-Billancourt rue France Jean Jaurès 67000 107
Champs: {""Building_Number"": 107, ""City"": ""Boulogne-Billancourt"", ""Country"": ""France"", ""Recipient"": ""Dupont"", ""Street_Name"": ""Jean Jaurès"", ""Zip_Code"": 67000, ""repetition"": null, ""type_voie"": ""rue""}"
victor hugo france rue 137 boulogne-billancourt ter pharmacie centrale 31000,137,ter,rue,Victor Hugo,31000,Boulogne-Billancourt,France,Pharmacie Centrale,"Parsing: victor hugo france rue 137 boulogne-billancourt ter pharmacie centrale 31000
Champs: {""Building_Number"": 137, ""City"": ""Boulogne-Billancourt"", ""Country"": ""France"", ""Recipient"": ""Pharmacie Centrale"", ""Street_Name"": ""Victor Hugo"", ""Zip_Code"": 31000, ""repetition"": ""ter"", ""type_voie"": ""rue""}"
32 a rue du général leclerc 13008 strasbourg france,32,A,rue,du Général Leclerc,13008,Strasbourg,France,,"Parsing: 32 a rue du général leclerc 13008 strasbourg france
Champs: {""Building_Number"": 32, ""City"": ""Strasbourg"", ""Country"": ""France"", ""Recipient"": null, ""Street_Name"": ""du Général Leclerc"", ""Zip_Code"": 13008, ""repetition"": ""A"", ""type_voie"": ""rue""}"
SCI Horizon 88 B boulevard Victor Hugo 31000 Lyon France,88,B,boulevard,Victor Hugo,31000,Lyon,France,SCI Horizon,"Parsing: SCI Horizon 88 B boulevard Victor Hugo 31000 Lyon France
Champs: {""Building_Number"": 88, ""City"": ""Lyon"", ""Country"": ""France"", ""Recipient"": ""SCI Horizon"", ""Street_Name"": ""Victor Hugo"", ""Zip_Code"": 31000, ""repetition"": ""B"", ""type_voie"": ""boulevard""}"
Crèche Les Poussins 104 bis chemin de la République 75001 Lyon France,104,bis,chemin,de la République,75001,Lyon,France,Crèche Les Poussins,"Parsing: Crèche Les Poussins 104 bis chemin de la République 75001 Lyon France
Champs: {""Building_Number"": 104, ""City"": ""Lyon"", ""Country"": ""France"", ""Recipient"": ""Crèche Les Poussins"", ""Street_Name"": ""de la République"", ""Zip_Code"": 75001, ""repetition"": ""bis"", ""type_voie"": ""chemin""}"
impasse France du Général Leclerc 6000 Mme Martin 182 Paris,182,,impasse,du Général Leclerc,6000,Paris,France,Mme Martin,"Parsing: impasse France du Général Leclerc 6000 Mme Martin 182 Paris
Champs: {""Building_Number"": 182, ""City"": ""Paris"", ""Country"": ""France"", ""Recipient"": ""Mme Martin"", ""Street_Name"": ""du Général Leclerc"", ""Zip_Code"": 6000, ""repetition"": null, ""type_voie"": ""impasse""}"
boulangerie martin 200 ter avenue de la république 13008 strasbourg france,200,ter,avenue,de la République,13008,Strasbourg,France,Boulangerie Martin,"Parsing: boulangerie martin 200 ter avenue de la république 13008 strasbourg france
Champs: {""Building_Number"": 200, ""City"": ""Strasbourg"", ""Country"": ""France"", ""Recipient"": ""Boulangerie Martin"", ""Street_Name"": ""de la République"", ""Zip_Code"": 13008, ""repetition"": ""ter"", ""type_voie"": ""avenue""}"
sarl lambert 10 b boulevard des lilas 75001 boulogne-billancourt france,10,B,boulevard,des Lilas,75001,Boulogne-Billancourt,France,SARL Lambert,"Parsing: sarl lambert 10 b boulevard des lilas 75001 boulogne-billancourt france
Champs: {""Building_Number"": 10, ""City"": ""Boulogne-Billancourt"", ""Country"": ""France"", ""Recipient"": ""SARL Lambert"", ""Street_Name"": ""des Lilas"", ""Zip_Code"": 75001, ""repetition"": ""B"", ""type_voie"": ""boulevard""}"
des Lilas B France 68 75001 avenue Boulangerie Martin Boulogne-Billancourt,68,B,avenue,des Lilas,75001,Boulogne-Billancourt,France,Boulangerie Martin,"Parsing: des Lilas B France 68 75001 avenue Boulangerie Martin Boulogne-Billancourt
Champs: {""Building_Number"": 68, ""City"": ""Boulogne-Billancourt"", ""Country"": ""France"", ""Recipient"": ""Boulangerie Martin"", ""Street_Name"": ""des Lilas"", ""Zip_Code"": 75001, ""repetition"": ""B"", ""type_voie"": ""avenue""}"
Marseille du Général Leclerc France M. Morel 67000 119 ter avenue,119,ter,avenue,du Général Leclerc,67000,Marseille,France,M. Morel,"Parsing: Marseille du Général Leclerc France M. Morel 67000 119 ter avenue
Champs: {""Building_Number"": 119, ""City"": ""Marseille"", ""Country"": ""France"", ""Recipient"": ""M. Morel"", ""Street_Name"": ""du Général Leclerc"", ""Zip_Code"": 67000, ""repetition"": ""ter"", ""type_voie"": ""avenue""}"
M. Durant 66 bis route de la République 69003 Boulogne-Billancourt France,66,bis,route,de la République,69003,Boulogne-Billancourt,France,M. Durant,"Parsing: M. Durant 66 bis route de la République 69003 Boulogne-Billancourt France
Champs: {""Building_Number"": 66, ""City"": ""Boulogne-Billancourt"", ""Country"": ""France"", ""Recipient"": ""M. Durant"", ""Street_Name"": ""de la République"", ""Zip_Code"": 69003, ""repetition"": ""bis"", ""type_voie"": ""route""}"
187 France de Verdun boulevard bis Bordeaux 92100,187,bis,boulevard,de Verdun,92100,Bordeaux,France,,"Parsing: 187 France de Verdun boulevard bis Bordeaux 92100
Champs: {""Building_Number"": 187, ""City"": ""Bordeaux"", ""Country"": ""France"", ""Recipient"": null, ""Street_Name"": ""de Verdun"", ""Zip_Code"": 92100, ""repetition"": ""bis"", ""type_voie"": ""boulevard""}"
SCI Horizon 194 boulevard du Général Leclerc 92100 Marseille France,194,,boulevard,du Général Leclerc,92100,Marseille,France,SCI Horizon,"Parsing: SCI Horizon 194 boulevard du Général Leclerc 92100 Marseille France
Champs: {""Building_Number"": 194, ""City"": ""Marseille"", ""Country"": ""France"", ""Recipient"": ""SCI Horizon"", ""Street_Name"": ""du Général Leclerc"", ""Zip_Code"": 92100, ""repetition"": null, ""type_voie"": ""boulevard""}"
boulangerie martin 9 bis rue victor hugo 67000 nice france,9,bis,rue,Victor Hugo,67000,Nice,France,Boulangerie Martin,"Parsing: boulangerie martin 9 bis rue victor hugo 67000 nice france
Champs: {""Building_Number"": 9, ""City"": ""Nice"", ""Country"": ""France"", ""Recipient"": ""Boulangerie Martin"", ""Street_Name"": ""Victor Hugo"", ""Zip_Code"": 67000, ""repetition"": ""bis"", ""type_voie"": ""rue""}"
Mairie de Lyon 95 bis route Victor Hugo 75001 Nice France,95,bis,route,Victor Hugo,75001,Nice,France,Mairie de Lyon,"Parsing: Mairie de Lyon 95 bis route Victor Hugo 75001 Nice France
Champs: {""Building_Number"": 95, ""City"": ""Nice"", ""Country"": ""France"", ""Recipient"": ""Mairie de Lyon"", ""Street_Name"": ""Victor Hugo"", ""Zip_Code"": 75001, ""repetition"": ""bis"", ""type_voie"": ""route""}"
boulangerie martin 83 a impasse du général leclerc 31000 toulouse france,83,A,impasse,du Général Leclerc,31000,Toulouse,France,Boulangerie Martin,"Parsing: boulangerie martin 83 a impasse du général leclerc 31000 toulouse france
Champs: {""Building_Number"": 83, ""City"": ""Toulouse"", ""Country"": ""France"", ""Recipient"": ""Boulangerie Martin"", ""Street_Name"": ""du Général Leclerc"", ""Zip_Code"": 31000, ""repetition"": ""A"", ""type_voie"": ""impasse""}"
Mme Lefevre 43 B impasse Jean Jaurès 92100 Strasbourg France,43,B,impasse,Jean Jaurès,92100,Strasbourg,France,Mme Lefevre,"Parsing: Mme Lefevre 43 B impasse Jean Jaurès 92100 Strasbourg France
Champs: {""Building_Number"": 43, ""City"": ""Strasbourg"", ""Country"": ""France"", ""Recipient"": ""Mme Lefevre"", ""Street_Name"": ""Jean Jaurès"", ""Zip_Code"": 92100, ""repetition"": ""B"", ""type_voie"": ""impasse""}"
Crèche Les Poussins 66 route de la République 31000 Strasbourg France,66,,route,de la République,31000,Strasbourg,France,Crèche Les Poussins,"Parsing: Crèche Les Poussins 66 route de la République 31000 Strasbourg France
Champs: {""Building_Number"": 66, ""City"": ""Strasbourg"", ""Country"": ""France"", ""Recipient"": ""Crèche Les Poussins"", ""Street_Name"": ""de la République"", ""Zip_Code"": 31000, ""repetition"": null, ""type_voie"": ""route""}"
116 bis impasse victor hugo 33000 toulouse france,116,bis,impasse,Victor Hugo,33000,Toulouse,France,,"Parsing: 116 bis impasse victor hugo 33000 toulouse france
Champs: {""Building_Number"": 116, ""City"": ""Toulouse"", ""Country"": ""France"", ""Recipient"": null, ""Street_Name"": ""Victor Hugo"", ""Zip_Code"": 33000, ""repetition"": ""bis"", ""type_voie"": ""impasse""}"
M. Durant 73 B boulevard du Général Leclerc 69003 Nantes France,73,B,boulevard,du Général Leclerc,69003,Nantes,France,M. Durant,"Parsing: M. Durant 73 B boulevard du Général Leclerc 69003 Nantes France
Champs: {""Building_Number"": 73, ""City"": ""Nantes"", ""Country"": ""France"", ""Recipient"": ""M. Durant"", ""Street_Name"": ""du Général Leclerc"", ""Zip_Code"": 69003, ""repetition"": ""B"", ""type_voie"": ""boulevard""}"
Pharmacie Centrale 172 chemin du Général Leclerc 33000 Nice France,172,,chemin,du Général Leclerc,33000,Nice,France,Pharmacie Centrale,"Parsing: Pharmacie Centrale 172 chemin du Général Leclerc 33000 Nice France
Champs: {""Building_Number"": 172, ""City"": ""Nice"", ""Country"": ""France"", ""Recipient"": ""Pharmacie Centrale"", ""Street_Name"": ""du Général Leclerc"", ""Zip_Code"": 33000, ""repetition"": null, ""type_voie"": ""chemin""}"
Café de la Gare 79 A rue Victor Hugo 6000 Nantes France,79,A,rue,Victor Hugo,6000,Nantes,France,Café de la Gare,"Parsing: Café de la Gare 79 A rue Victor Hugo 6000 Nantes France
Champs: {""Building_Number"": 79, ""City"": ""Nantes"", ""Country"": ""France"", ""Recipient"": ""Café de la Gare"", ""Street_Name"": ""Victor Hugo"", ""Zip_Code"": 6000, ""repetition"": ""A"", ""type_voie"": ""rue""}"
rue 67000 m. durant lyon 189 france victor hugo,189,,rue,Victor Hugo,67000,Lyon,France,M. Durant,"Parsing: rue 67000 m. durant lyon 189 france victor hugo
Champs: {""Building_Number"": 189, ""City"": ""Lyon"", ""Country"": ""France"", ""Recipient"": ""M. Durant"", ""Street_Name"": ""Victor Hugo"", ""Zip_Code"": 67000, ""repetition"": null, ""type_voie"": ""rue""}"
M. Garnier 164 chemin Victor Hugo 13008 Nice France,164,,chemin,Victor Hugo,13008,Nice,France,M. Garnier,"Parsing: M. Garnier 164 chemin Victor Hugo 13008 Nice France
Champs: {""Building_Number"": 164, ""City"": ""Nice"", ""Country"": ""France"", ""Recipient"": ""M. Garnier"", ""Street_Name"": ""Victor Hugo"", ""Zip_Code"": 13008, ""repetition"": null, ""type_voie"": ""chemin""}"
69003 188 Marseille France Association Soleil Victor Hugo rue,188,,rue,Victor Hugo,69003,Marseille,France,Association Soleil,"Parsing: 69003 188 Marseille France Association Soleil Victor Hugo rue
Champs: {""Building_Number"": 188, ""City"": ""Marseille"", ""Country"": ""France"", ""Recipient"": ""Association Soleil"", ""Street_Name"": ""Victor Hugo"", ""Zip_Code"": 69003, ""repetition"": null, ""type_voie"": ""rue""}"
142 avenue de la République 75001 Bordeaux France,142,,avenue,de la République,75001,Bordeaux,France,,"Parsing: 142 avenue de la République 75001 Bordeaux France
Champs: {""Building_Number"": 142, ""City"": ""Bordeaux"", ""Country"": ""France"", ""Recipient"": null, ""Street_Name"": ""de la République"", ""Zip_Code"": 75001, ""repetition"": null, ""type_voie"": ""avenue""}"
Dr. Roux 128 avenue de la République 6000 Nice France,128,,avenue,de la République,6000,Nice,France,Dr. Roux,"Parsing: Dr. Roux 128 avenue de la République 6000 Nice France
Champs: {""Building_Number"": 128, ""City"": ""Nice"", ""Country"": ""France"", ""Recipient"": ""Dr. Roux"", ""Street_Name"": ""de la République"", ""Zip_Code"": 6000, ""repetition"": null, ""type_voie"": ""avenue""}"
France de Verdun 34 rue 75001 SCI Horizon Nantes,34,,rue,de Verdun,75001,Nantes,France,SCI Horizon,"Parsing: France de Verdun 34 rue 75001 SCI Horizon Nantes
Champs: {""Building_Number"": 34, ""City"": ""Nantes"", ""Country"": ""France"", ""Recipient"": ""SCI Horizon"", ""Street_Name"": ""de Verdun"", ""Zip_Code"": 75001, ""repetition"": null, ""type_voie"": ""rue""}"
Victor Hugo France avenue 105 B Bordeaux 67000,105,B,avenue,Victor Hugo,67000,Bordeaux,France,,"Parsing: Victor Hugo France avenue 105 B Bordeaux 67000
Champs: {""Building_Number"": 105, ""City"": ""Bordeaux"", ""Country"": ""France"", ""Recipient"": null, ""Street_Name"": ""Victor Hugo"", ""Zip_Code"": 67000, ""repetition"": ""B"", ""type_voie"": ""avenue""}"
Crèche Les Poussins 191 B boulevard Jean Jaurès 75001 Lyon France,191,B,boulevard,Jean Jaurès,75001,Lyon,France,Crèche Les Poussins,"Parsing: Crèche Les Poussins 191 B boulevard Jean Jaurès 75001 Lyon France
Champs: {""Building_Number"": 191, ""City"": ""Lyon"", ""Country"": ""France"", ""Recipient"": ""Crèche Les Poussins"", ""Street_Name"": ""Jean Jaurès"", ""Zip_Code"": 75001, ""repetition"": ""B"", ""type_voie"": ""boulevard""}"
clinique du parc 163 b rue du général leclerc 67000 lyon france,163,B,rue,du Général Leclerc,67000,Lyon,France,Clinique du Parc,"Parsing: clinique du parc 163 b rue du général leclerc 67000 lyon france
Champs: {""Building_Number"": 163, ""City"": ""Lyon"", ""Country"": ""France"", ""Recipient"": ""Clinique du Parc"", ""Street_Name"": ""du Général Leclerc"", ""Zip_Code"": 67000, ""repetition"": ""B"", ""type_voie"": ""rue""}"
france lyon 48 b dr. roux des lilas chemin 31000,48,B,chemin,des Lilas,31000,Lyon,France,Dr. Roux,"Parsing: france lyon 48 b dr. roux des lilas chemin 31000
Champs: {""Building_Number"": 48, ""City"": ""Lyon"", ""Country"": ""France"", ""Recipient"": ""Dr. Roux"", ""Street_Name"": ""des Lilas"", ""Zip_Code"": 31000, ""repetition"": ""B"", ""type_voie"": ""chemin""}"
M. Garnier 20 B France 31000 des Lilas Lyon avenue,20,B,avenue,des Lilas,31000,Lyon,France,M. Garnier,"Parsing: M. Garnier 20 B France 31000 des Lilas Lyon avenue
Champs: {""Building_Number"": 20, ""City"": ""Lyon"", ""Country"": ""France"", ""Recipient"": ""M. Garnier"", ""Street_Name"": ""des Lilas"", ""Zip_Code"": 31000, ""repetition"": ""B"", ""type_voie"": ""avenue""}"
École Saint-Exupéry 175 boulevard de Verdun 13008 Boulogne-Billancourt France,175,,boulevard,de Verdun,13008,Boulogne-Billancourt,France,École Saint-Exupéry,"Parsing: École Saint-Exupéry 175 boulevard de Verdun 13008 Boulogne-Billancourt France
Champs: {""Building_Number"": 175, ""City"": ""Boulogne-Billancourt"", ""Country"": ""France"", ""Recipient"": ""École Saint-Exupéry"", ""Street_Name"": ""de Verdun"", ""Zip_Code"": 13008, ""repetition"": null, ""type_voie"": ""boulevard""}"
Mme Faure 44 bis chemin de Verdun 92100 Paris France,44,bis,chemin,de Verdun,92100,Paris,France,Mme Faure,"Parsing: Mme Faure 44 bis chemin de Verdun 92100 Paris France
Champs: {""Building_Number"": 44, ""City"": ""Paris"", ""Country"": ""France"", ""Recipient"": ""Mme Faure"", ""Street_Name"": ""de Verdun"", ""Zip_Code"": 92100, ""repetition"": ""bis"", ""type_voie"": ""chemin""}"
France 150 33000 Strasbourg de la République chemin Boulangerie Martin,150,,chemin,de la République,33000,Strasbourg,France,Boulangerie Martin,"Parsing: France 150 33000 Strasbourg de la République chemin Boulangerie Martin
Champs: {""Building_Number"": 150, ""City"": ""Strasbourg"", ""Country"": ""France"", ""Recipient"": ""Boulangerie Martin"", ""Street_Name"": ""de la République"", ""Zip_Code"": 33000, ""repetition"": null, ""type_voie"": ""chemin""}"
France Boulogne-Billancourt SARL Lambert des Lilas avenue 153 bis 33000,153,bis,avenue,des Lilas,33000,Boulogne-Billancourt,France,SARL Lambert,"Parsing: France Boulogne-Billancourt SARL Lambert des Lilas avenue 153 bis 33000
Champs: {""Building_Number"": 153, ""City"": ""Boulogne-Billancourt"", ""Country"": ""France"", ""Recipient"": ""SARL Lambert"", ""Street_Name"": ""des Lilas"", ""Zip_Code"": 33000, ""repetition"": ""bis"", ""type_voie"": ""avenue""}"
m. durant 161 a rue de la république 33000 nice france,161,A,rue,de la République,33000,Nice,France,M. Durant,"Parsing: m. durant 161 a rue de la république 33000 nice france
Champs: {""Building_Number"": 161, ""City"": ""Nice"", ""Country"": ""France"", ""Recipient"": ""M. Durant"", ""Street_Name"": ""de la République"", ""Zip_Code"": 33000, ""repetition"": ""A"", ""type_voie"": ""rue""}"
m. durant 48 impasse jean jaurès 31000 nice france,48,,impasse,Jean Jaurès,31000,Nice,France,M. Durant,"Parsing: m. durant 48 impasse jean jaurès 31000 nice france
Champs: {""Building_Number"": 48, ""City"": ""Nice"", ""Country"": ""France"", ""Recipient"": ""M. Durant"", ""Street_Name"": ""Jean Jaurès"", ""Zip_Code"": 31000, ""repetition"": null, ""type_voie"": ""impasse""}"
boulevard strasbourg jean jaurès m. garnier france 75001 147,147,,boulevard,Jean Jaurès,75001,Strasbourg,France,M. Garnier,"Parsing: boulevard strasbourg jean jaurès m. garnier france 75001 147
Champs: {""Building_Number"": 147, ""City"": ""Strasbourg"", ""Country"": ""France"", ""Recipient"": ""M. Garnier"", ""Street_Name"": ""Jean Jaurès"", ""Zip_Code"": 75001, ""repetition"": null, ""type_voie"": ""boulevard""}"
Entreprise Dupuis 172 A route de la République 6000 Strasbourg France,172,A,route,de la République,6000,Strasbourg,France,Entreprise Dupuis,"Parsing: Entreprise Dupuis 172 A route de la République 6000 Strasbourg France
Champs: {""Building_Number"": 172, ""City"": ""Strasbourg"", ""Country"": ""France"", ""Recipient"": ""Entreprise Dupuis"", ""Street_Name"": ""de la République"", ""Zip_Code"": 6000, ""repetition"": ""A"", ""type_voie"": ""route""}"
de la république b france chemin 126 marseille 13008 sarl lambert,126,B,chemin,de la République,13008,Marseille,France,SARL Lambert,"Parsing: de la république b france chemin 126 marseille 13008 sarl lambert
Champs: {""Building_Number"": 126, ""City"": ""Marseille"", ""Country"": ""France"", ""Recipient"": ""SARL Lambert"", ""Street_Name"": ""de la République"", ""Zip_Code"": 13008, ""repetition"": ""B"", ""type_voie"": ""chemin""}"
b rue mme martin france 69003 lyon 44 du général leclerc,44,B,rue,du Général Leclerc,69003,Lyon,France,Mme Martin,"Parsing: b rue mme martin france 69003 lyon 44 du général leclerc
Champs: {""Building_Number"": 44, ""City"": ""Lyon"", ""Country"": ""France"", ""Recipient"": ""Mme Martin"", ""Street_Name"": ""du Général Leclerc"", ""Zip_Code"": 69003, ""repetition"": ""B"", ""type_voie"": ""rue""}"
Dupont 69 A chemin de la République 6000 Nantes France,69,A,chemin,de la République,6000,Nantes,France,Dupont,"Parsing: Dupont 69 A chemin de la République 6000 Nantes France
Champs: {""Building_Number"": 69, ""City"": ""Nantes"", ""Country"": ""France"", ""Recipient"": ""Dupont"", ""Street_Name"": ""de la République"", ""Zip_Code"": 6000, ""repetition"": ""A"", ""type_voie"": ""chemin""}"
Mairie de Lyon 181 A impasse de Verdun 33000 Lyon France,181,A,impasse,de Verdun,33000,Lyon,France,Mairie de Lyon,"Parsing: Mairie de Lyon 181 A impasse de Verdun 33000 Lyon France
Champs: {""Building_Number"": 181, ""City"": ""Lyon"", ""Country"": ""France"", ""Recipient"": ""Mairie de Lyon"", ""Street_Name"": ""de Verdun"", ""Zip_Code"": 33000, ""repetition"": ""A"", ""type_voie"": ""impasse""}"
121 ter chemin Jean Jaurès 33000 Paris France,121,ter,chemin,Jean Jaurès,33000,Paris,France,,"Parsing: 121 ter chemin Jean Jaurès 33000 Paris France
Champs: {""Building_Number"": 121, ""City"": ""Paris"", ""Country"": ""France"", ""Recipient"": null, ""Street_Name"": ""Jean Jaurès"", ""Zip_Code"": 33000, ""repetition"": ""ter"", ""type_voie"": ""chemin""}"
M. Morel 121 bis rue de la République 92100 Boulogne-Billancourt France,121,bis,rue,de la République,92100,Boulogne-Billancourt,France,M. Morel,"Parsing: M. Morel 121 bis rue de la République 92100 Boulogne-Billancourt France
Champs: {""Building_Number"": 121, ""City"": ""Boulogne-Billancourt"", ""Country"": ""France"", ""Recipient"": ""M. Morel"", ""Street_Name"": ""de la République"", ""Zip_Code"": 92100, ""repetition"": ""bis"", ""type_voie"": ""rue""}"
Société Leroy 57 rue Jean Jaurès 69003 Bordeaux France,57,,rue,Jean Jaurès,69003,Bordeaux,France,Société Leroy,"Parsing: Société Leroy 57 rue Jean Jaurès 69003 Bordeaux France
Champs: {""Building_Number"": 57, ""City"": ""Bordeaux"", ""Country"": ""France"", ""Recipient"": ""Société Leroy"", ""Street_Name"": ""Jean Jaurès"", ""Zip_Code"": 69003, ""repetition"": null, ""type_voie"": ""rue""}"
rue 34 Toulouse France de Verdun 69003,34,,rue,de Verdun,69003,Toulouse,France,,"Parsing: rue 34 Toulouse France de Verdun 69003
Champs: {""Building_Number"": 34, ""City"": ""Toulouse"", ""Country"": ""France"", ""Recipient"": null, ""Street_Name"": ""de Verdun"", ""Zip_Code"": 69003, ""repetition"": null, ""type_voie"": ""rue""}"
école saint-exupéry 118 ter avenue de la république 44000 paris france,118,ter,avenue,de la République,44000,Paris,France,École Saint-Exupéry,"Parsing: école saint-exupéry 118 ter avenue de la république 44000 paris france
Champs: {""Building_Number"": 118, ""City"": ""Paris"", ""Country"": ""France"", ""Recipient"": ""École Saint-Exupéry"", ""Street_Name"": ""de la République"", ""Zip_Code"": 44000, ""repetition"": ""ter"", ""type_voie"": ""avenue""}"
m. durant 13 bis chemin de la république 67000 toulouse france,13,bis,chemin,de la République,67000,Toulouse,France,M. Durant,"Parsing: m. durant 13 bis chemin de la république 67000 toulouse france
Champs: {""Building_Number"": 13, ""City"": ""Toulouse"", ""Country"": ""France"", ""Recipient"": ""M. Durant"", ""Street_Name"": ""de la République"", ""Zip_Code"": 67000, ""repetition"": ""bis"", ""type_voie"": ""chemin""}"
33000 des Lilas France Paris impasse Mme Martin 60 A,60,A,impasse,des Lilas,33000,Paris,France,Mme Martin,"Parsing: 33000 des Lilas France Paris impasse Mme Martin 60 A
Champs: {""Building_Number"": 60, ""City"": ""Paris"", ""Country"": ""France"", ""Recipient"": ""Mme Martin"", ""Street_Name"": ""des Lilas"", ""Zip_Code"": 33000, ""repetition"": ""A"", ""type_voie"": ""impasse""}"
M. Morel 127 bis route Jean Jaurès 75001 Nantes France,127,bis,route,Jean Jaurès,75001,Nantes,France,M. Morel,"Parsing: M. Morel 127 bis route Jean Jaurès 75001 Nantes France
Champs: {""Building_Number"": 127, ""City"": ""Nantes"", ""Country"": ""France"", ""Recipient"": ""M. Morel"", ""Street_Name"": ""Jean Jaurès"", ""Zip_Code"": 75001, ""repetition"": ""bis"", ""type_voie"": ""route""}"
ter 44000 France Pharmacie Centrale 17 de Verdun impasse Paris,17,ter,impasse,de Verdun,44000,Paris,France,Pharmacie Centrale,"Parsing: ter 44000 France Pharmacie Centrale 17 de Verdun impasse Paris
Champs: {""Building_Number"": 17, ""City"": ""Paris"", ""Country"": ""France"", ""Recipient"": ""Pharmacie Centrale"", ""Street_Name"": ""de Verdun"", ""Zip_Code"": 44000, ""repetition"": ""ter"", ""type_voie"": ""impasse""}"
mme martin 68 b rue de la république 44000 marseille france,68,B,rue,de la République,44000,Marseille,France,Mme Martin,"Parsing: mme martin 68 b rue de la république 44000 marseille france
Champs: {""Building_Number"": 68, ""City"": ""Marseille"", ""Country"": ""France"", ""Recipient"": ""Mme Martin"", ""Street_Name"": ""de la République"", ""Zip_Code"": 44000, ""repetition"": ""B"", ""type_voie"": ""rue""}"
140 ter Lyon avenue 75001 Jean Jaurès France,140,ter,avenue,Jean Jaurès,75001,Lyon,France,,"Parsing: 140 ter Lyon avenue 75001 Jean Jaurès France
Champs: {""Building_Number"": 140, ""City"": ""Lyon"", ""Country"": ""France"", ""Recipient"": null, ""Street_Name"": ""Jean Jaurès"", ""Zip_Code"": 75001, ""repetition"": ""ter"", ""type_voie"": ""avenue""}"
pharmacie centrale 24 bis route des lilas 67000 bordeaux france,24,bis,route,des Lilas,67000,Bordeaux,France,Pharmacie Centrale,"Parsing: pharmacie centrale 24 bis route des lilas 67000 bordeaux france
Champs: {""Building_Number"": 24, ""City"": ""Bordeaux"", ""Country"": ""France"", ""Recipient"": ""Pharmacie Centrale"", ""Street_Name"": ""des Lilas"", ""Zip_Code"": 67000, ""repetition"": ""bis"", ""type_voie"": ""route""}"
Mairie de Lyon 188 rue de Verdun 67000 Marseille France,188,,rue,de Verdun,67000,Marseille,France,Mairie de Lyon,"Parsing: Mairie de Lyon 188 rue de Verdun 67000 Marseille France
Champs: {""Building_Number"": 188, ""City"": ""Marseille"", ""Country"": ""France"", ""Recipient"": ""Mairie de Lyon"", ""Street_Name"": ""de Verdun"", ""Zip_Code"": 67000, ""repetition"": null, ""type_voie"": ""rue""}"
Garage Peugeot 21 B boulevard du Général Leclerc 44000 Lyon France,21,B,boulevard,du Général Leclerc,44000,Lyon,France,Garage Peugeot,"Parsing: Garage Peugeot 21 B boulevard du Général Leclerc 44000 Lyon France
Champs: {""Building_Number"": 21, ""City"": ""Lyon"", ""Country"": ""France"", ""Recipient"": ""Garage Peugeot"", ""Street_Name"": ""du Général Leclerc"", ""Zip_Code"": 44000, ""repetition"": ""B"", ""type_voie"": ""boulevard""}"
dupont 153 ter boulevard victor hugo 13008 paris france,153,ter,boulevard,Victor Hugo,13008,Paris,France,Dupont,"Parsing: dupont 153 ter boulevard victor hugo 13008 paris france
Champs: {""Building_Number"": 153, ""City"": ""Paris"", ""Country"": ""France"", ""Recipient"": ""Dupont"", ""Street_Name"": ""Victor Hugo"", ""Zip_Code"": 13008, ""repetition"": ""ter"", ""type_voie"": ""boulevard""}"
dr. roux 6 b rue de verdun 44000 paris france,6,B,rue,de Verdun,44000,Paris,France,Dr. Roux,"Parsing: dr. roux 6 b rue de verdun 44000 paris france
Champs: {""Building_Number"": 6, ""City"": ""Paris"", ""Country"": ""France"", ""Recipient"": ""Dr. Roux"", ""Street_Name"": ""de Verdun"", ""Zip_Code"": 44000, ""repetition"": ""B"", ""type_voie"": ""rue""}"
m. garnier 186 route du général leclerc 13008 toulouse france,186,,route,du Général Leclerc,13008,Toulouse,France,M. Garnier,"Parsing: m. garnier 186 route du général leclerc 13008 toulouse france
Champs: {""Building_Number"": 186, ""City"": ""Toulouse"", ""Country"": ""France"", ""Recipient"": ""M. Garnier"", ""Street_Name"": ""du Général Leclerc"", ""Zip_Code"": 13008, ""repetition"": null, ""type_voie"": ""route""}"
Café de la Gare 79 ter route de Verdun 92100 Bordeaux France,79,ter,route,de Verdun,92100,Bordeaux,France,Café de la Gare,"Parsing: Café de la Gare 79 ter route de Verdun 92100 Bordeaux France
Champs: {""Building_Number"": 79, ""City"": ""Bordeaux"", ""Country"": ""France"", ""Recipient"": ""Café de la Gare"", ""Street_Name"": ""de Verdun"", ""Zip_Code"": 92100, ""repetition"": ""ter"", ""type_voie"": ""route""}"
garage peugeot 114 a rue des lilas 6000 paris france,114,A,rue,des Lilas,6000,Paris,France,Garage Peugeot,"Parsing: garage peugeot 114 a rue des lilas 6000 paris france
Champs: {""Building_Number"": 114, ""City"": ""Paris"", ""Country"": ""France"", ""Recipient"": ""Garage Peugeot"", ""Street_Name"": ""des Lilas"", ""Zip_Code"": 6000, ""repetition"": ""A"", ""type_voie"": ""rue""}"
clinique du parc 21 a route des lilas 44000 boulogne-billancourt france,21,A,route,des Lilas,44000,Boulogne-Billancourt,France,Clinique du Parc,"Parsing: clinique du parc 21 a route des lilas 44000 boulogne-billancourt france
Champs: {""Building_Number"": 21, ""City"": ""Boulogne-Billancourt"", ""Country"": ""France"", ""Recipient"": ""Clinique du Parc"", ""Street_Name"": ""des Lilas"", ""Zip_Code"": 44000, ""repetition"": ""A"", ""type_voie"": ""route""}"
92100 du général leclerc toulouse 35 bis entreprise dupuis france route,35,bis,route,du Général Leclerc,92100,Toulouse,France,Entreprise Dupuis,"Parsing: 92100 du général leclerc toulouse 35 bis entreprise dupuis france route
Champs: {""Building_Number"": 35, ""City"": ""Toulouse"", ""Country"": ""France"", ""Recipient"": ""Entreprise Dupuis"", ""Street_Name"": ""du Général Leclerc"", ""Zip_Code"": 92100, ""repetition"": ""bis"", ""type_voie"": ""route""}"
boulevard 69003 148 france du général leclerc nantes b,148,B,boulevard,du Général Leclerc,69003,Nantes,France,,"Parsing: boulevard 69003 148 france du général leclerc nantes b
Champs: {""Building_Number"": 148, ""City"": ""Nantes"", ""Country"": ""France"", ""Recipient"": null, ""Street_Name"": ""du Général Leclerc"", ""Zip_Code"": 69003, ""repetition"": ""B"", ""type_voie"": ""boulevard""}"
187 b avenue du général leclerc 75001 lyon france,187,B,avenue,du Général Leclerc,75001,Lyon,France,,"Parsing: 187 b avenue du général leclerc 75001 lyon france
Champs: {""Building_Number"": 187, ""City"": ""Lyon"", ""Country"": ""France"", ""Recipient"": null, ""Street_Name"": ""du Général Leclerc"", ""Zip_Code"": 75001, ""repetition"": ""B"", ""type_voie"": ""avenue""}"
Dr. Roux 113 B route de Verdun 13008 Bordeaux France,113,B,route,de Verdun,13008,Bordeaux,France,Dr. Roux,"Parsing: Dr. Roux 113 B route de Verdun 13008 Bordeaux France
Champs: {""Building_Number"": 113, ""City"": ""Bordeaux"", ""Country"": ""France"", ""Recipient"": ""Dr. Roux"", ""Street_Name"": ""de Verdun"", ""Zip_Code"": 13008, ""repetition"": ""B"", ""type_voie"": ""route""}"
Garage Peugeot 122 avenue de la République 33000 Toulouse France,122,,avenue,de la République,33000,Toulouse,France,Garage Peugeot,"Parsing: Garage Peugeot 122 avenue de la République 33000 Toulouse France
Champs: {""Building_Number"": 122, ""City"": ""Toulouse"", ""Country"": ""France"", ""Recipient"": ""Garage Peugeot"", ""Street_Name"": ""de la République"", ""Zip_Code"": 33000, ""repetition"": null, ""type_voie"": ""avenue""}"
paris france chemin 67000 dr. roux 17 b jean jaurès,17,B,chemin,Jean Jaurès,67000,Paris,France,Dr. Roux,"Parsing: paris france chemin 67000 dr. roux 17 b jean jaurès
Champs: {""Building_Number"": 17, ""City"": ""Paris"", ""Country"": ""France"", ""Recipient"": ""Dr. Roux"", ""Street_Name"": ""Jean Jaurès"", ""Zip_Code"": 67000, ""repetition"": ""B"", ""type_voie"": ""chemin""}"
France 69003 Association Soleil Jean Jaurès B 67 Strasbourg avenue,67,B,avenue,Jean Jaurès,69003,Strasbourg,France,Association Soleil,"Parsing: France 69003 Association Soleil Jean Jaurès B 67 Strasbourg avenue
Champs: {""Building_Number"": 67, ""City"": ""Strasbourg"", ""Country"": ""France"", ""Recipient"": ""Association Soleil"", ""Street_Name"": ""Jean Jaurès"", ""Zip_Code"": 69003, ""repetition"": ""B"", ""type_voie"": ""avenue""}"
M. Durant 8 ter boulevard de la République 6000 Nice France,8,ter,boulevard,de la République,6000,Nice,France,M. Durant,"Parsing: M. Durant 8 ter boulevard de la République 6000 Nice France
Champs: {""Building_Number"": 8, ""City"": ""Nice"", ""Country"": ""France"", ""Recipient"": ""M. Durant"", ""Street_Name"": ""de la République"", ""Zip_Code"": 6000, ""repetition"": ""ter"", ""type_voie"": ""boulevard""}"
café de la gare 194 a route des lilas 13008 strasbourg france,194,A,route,des Lilas,13008,Strasbourg,France,Café de la Gare,"Parsing: café de la gare 194 a route des lilas 13008 strasbourg france
Champs: {""Building_Number"": 194, ""City"": ""Strasbourg"", ""Country"": ""France"", ""Recipient"": ""Café de la Gare"", ""Street_Name"": ""des Lilas"", ""Zip_Code"": 13008, ""repetition"": ""A"", ""type_voie"": ""route""}"
81 du général leclerc mme faure france b boulevard 92100 toulouse,81,B,boulevard,du Général Leclerc,92100,Toulouse,France,Mme Faure,"Parsing: 81 du général leclerc mme faure france b boulevard 92100 toulouse
Champs: {""Building_Number"": 81, ""City"": ""Toulouse"", ""Country"": ""France"", ""Recipient"": ""Mme Faure"", ""Street_Name"": ""du Général Leclerc"", ""Zip_Code"": 92100, ""repetition"": ""B"", ""type_voie"": ""boulevard""}"
Mairie de Lyon 170 B chemin de Verdun 67000 Lyon France,170,B,chemin,de Verdun,67000,Lyon,France,Mairie de Lyon,"Parsing: Mairie de Lyon 170 B chemin de Verdun 67000 Lyon France
Champs: {""Building_Number"": 170, ""City"": ""Lyon"", ""Country"": ""France"", ""Recipient"": ""Mairie de Lyon"", ""Street_Name"": ""de Verdun"", ""Zip_Code"": 67000, ""repetition"": ""B"", ""type_voie"": ""chemin""}"
m. garnier chemin bordeaux jean jaurès 64 67000 france ter,64,ter,chemin,Jean Jaurès,67000,Bordeaux,France,M. Garnier,"Parsing: m. garnier chemin bordeaux jean jaurès 64 67000 france ter
Champs: {""Building_Number"": 64, ""City"": ""Bordeaux"", ""Country"": ""France"", ""Recipient"": ""M. Garnier"", ""Street_Name"": ""Jean Jaurès"", ""Zip_Code"": 67000, ""repetition"": ""ter"", ""type_voie"": ""chemin""}"
Association Soleil 46 bis rue de Verdun 31000 Strasbourg France,46,bis,rue,de Verdun,31000,Strasbourg,France,Association Soleil,"Parsing: Association Soleil 46 bis rue de Verdun 31000 Strasbourg France
Champs: {""Building_Number"": 46, ""City"": ""Strasbourg"", ""Country"": ""France"", ""Recipient"": ""Association Soleil"", ""Street_Name"": ""de Verdun"", ""Zip_Code"": 31000, ""repetition"": ""bis"", ""type_voie"": ""rue""}"
Pharmacie Centrale 66 A avenue de la République 92100 Toulouse France,66,A,avenue,de la République,92100,Toulouse,France,Pharmacie Centrale,"Parsing: Pharmacie Centrale 66 A avenue de la République 92100 Toulouse France
Champs: {""Building_Number"": 66, ""City"": ""Toulouse"", ""Country"": ""France"", ""Recipient"": ""Pharmacie Centrale"", ""Street_Name"": ""de la République"", ""Zip_Code"": 92100, ""repetition"": ""A"", ""type_voie"": ""avenue""}"
Nice ter France route 73 Victor Hugo SARL Lambert 67000,73,ter,route,Victor Hugo,67000,Nice,France,SARL Lambert,"Parsing: Nice ter France route 73 Victor Hugo SARL Lambert 67000
Champs: {""Building_Number"": 73, ""City"": ""Nice"", ""Country"": ""France"", ""Recipient"": ""SARL Lambert"", ""Street_Name"": ""Victor Hugo"", ""Zip_Code"": 67000, ""repetition"": ""ter"", ""type_voie"": ""route""}"
pharmacie centrale 183 ter rue du général leclerc 31000 nantes france,183,ter,rue,du Général Leclerc,31000,Nantes,France,Pharmacie Centrale,"Parsing: pharmacie centrale 183 ter rue du général leclerc 31000 nantes france
Champs: {""Building_Number"": 183, ""City"": ""Nantes"", ""Country"": ""France"", ""Recipient"": ""Pharmacie Centrale"", ""Street_Name"": ""du Général Leclerc"", ""Zip_Code"": 31000, ""repetition"": ""ter"", ""type_voie"": ""rue""}"
M. Durant 26 ter rue Jean Jaurès 92100 Bordeaux France,26,ter,rue,Jean Jaurès,92100,Bordeaux,France,M. Durant,"Parsing: M. Durant 26 ter rue Jean Jaurès 92100 Bordeaux France
Champs: {""Building_Number"": 26, ""City"": ""Bordeaux"", ""Country"": ""France"", ""Recipient"": ""M. Durant"", ""Street_Name"": ""Jean Jaurès"", ""Zip_Code"": 92100, ""repetition"": ""ter"", ""type_voie"": ""rue""}"
Café de la Gare 46 bis rue du Général Leclerc 67000 Toulouse France,46,bis,rue,du Général Leclerc,67000,Toulouse,France,Café de la Gare,"Parsing: Café de la Gare 46 bis rue du Général Leclerc 67000 Toulouse France
Champs: {""Building_Number"": 46, ""City"": ""Toulouse"", ""Country"": ""France"", ""Recipient"": ""Café de la Gare"", ""Street_Name"": ""du Général Leclerc"", ""Zip_Code"": 67000, ""repetition"": ""bis"", ""type_voie"": ""rue""}"
198 A impasse de Verdun 31000 Strasbourg France,198,A,impasse,de Verdun,31000,Strasbourg,France,,"Parsing: 198 A impasse de Verdun 31000 Strasbourg France
Champs: {""Building_Number"": 198, ""City"": ""Strasbourg"", ""Country"": ""France"", ""Recipient"": null, ""Street_Name"": ""de Verdun"", ""Zip_Code"": 31000, ""repetition"": ""A"", ""type_voie"": ""impasse""}"
a route 129 toulouse france de verdun 75001 garage peugeot,129,A,route,de Verdun,75001,Toulouse,France,Garage Peugeot,"Parsing: a route 129 toulouse france de verdun 75001 garage peugeot
Champs: {""Building_Number"": 129, ""City"": ""Toulouse"", ""Country"": ""France"", ""Recipient"": ""Garage Peugeot"", ""Street_Name"": ""de Verdun"", ""Zip_Code"": 75001, ""repetition"": ""A"", ""type_voie"": ""route""}"
SARL Lambert 196 bis chemin du Général Leclerc 6000 Paris France,196,bis,chemin,du Général Leclerc,6000,Paris,France,SARL Lambert,"Parsing: SARL Lambert 196 bis chemin du Général Leclerc 6000 Paris France
Champs: {""Building_Number"": 196, ""City"": ""Paris"", ""Country"": ""France"", ""Recipient"": ""SARL Lambert"", ""Street_Name"": ""du Général Leclerc"", ""Zip_Code"": 6000, ""repetition"": ""bis"", ""type_voie"": ""chemin""}"
mme martin 149 a boulevard jean jaurès 33000 nice france,149,A,boulevard,Jean Jaurès,33000,Nice,France,Mme Martin,"Parsing: mme martin 149 a boulevard jean jaurès 33000 nice france
Champs: {""Building_Number"": 149, ""City"": ""Nice"", ""Country"": ""France"", ""Recipient"": ""Mme Martin"", ""Street_Name"": ""Jean Jaurès"", ""Zip_Code"": 33000, ""repetition"": ""A"", ""type_voie"": ""boulevard""}"
école saint-exupéry 178 route de la république 67000 toulouse france,178,,route,de la République,67000,Toulouse,France,École Saint-Exupéry,"Parsing: école saint-exupéry 178 route de la république 67000 toulouse france
Champs: {""Building_Number"": 178, ""City"": ""Toulouse"", ""Country"": ""France"", ""Recipient"": ""École Saint-Exupéry"", ""Street_Name"": ""de la République"", ""Zip_Code"": 67000, ""repetition"": null, ""type_voie"": ""route""}"
Mme Martin 173 chemin Jean Jaurès 67000 Boulogne-Billancourt France,173,,chemin,Jean Jaurès,67000,Boulogne-Billancourt,France,Mme Martin,"Parsing: Mme Martin 173 chemin Jean Jaurès 67000 Boulogne-Billancourt France
Champs: {""Building_Number"": 173, ""City"": ""Boulogne-Billancourt"", ""Country"": ""France"", ""Recipient"": ""Mme Martin"", ""Street_Name"": ""Jean Jaurès"", ""Zip_Code"": 67000, ""repetition"": null, ""type_voie"": ""chemin""}"
69003 Entreprise Dupuis France Strasbourg 95 rue Jean Jaurès,95,,rue,Jean Jaurès,69003,Strasbourg,France,Entreprise Dupuis,"Parsing: 69003 Entreprise Dupuis France Strasbourg 95 rue Jean Jaurès
Champs: {""Building_Number"": 95, ""City"": ""Strasbourg"", ""Country"": ""France"", ""Recipient"": ""Entreprise Dupuis"", ""Street_Name"": ""Jean Jaurès"", ""Zip_Code"": 69003, ""repetition"": null, ""type_voie"": ""rue""}"
SCI Horizon 3 ter boulevard Victor Hugo 75001 Nice France,3,ter,boulevard,Victor Hugo,75001,Nice,France,SCI Horizon,"Parsing: SCI Horizon 3 ter boulevard Victor Hugo 75001 Nice France
Champs: {""Building_Number"": 3, ""City"": ""Nice"", ""Country"": ""France"", ""Recipient"": ""SCI Horizon"", ""Street_Name"": ""Victor Hugo"", ""Zip_Code"": 75001, ""repetition"": ""ter"", ""type_voie"": ""boulevard""}"
clinique du parc 145 b route du général leclerc 75001 lyon france,145,B,route,du Général Leclerc,75001,Lyon,France,Clinique du Parc,"Parsing: clinique du parc 145 b route du général leclerc 75001 lyon france
Champs: {""Building_Number"": 145, ""City"": ""Lyon"", ""Country"": ""France"", ""Recipient"": ""Clinique du Parc"", ""Street_Name"": ""du Général Leclerc"", ""Zip_Code"": 75001, ""repetition"": ""B"", ""type_voie"": ""route""}"
m. garnier 104 bis route des lilas 44000 nantes france,104,bis,route,des Lilas,44000,Nantes,France,M. Garnier,"Parsing: m. garnier 104 bis route des lilas 44000 nantes france
Champs: {""Building_Number"": 104, ""City"": ""Nantes"", ""Country"": ""France"", ""Recipient"": ""M. Garnier"", ""Street_Name"": ""des Lilas"", ""Zip_Code"": 44000, ""repetition"": ""bis"", ""type_voie"": ""route""}"
137 13008 boulevard lyon victor hugo ter france entreprise dupuis,137,ter,boulevard,Victor Hugo,13008,Lyon,France,Entreprise Dupuis,"Parsing: 137 13008 boulevard lyon victor hugo ter france entreprise dupuis
Champs: {""Building_Number"": 137, ""City"": ""Lyon"", ""Country"": ""France"", ""Recipient"": ""Entreprise Dupuis"", ""Street_Name"": ""Victor Hugo"", ""Zip_Code"": 13008, ""repetition"": ""ter"", ""type_voie"": ""boulevard""}"
168 ter route du Général Leclerc 31000 Strasbourg France,168,ter,route,du Général Leclerc,31000,Strasbourg,France,,"Parsing: 168 ter route du Général Leclerc 31000 Strasbourg France
Champs: {""Building_Number"": 168, ""City"": ""Strasbourg"", ""Country"": ""France"", ""Recipient"": null, ""Street_Name"": ""du Général Leclerc"", ""Zip_Code"": 31000, ""repetition"": ""ter"", ""type_voie"": ""route""}"
Mme Faure A 31000 rue Nantes France de la République 49,49,A,rue,de la République,31000,Nantes,France,Mme Faure,"Parsing: Mme Faure A 31000 rue Nantes France de la République 49
Champs: {""Building_Number"": 49, ""City"": ""Nantes"", ""Country"": ""France"", ""Recipient"": ""Mme Faure"", ""Street_Name"": ""de la République"", ""Zip_Code"": 31000, ""repetition"": ""A"", ""type_voie"": ""rue""}"
bis 144 france clinique du parc jean jaurès strasbourg route 6000,144,bis,route,Jean Jaurès,6000,Strasbourg,France,Clinique du Parc,"Parsing: bis 144 france clinique du parc jean jaurès strasbourg route 6000
Champs: {""Building_Number"": 144, ""City"": ""Strasbourg"", ""Country"": ""France"", ""Recipient"": ""Clinique du Parc"", ""Street_Name"": ""Jean Jaurès"", ""Zip_Code"": 6000, ""repetition"": ""bis"", ""type_voie"": ""route""}"
entreprise dupuis 70 bis impasse de la république 69003 strasbourg france,70,bis,impasse,de la République,69003,Strasbourg,France,Entreprise Dupuis,"Parsing: entreprise dupuis 70 bis impasse de la république 69003 strasbourg france
Champs: {""Building_Number"": 70, ""City"": ""Strasbourg"", ""Country"": ""France"", ""Recipient"": ""Entreprise Dupuis"", ""Street_Name"": ""de la République"", ""Zip_Code"": 69003, ""repetition"": ""bis"", ""type_voie"": ""impasse""}"
boulangerie martin 198 bis impasse de verdun 31000 lyon france,198,bis,impasse,de Verdun,31000,Lyon,France,Boulangerie Martin,"Parsing: boulangerie martin 198 bis impasse de verdun 31000 lyon france
Champs: {""Building_Number"": 198, ""City"": ""Lyon"", ""Country"": ""France"", ""Recipient"": ""Boulangerie Martin"", ""Street_Name"": ""de Verdun"", ""Zip_Code"": 31000, ""repetition"": ""bis"", ""type_voie"": ""impasse""}"
café de la gare 194 b route des lilas 6000 boulogne-billancourt france,194,B,route,des Lilas,6000,Boulogne-Billancourt,France,Café de la Gare,"Parsing: café de la gare 194 b route des lilas 6000 boulogne-billancourt france
Champs: {""Building_Number"": 194, ""City"": ""Boulogne-Billancourt"", ""Country"": ""France"", ""Recipient"": ""Café de la Gare"", ""Street_Name"": ""des Lilas"", ""Zip_Code"": 6000, ""repetition"": ""B"", ""type_voie"": ""route""}"
impasse Bordeaux 96 France bis 67000 Dr. Roux du Général Leclerc,96,bis,impasse,du Général Leclerc,67000,Bordeaux,France,Dr. Roux,"Parsing: impasse Bordeaux 96 France bis 67000 Dr. Roux du Général Leclerc
Champs: {""Building_Number"": 96, ""City"": ""Bordeaux"", ""Country"": ""France"", ""Recipient"": ""Dr. Roux"", ""Street_Name"": ""du Général Leclerc"", ""Zip_Code"": 67000, ""repetition"": ""bis"", ""type_voie"": ""impasse""}"
chemin 108 de Verdun 67000 Garage Peugeot bis France Strasbourg,108,bis,chemin,de Verdun,67000,Strasbourg,France,Garage Peugeot,"Parsing: chemin 108 de Verdun 67000 Garage Peugeot bis France Strasbourg
Champs: {""Building_Number"": 108, ""City"": ""Strasbourg"", ""Country"": ""France"", ""Recipient"": ""Garage Peugeot"", ""Street_Name"": ""de Verdun"", ""Zip_Code"": 67000, ""repetition"": ""bis"", ""type_voie"": ""chemin""}"
Mme Faure 194 bis rue du Général Leclerc 69003 Strasbourg France,194,bis,rue,du Général Leclerc,69003,Strasbourg,France,Mme Faure,"Parsing: Mme Faure 194 bis rue du Général Leclerc 69003 Strasbourg France
Champs: {""Building_Number"": 194, ""City"": ""Strasbourg"", ""Country"": ""France"", ""Recipient"": ""Mme Faure"", ""Street_Name"": ""du Général Leclerc"", ""Zip_Code"": 69003, ""repetition"": ""bis"", ""type_voie"": ""rue""}"
France Bordeaux A 101 Clinique du Parc 13008 boulevard du Général Leclerc,101,A,boulevard,du Général Leclerc,13008,Bordeaux,France,Clinique du Parc,"Parsing: France Bordeaux A 101 Clinique du Parc 13008 boulevard du Général Leclerc
Champs: {""Building_Number"": 101, ""City"": ""Bordeaux"", ""Country"": ""France"", ""Recipient"": ""Clinique du Parc"", ""Street_Name"": ""du Général Leclerc"", ""Zip_Code"": 13008, ""repetition"": ""A"", ""type_voie"": ""boulevard""}"
boulangerie martin 40 ter avenue des lilas 31000 boulogne-billancourt france,40,ter,avenue,des Lilas,31000,Boulogne-Billancourt,France,Boulangerie Martin,"Parsing: boulangerie martin 40 ter avenue des lilas 31000 boulogne-billancourt france
Champs: {""Building_Number"": 40, ""City"": ""Boulogne-Billancourt"", ""Country"": ""France"", ""Recipient"": ""Boulangerie Martin"", ""Street_Name"": ""des Lilas"", ""Zip_Code"": 31000, ""repetition"": ""ter"", ""type_voie"": ""avenue""}"
M. Morel 90 route de Verdun 69003 Boulogne-Billancourt France,90,,route,de Verdun,69003,Boulogne-Billancourt,France,M. Morel,"Parsing: M. Morel 90 route de Verdun 69003 Boulogne-Billancourt France
Champs: {""Building_Number"": 90, ""City"": ""Boulogne-Billancourt"", ""Country"": ""France"", ""Recipient"": ""M. Morel"", ""Street_Name"": ""de Verdun"", ""Zip_Code"": 69003, ""repetition"": null, ""type_voie"": ""route""}"
mairie de lyon 148 b chemin victor hugo 31000 bordeaux france,148,B,chemin,Victor Hugo,31000,Bordeaux,France,Mairie de Lyon,"Parsing: mairie de lyon 148 b chemin victor hugo 31000 bordeaux france
Champs: {""Building_Number"": 148, ""City"": ""Bordeaux"", ""Country"": ""France"", ""Recipient"": ""Mairie de Lyon"", ""Street_Name"": ""Victor Hugo"", ""Zip_Code"": 31000, ""repetition"": ""B"", ""type_voie"": ""chemin""}"
École Saint-Exupéry 187 ter impasse de la République 75001 Marseille France,187,ter,impasse,de la République,75001,Marseille,France,École Saint-Exupéry,"Parsing: École Saint-Exupéry 187 ter impasse de la République 75001 Marseille France
Champs: {""Building_Number"": 187, ""City"": ""Marseille"", ""Country"": ""France"", ""Recipient"": ""École Saint-Exupéry"", ""Street_Name"": ""de la République"", ""Zip_Code"": 75001, ""repetition"": ""ter"", ""type_voie"": ""impasse""}"
31000 paris jean jaurès france 92 rue a,92,A,rue,Jean Jaurès,31000,Paris,France,,"Parsing: 31000 paris jean jaurès france 92 rue a
Champs: {""Building_Number"": 92, ""City"": ""Paris"", ""Country"": ""France"", ""Recipient"": null, ""Street_Name"": ""Jean Jaurès"", ""Zip_Code"": 31000, ""repetition"": ""A"", ""type_voie"": ""rue""}"
france route 180 jean jaurès nantes mme martin 6000,180,,route,Jean Jaurès,6000,Nantes,France,Mme Martin,"Parsing: france route 180 jean jaurès nantes mme martin 6000
Champs: {""Building_Number"": 180, ""City"": ""Nantes"", ""Country"": ""France"", ""Recipient"": ""Mme Martin"", ""Street_Name"": ""Jean Jaurès"", ""Zip_Code"": 6000, ""repetition"": null, ""type_voie"": ""route""}"
entreprise dupuis 70 ter avenue jean jaurès 75001 lyon france,70,ter,avenue,Jean Jaurès,75001,Lyon,France,Entreprise Dupuis,"Parsing: entreprise dupuis 70 ter avenue jean jaurès 75001 lyon france
Champs: {""Building_Number"": 70, ""City"": ""Lyon"", ""Country"": ""France"", ""Recipient"": ""Entreprise Dupuis"", ""Street_Name"": ""Jean Jaurès"", ""Zip_Code"": 75001, ""repetition"": ""ter"", ""type_voie"": ""avenue""}"
de la république france boulogne-billancourt 44000 m. garnier 71 a boulevard,71,A,boulevard,de la République,44000,Boulogne-Billancourt,France,M. Garnier,"Parsing: de la république france boulogne-billancourt 44000 m. garnier 71 a boulevard
Champs: {""Building_Number"": 71, ""City"": ""Boulogne-Billancourt"", ""Country"": ""France"", ""Recipient"": ""M. Garnier"", ""Street_Name"": ""de la République"", ""Zip_Code"": 44000, ""repetition"": ""A"", ""type_voie"": ""boulevard""}"
M. Garnier 196 route du Général Leclerc 92100 Lyon France,196,,route,du Général Leclerc,92100,Lyon,France,M. Garnier,"Parsing: M. Garnier 196 route du Général Leclerc 92100 Lyon France
Champs: {""Building_Number"": 196, ""City"": ""Lyon"", ""Country"": ""France"", ""Recipient"": ""M. Garnier"", ""Street_Name"": ""du Général Leclerc"", ""Zip_Code"": 92100, ""repetition"": null, ""type_voie"": ""route""}"
sci horizon 139 b impasse de la république 13008 nice france,139,B,impasse,de la République,13008,Nice,France,SCI Horizon,"Parsing: sci horizon 139 b impasse de la république 13008 nice france
Champs: {""Building_Number"": 139, ""City"": ""Nice"", ""Country"": ""France"", ""Recipient"": ""SCI Horizon"", ""Street_Name"": ""de la République"", ""Zip_Code"": 13008, ""repetition"": ""B"", ""type_voie"": ""impasse""}"
67000 route 131 entreprise dupuis france nantes a du général leclerc,131,A,route,du Général Leclerc,67000,Nantes,France,Entreprise Dupuis,"Parsing: 67000 route 131 entreprise dupuis france nantes a du général leclerc
Champs: {""Building_Number"": 131, ""City"": ""Nantes"", ""Country"": ""France"", ""Recipient"": ""Entreprise Dupuis"", ""Street_Name"": ""du Général Leclerc"", ""Zip_Code"": 67000, ""repetition"": ""A"", ""type_voie"": ""route""}"
dupont 30 ter chemin victor hugo 67000 strasbourg france,30,ter,chemin,Victor Hugo,67000,Strasbourg,France,Dupont,"Parsing: dupont 30 ter chemin victor hugo 67000 strasbourg france
Champs: {""Building_Number"": 30, ""City"": ""Strasbourg"", ""Country"": ""France"", ""Recipient"": ""Dupont"", ""Street_Name"": ""Victor Hugo"", ""Zip_Code"": 67000, ""repetition"": ""ter"", ""type_voie"": ""chemin""}"
dr. roux 1 b avenue du général leclerc 13008 strasbourg france,1,B,avenue,du Général Leclerc,13008,Strasbourg,France,Dr. Roux,"Parsing: dr. roux 1 b avenue du général leclerc 13008 strasbourg france
Champs: {""Building_Number"": 1, ""City"": ""Strasbourg"", ""Country"": ""France"", ""Recipient"": ""Dr. Roux"", ""Street_Name"": ""du Général Leclerc"", ""Zip_Code"": 13008, ""repetition"": ""B"", ""type_voie"": ""avenue""}"
SCI Horizon 114 ter boulevard de Verdun 69003 Bordeaux France,114,ter,boulevard,de Verdun,69003,Bordeaux,France,SCI Horizon,"Parsing: SCI Horizon 114 ter boulevard de Verdun 69003 Bordeaux France
Champs: {""Building_Number"": 114, ""City"": ""Bordeaux"", ""Country"": ""France"", ""Recipient"": ""SCI Horizon"", ""Street_Name"": ""de Verdun"", ""Zip_Code"": 69003, ""repetition"": ""ter"", ""type_voie"": ""boulevard""}"
association soleil 147 a avenue de verdun 13008 bordeaux france,147,A,avenue,de Verdun,13008,Bordeaux,France,Association Soleil,"Parsing: association soleil 147 a avenue de verdun 13008 bordeaux france
Champs: {""Building_Number"": 147, ""City"": ""Bordeaux"", ""Country"": ""France"", ""Recipient"": ""Association Soleil"", ""Street_Name"": ""de Verdun"", ""Zip_Code"": 13008, ""repetition"": ""A"", ""type_voie"": ""avenue""}"
École Saint-Exupéry 73 bis impasse des Lilas 6000 Bordeaux France,73,bis,impasse,des Lilas,6000,Bordeaux,France,École Saint-Exupéry,"Parsing: École Saint-Exupéry 73 bis impasse des Lilas 6000 Bordeaux France
Champs: {""Building_Number"": 73, ""City"": ""Bordeaux"", ""Country"": ""France"", ""Recipient"": ""École Saint-Exupéry"", ""Street_Name"": ""des Lilas"", ""Zip_Code"": 6000, ""repetition"": ""bis"", ""type_voie"": ""impasse""}"
sarl lambert 185 bis avenue des lilas 33000 nantes france,185,bis,avenue,des Lilas,33000,Nantes,France,SARL Lambert,"Parsing: sarl lambert 185 bis avenue des lilas 33000 nantes france
Champs: {""Building_Number"": 185, ""City"": ""Nantes"", ""Country"": ""France"", ""Recipient"": ""SARL Lambert"", ""Street_Name"": ""des Lilas"", ""Zip_Code"": 33000, ""repetition"": ""bis"", ""type_voie"": ""avenue""}"
dr. roux 89 b impasse jean jaurès 33000 strasbourg france,89,B,impasse,Jean Jaurès,33000,Strasbourg,France,Dr. Roux,"Parsing: dr. roux 89 b impasse jean jaurès 33000 strasbourg france
Champs: {""Building_Number"": 89, ""City"": ""Strasbourg"", ""Country"": ""France"", ""Recipient"": ""Dr. Roux"", ""Street_Name"": ""Jean Jaurès"", ""Zip_Code"": 33000, ""repetition"": ""B"", ""type_voie"": ""impasse""}"
sarl lambert 4 bis route victor hugo 6000 nice france,4,bis,route,Victor Hugo,6000,Nice,France,SARL Lambert,"Parsing: sarl lambert 4 bis route victor hugo 6000 nice france
Champs: {""Building_Number"": 4, ""City"": ""Nice"", ""Country"": ""France"", ""Recipient"": ""SARL Lambert"", ""Street_Name"": ""Victor Hugo"", ""Zip_Code"": 6000, ""repetition"": ""bis"", ""type_voie"": ""route""}"
france 149 m. morel boulevard du général leclerc 67000 boulogne-billancourt ter,149,ter,boulevard,du Général Leclerc,67000,Boulogne-Billancourt,France,M. Morel,"Parsing: france 149 m. morel boulevard du général leclerc 67000 boulogne-billancourt ter
Champs: {""Building_Number"": 149, ""City"": ""Boulogne-Billancourt"", ""Country"": ""France"", ""Recipient"": ""M. Morel"", ""Street_Name"": ""du Général Leclerc"", ""Zip_Code"": 67000, ""repetition"": ""ter"", ""type_voie"": ""boulevard""}"
Dupont 24 bis rue Jean Jaurès 13008 Marseille France,24,bis,rue,Jean Jaurès,13008,Marseille,France,Dupont,"Parsing: Dupont 24 bis rue Jean Jaurès 13008 Marseille France
Champs: {""Building_Number"": 24, ""City"": ""Marseille"", ""Country"": ""France"", ""Recipient"": ""Dupont"", ""Street_Name"": ""Jean Jaurès"", ""Zip_Code"": 13008, ""repetition"": ""bis"", ""type_voie"": ""rue""}"
13008 france b 73 nantes du général leclerc m. garnier chemin,73,B,chemin,du Général Leclerc,13008,Nantes,France,M. Garnier,"Parsing: 13008 france b 73 nantes du général leclerc m. garnier chemin
Champs: {""Building_Number"": 73, ""City"": ""Nantes"", ""Country"": ""France"", ""Recipient"": ""M. Garnier"", ""Street_Name"": ""du Général Leclerc"", ""Zip_Code"": 13008, ""repetition"": ""B"", ""type_voie"": ""chemin""}"
136 france lyon ter chemin 31000 jean jaurès entreprise dupuis,136,ter,chemin,Jean Jaurès,31000,Lyon,France,Entreprise Dupuis,"Parsing: 136 france lyon ter chemin 31000 jean jaurès entreprise dupuis
Champs: {""Building_Number"": 136, ""City"": ""Lyon"", ""Country"": ""France"", ""Recipient"": ""Entreprise Dupuis"", ""Street_Name"": ""Jean Jaurès"", ""Zip_Code"": 31000, ""repetition"": ""ter"", ""type_voie"": ""chemin""}"
chemin boulogne-billancourt ter 69003 133 france jean jaurès,133,ter,chemin,Jean Jaurès,69003,Boulogne-Billancourt,France,,"Parsing: chemin boulogne-billancourt ter 69003 133 france jean jaurès
Champs: {""Building_Number"": 133, ""City"": ""Boulogne-Billancourt"", ""Country"": ""France"", ""Recipient"": null, ""Street_Name"": ""Jean Jaurès"", ""Zip_Code"": 69003, ""repetition"": ""ter"", ""type_voie"": ""chemin""}"
sci horizon 134 b rue des lilas 44000 marseille france,134,B,rue,des Lilas,44000,Marseille,France,SCI Horizon,"Parsing: sci horizon 134 b rue des lilas 44000 marseille france
Champs: {""Building_Number"": 134, ""City"": ""Marseille"", ""Country"": ""France"", ""Recipient"": ""SCI Horizon"", ""Street_Name"": ""des Lilas"", ""Zip_Code"": 44000, ""repetition"": ""B"", ""type_voie"": ""rue""}"
Pharmacie Centrale 67 chemin Victor Hugo 44000 Toulouse France,67,,chemin,Victor Hugo,44000,Toulouse,France,Pharmacie Centrale,"Parsing: Pharmacie Centrale 67 chemin Victor Hugo 44000 Toulouse France
Champs: {""Building_Number"": 67, ""City"": ""Toulouse"", ""Country"": ""France"", ""Recipient"": ""Pharmacie Centrale"", ""Street_Name"": ""Victor Hugo"", ""Zip_Code"": 44000, ""repetition"": null, ""type_voie"": ""chemin""}"
crèche les poussins 68 b rue victor hugo 69003 lyon france,68,B,rue,Victor Hugo,69003,Lyon,France,Crèche Les Poussins,"Parsing: crèche les poussins 68 b rue victor hugo 69003 lyon france
Champs: {""Building_Number"": 68, ""City"": ""Lyon"", ""Country"": ""France"", ""Recipient"": ""Crèche Les Poussins"", ""Street_Name"": ""Victor Hugo"", ""Zip_Code"": 69003, ""repetition"": ""B"", ""type_voie"": ""rue""}"
Entreprise Dupuis 118 route Jean Jaurès 13008 Bordeaux France,118,,route,Jean Jaurès,13008,Bordeaux,France,Entreprise Dupuis,"Parsing: Entreprise Dupuis 118 route Jean Jaurès 13008 Bordeaux France
Champs: {""Building_Number"": 118, ""City"": ""Bordeaux"", ""Country"": ""France"", ""Recipient"": ""Entreprise Dupuis"", ""Street_Name"": ""Jean Jaurès"", ""Zip_Code"": 13008, ""repetition"": null, ""type_voie"": ""route""}"
chemin France Strasbourg 71 de la République 31000 ter,71,ter,chemin,de la République,31000,Strasbourg,France,,"Parsing: chemin France Strasbourg 71 de la République 31000 ter
Champs: {""Building_Number"": 71, ""City"": ""Strasbourg"", ""Country"": ""France"", ""Recipient"": null, ""Street_Name"": ""de la République"", ""Zip_Code"": 31000, ""repetition"": ""ter"", ""type_voie"": ""chemin""}"
85 B avenue de Verdun 13008 Nantes France,85,B,avenue,de Verdun,13008,Nantes,France,,"Parsing: 85 B avenue de Verdun 13008 Nantes France
Champs: {""Building_Number"": 85, ""City"": ""Nantes"", ""Country"": ""France"", ""Recipient"": null, ""Street_Name"": ""de Verdun"", ""Zip_Code"": 13008, ""repetition"": ""B"", ""type_voie"": ""avenue""}"
4 Clinique du Parc bis Nice 31000 avenue France de Verdun,4,bis,avenue,de Verdun,31000,Nice,France,Clinique du Parc,"Parsing: 4 Clinique du Parc bis Nice 31000 avenue France de Verdun
Champs: {""Building_Number"": 4, ""City"": ""Nice"", ""Country"": ""France"", ""Recipient"": ""Clinique du Parc"", ""Street_Name"": ""de Verdun"", ""Zip_Code"": 31000, ""repetition"": ""bis"", ""type_voie"": ""avenue""}"
rue lyon 124 69003 m. morel jean jaurès france ter,124,ter,rue,Jean Jaurès,69003,Lyon,France,M. Morel,"Parsing: rue lyon 124 69003 m. morel jean jaurès france ter
Champs: {""Building_Number"": 124, ""City"": ""Lyon"", ""Country"": ""France"", ""Recipient"": ""M. Morel"", ""Street_Name"": ""Jean Jaurès"", ""Zip_Code"": 69003, ""repetition"": ""ter"", ""type_voie"": ""rue""}"
a lyon france chemin société leroy 14 du général leclerc 75001,14,A,chemin,du Général Leclerc,75001,Lyon,France,Société Leroy,"Parsing: a lyon france chemin société leroy 14 du général leclerc 75001
Champs: {""Building_Number"": 14, ""City"": ""Lyon"", ""Country"": ""France"", ""Recipient"": ""Société Leroy"", ""Street_Name"": ""du Général Leclerc"", ""Zip_Code"": 75001, ""repetition"": ""A"", ""type_voie"": ""chemin""}"
35 bis boulevard du général leclerc 92100 nice france,35,bis,boulevard,du Général Leclerc,92100,Nice,France,,"Parsing: 35 bis boulevard du général leclerc 92100 nice france
Champs: {""Building_Number"": 35, ""City"": ""Nice"", ""Country"": ""France"", ""Recipient"": null, ""Street_Name"": ""du Général Leclerc"", ""Zip_Code"": 92100, ""repetition"": ""bis"", ""type_voie"": ""boulevard""}"
des Lilas Toulouse France 8 75001 impasse,8,,impasse,des Lilas,75001,Toulouse,France,,"Parsing: des Lilas Toulouse France 8 75001 impasse
Champs: {""Building_Number"": 8, ""City"": ""Toulouse"", ""Country"": ""France"", ""Recipient"": null, ""Street_Name"": ""des Lilas"", ""Zip_Code"": 75001, ""repetition"": null, ""type_voie"": ""impasse""}"
entreprise dupuis 93 bis rue du général leclerc 44000 toulouse france,93,bis,rue,du Général Leclerc,44000,Toulouse,France,Entreprise Dupuis,"Parsing: entreprise dupuis 93 bis rue du général leclerc 44000 toulouse france
Champs: {""Building_Number"": 93, ""City"": ""Toulouse"", ""Country"": ""France"", ""Recipient"": ""Entreprise Dupuis"", ""Street_Name"": ""du Général Leclerc"", ""Zip_Code"": 44000, ""repetition"": ""bis"", ""type_voie"": ""rue""}"
186 pharmacie centrale rue 75001 france du général leclerc a toulouse,186,A,rue,du Général Leclerc,75001,Toulouse,France,Pharmacie Centrale,"Parsing: 186 pharmacie centrale rue 75001 france du général leclerc a toulouse
Champs: {""Building_Number"": 186, ""City"": ""Toulouse"", ""Country"": ""France"", ""Recipient"": ""Pharmacie Centrale"", ""Street_Name"": ""du Général Leclerc"", ""Zip_Code"": 75001, ""repetition"": ""A"", ""type_voie"": ""rue""}"
75001 Clinique du Parc rue Toulouse 171 ter France des Lilas,171,ter,rue,des Lilas,75001,Toulouse,France,Clinique du Parc,"Parsing: 75001 Clinique du Parc rue Toulouse 171 ter France des Lilas
Champs: {""Building_Number"": 171, ""City"": ""Toulouse"", ""Country"": ""France"", ""Recipient"": ""Clinique du Parc"", ""Street_Name"": ""des Lilas"", ""Zip_Code"": 75001, ""repetition"": ""ter"", ""type_voie"": ""rue""}"
ter Toulouse Victor Hugo 44000 impasse France 153,153,ter,impasse,Victor Hugo,44000,Toulouse,France,,"Parsing: ter Toulouse Victor Hugo 44000 impasse France 153
Champs: {""Building_Number"": 153, ""City"": ""Toulouse"", ""Country"": ""France"", ""Recipient"": null, ""Street_Name"": ""Victor Hugo"", ""Zip_Code"": 44000, ""repetition"": ""ter"", ""type_voie"": ""impasse""}"
m. morel 166 ter rue jean jaurès 69003 paris france,166,ter,rue,Jean Jaurès,69003,Paris,France,M. Morel,"Parsing: m. morel 166 ter rue jean jaurès 69003 paris france
Champs: {""Building_Number"": 166, ""City"": ""Paris"", ""Country"": ""France"", ""Recipient"": ""M. Morel"", ""Street_Name"": ""Jean Jaurès"", ""Zip_Code"": 69003, ""repetition"": ""ter"", ""type_voie"": ""rue""}"
Mme Martin 44 bis route des Lilas 6000 Boulogne-Billancourt France,44,bis,route,des Lilas,6000,Boulogne-Billancourt,France,Mme Martin,"Parsing: Mme Martin 44 bis route des Lilas 6000 Boulogne-Billancourt France
Champs: {""Building_Number"": 44, ""City"": ""Boulogne-Billancourt"", ""Country"": ""France"", ""Recipient"": ""Mme Martin"", ""Street_Name"": ""des Lilas"", ""Zip_Code"": 6000, ""repetition"": ""bis"", ""type_voie"": ""route""}"
garage peugeot 128 a rue de la république 6000 strasbourg france,128,A,rue,de la République,6000,Strasbourg,France,Garage Peugeot,"Parsing: garage peugeot 128 a rue de la république 6000 strasbourg france
Champs: {""Building_Number"": 128, ""City"": ""Strasbourg"", ""Country"": ""France"", ""Recipient"": ""Garage Peugeot"", ""Street_Name"": ""de la République"", ""Zip_Code"": 6000, ""repetition"": ""A"", ""type_voie"": ""rue""}"
france boulevard lyon entreprise dupuis des lilas b 89 6000,89,B,boulevard,des Lilas,6000,Lyon,France,Entreprise Dupuis,"Parsing: france boulevard lyon entreprise dupuis des lilas b 89 6000
Champs: {""Building_Number"": 89, ""City"": ""Lyon"", ""Country"": ""France"", ""Recipient"": ""Entreprise Dupuis"", ""Street_Name"": ""des Lilas"", ""Zip_Code"": 6000, ""repetition"": ""B"", ""type_voie"": ""boulevard""}"
SARL Lambert 4 bis avenue Victor Hugo 13008 Bordeaux France,4,bis,avenue,Victor Hugo,13008,Bordeaux,France,SARL Lambert,"Parsing: SARL Lambert 4 bis avenue Victor Hugo 13008 Bordeaux France
Champs: {""Building_Number"": 4, ""City"": ""Bordeaux"", ""Country"": ""France"", ""Recipient"": ""SARL Lambert"", ""Street_Name"": ""Victor Hugo"", ""Zip_Code"": 13008, ""repetition"": ""bis"", ""type_voie"": ""avenue""}"
france lyon 31000 impasse bis de la république 102,102,bis,impasse,de la République,31000,Lyon,France,,"Parsing: france lyon 31000 impasse bis de la république 102
Champs: {""Building_Number"": 102, ""City"": ""Lyon"", ""Country"": ""France"", ""Recipient"": null, ""Street_Name"": ""de la République"", ""Zip_Code"": 31000, ""repetition"": ""bis"", ""type_voie"": ""impasse""}"
Victor Hugo France 92100 174 M. Durant Nice impasse bis,174,bis,impasse,Victor Hugo,92100,Nice,France,M. Durant,"Parsing: Victor Hugo France 92100 174 M. Durant Nice impasse bis
Champs: {""Building_Number"": 174, ""City"": ""Nice"", ""Country"": ""France"", ""Recipient"": ""M. Durant"", ""Street_Name"": ""Victor Hugo"", ""Zip_Code"": 92100, ""repetition"": ""bis"", ""type_voie"": ""impasse""}"
boulevard bis de verdun 6000 163 paris france,163,bis,boulevard,de Verdun,6000,Paris,France,,"Parsing: boulevard bis de verdun 6000 163 paris france
Champs: {""Building_Number"": 163, ""City"": ""Paris"", ""Country"": ""France"", ""Recipient"": null, ""Street_Name"": ""de Verdun"", ""Zip_Code"": 6000, ""repetition"": ""bis"", ""type_voie"": ""boulevard""}"
63 ter impasse des lilas 6000 strasbourg france,63,ter,impasse,des Lilas,6000,Strasbourg,France,,"Parsing: 63 ter impasse des lilas 6000 strasbourg france
Champs: {""Building_Number"": 63, ""City"": ""Strasbourg"", ""Country"": ""France"", ""Recipient"": null, ""Street_Name"": ""des Lilas"", ""Zip_Code"": 6000, ""repetition"": ""ter"", ""type_voie"": ""impasse""}"
boulevard des Lilas ter 67000 Clinique du Parc Bordeaux France 26,26,ter,boulevard,des Lilas,67000,Bordeaux,France,Clinique du Parc,"Parsing: boulevard des Lilas ter 67000 Clinique du Parc Bordeaux France 26
Champs: {""Building_Number"": 26, ""City"": ""Bordeaux"", ""Country"": ""France"", ""Recipient"": ""Clinique du Parc"", ""Street_Name"": ""des Lilas"", ""Zip_Code"": 67000, ""repetition"": ""ter"", ""type_voie"": ""boulevard""}"
Clinique du Parc 4 A route Victor Hugo 31000 Nice France,4,A,route,Victor Hugo,31000,Nice,France,Clinique du Parc,"Parsing: Clinique du Parc 4 A route Victor Hugo 31000 Nice France
Champs: {""Building_Number"": 4, ""City"": ""Nice"", ""Country"": ""France"", ""Recipient"": ""Clinique du Parc"", ""Street_Name"": ""Victor Hugo"", ""Zip_Code"": 31000, ""repetition"": ""A"", ""type_voie"": ""route""}"
SARL Lambert 112 impasse des Lilas 6000 Marseille France,112,,impasse,des Lilas,6000,Marseille,France,SARL Lambert,"Parsing: SARL Lambert 112 impasse des Lilas 6000 Marseille France
Champs: {""Building_Number"": 112, ""City"": ""Marseille"", ""Country"": ""France"", ""Recipient"": ""SARL Lambert"", ""Street_Name"": ""des Lilas"", ""Zip_Code"": 6000, ""repetition"": null, ""type_voie"": ""impasse""}"
Société Leroy 179 chemin Victor Hugo 69003 Nice France,179,,chemin,Victor Hugo,69003,Nice,France,Société Leroy,"Parsing: Société Leroy 179 chemin Victor Hugo 69003 Nice France
Champs: {""Building_Number"": 179, ""City"": ""Nice"", ""Country"": ""France"", ""Recipient"": ""Société Leroy"", ""Street_Name"": ""Victor Hugo"", ""Zip_Code"": 69003, ""repetition"": null, ""type_voie"": ""chemin""}"
boulevard toulouse france jean jaurès 153 31000 a,153,A,boulevard,Jean Jaurès,31000,Toulouse,France,,"Parsing: boulevard toulouse france jean jaurès 153 31000 a
Champs: {""Building_Number"": 153, ""City"": ""Toulouse"", ""Country"": ""France"", ""Recipient"": null, ""Street_Name"": ""Jean Jaurès"", ""Zip_Code"": 31000, ""repetition"": ""A"", ""type_voie"": ""boulevard""}"
92100 rue france 132 m. durant de la république toulouse,132,,rue,de la République,92100,Toulouse,France,M. Durant,"Parsing: 92100 rue france 132 m. durant de la république toulouse
Champs: {""Building_Number"": 132, ""City"": ""Toulouse"", ""Country"": ""France"", ""Recipient"": ""M. Durant"", ""Street_Name"": ""de la République"", ""Zip_Code"": 92100, ""repetition"": null, ""type_voie"": ""rue""}"
sarl lambert 177 b avenue de la république 69003 toulouse france,177,B,avenue,de la République,69003,Toulouse,France,SARL Lambert,"Parsing: sarl lambert 177 b avenue de la république 69003 toulouse france
Champs: {""Building_Number"": 177, ""City"": ""Toulouse"", ""Country"": ""France"", ""Recipient"": ""SARL Lambert"", ""Street_Name"": ""de la République"", ""Zip_Code"": 69003, ""repetition"": ""B"", ""type_voie"": ""avenue""}"
M. Morel 31 A chemin de Verdun 92100 Boulogne-Billancourt France,31,A,chemin,de Verdun,92100,Boulogne-Billancourt,France,M. Morel,"Parsing: M. Morel 31 A chemin de Verdun 92100 Boulogne-Billancourt France
Champs: {""Building_Number"": 31, ""City"": ""Boulogne-Billancourt"", ""Country"": ""France"", ""Recipient"": ""M. Morel"", ""Street_Name"": ""de Verdun"", ""Zip_Code"": 92100, ""repetition"": ""A"", ""type_voie"": ""chemin""}"
Pharmacie Centrale 25 A boulevard Victor Hugo 6000 Marseille France,25,A,boulevard,Victor Hugo,6000,Marseille,France,Pharmacie Centrale,"Parsing: Pharmacie Centrale 25 A boulevard Victor Hugo 6000 Marseille France
Champs: {""Building_Number"": 25, ""City"": ""Marseille"", ""Country"": ""France"", ""Recipient"": ""Pharmacie Centrale"", ""Street_Name"": ""Victor Hugo"", ""Zip_Code"": 6000, ""repetition"": ""A"", ""type_voie"": ""boulevard""}"
nice m. durant 167 jean jaurès chemin france 13008,167,,chemin,Jean Jaurès,13008,Nice,France,M. Durant,"Parsing: nice m. durant 167 jean jaurès chemin france 13008
Champs: {""Building_Number"": 167, ""City"": ""Nice"", ""Country"": ""France"", ""Recipient"": ""M. Durant"", ""Street_Name"": ""Jean Jaurès"", ""Zip_Code"": 13008, ""repetition"": null, ""type_voie"": ""chemin""}"
154 a boulevard du général leclerc 6000 toulouse france,154,A,boulevard,du Général Leclerc,6000,Toulouse,France,,"Parsing: 154 a boulevard du général leclerc 6000 toulouse france
Champs: {""Building_Number"": 154, ""City"": ""Toulouse"", ""Country"": ""France"", ""Recipient"": null, ""Street_Name"": ""du Général Leclerc"", ""Zip_Code"": 6000, ""repetition"": ""A"", ""type_voie"": ""boulevard""}"
France SCI Horizon des Lilas Boulogne-Billancourt rue 133 13008,133,,rue,des Lilas,13008,Boulogne-Billancourt,France,SCI Horizon,"Parsing: France SCI Horizon des Lilas Boulogne-Billancourt rue 133 13008
Champs: {""Building_Number"": 133, ""City"": ""Boulogne-Billancourt"", ""Country"": ""France"", ""Recipient"": ""SCI Horizon"", ""Street_Name"": ""des Lilas"", ""Zip_Code"": 13008, ""repetition"": null, ""type_voie"": ""rue""}"
toulouse de la république impasse 200 france entreprise dupuis 31000,200,,impasse,de la République,31000,Toulouse,France,Entreprise Dupuis,"Parsing: toulouse de la république impasse 200 france entreprise dupuis 31000
Champs: {""Building_Number"": 200, ""City"": ""Toulouse"", ""Country"": ""France"", ""Recipient"": ""Entreprise Dupuis"", ""Street_Name"": ""de la République"", ""Zip_Code"": 31000, ""repetition"": null, ""type_voie"": ""impasse""}"
garage peugeot 25 b route de verdun 31000 nantes france,25,B,route,de Verdun,31000,Nantes,France,Garage Peugeot,"Parsing: garage peugeot 25 b route de verdun 31000 nantes france
Champs: {""Building_Number"": 25, ""City"": ""Nantes"", ""Country"": ""France"", ""Recipient"": ""Garage Peugeot"", ""Street_Name"": ""de Verdun"", ""Zip_Code"": 31000, ""repetition"": ""B"", ""type_voie"": ""route""}"
69003 Mme Martin Victor Hugo B Boulogne-Billancourt boulevard France 25,25,B,boulevard,Victor Hugo,69003,Boulogne-Billancourt,France,Mme Martin,"Parsing: 69003 Mme Martin Victor Hugo B Boulogne-Billancourt boulevard France 25
Champs: {""Building_Number"": 25, ""City"": ""Boulogne-Billancourt"", ""Country"": ""France"", ""Recipient"": ""Mme Martin"", ""Street_Name"": ""Victor Hugo"", ""Zip_Code"": 69003, ""repetition"": ""B"", ""type_voie"": ""boulevard""}"
b 13008 23 mairie de lyon du général leclerc boulogne-billancourt france boulevard,23,B,boulevard,du Général Leclerc,13008,Boulogne-Billancourt,France,Mairie de Lyon,"Parsing: b 13008 23 mairie de lyon du général leclerc boulogne-billancourt france boulevard
Champs: {""Building_Number"": 23, ""City"": ""Boulogne-Billancourt"", ""Country"": ""France"", ""Recipient"": ""Mairie de Lyon"", ""Street_Name"": ""du Général Leclerc"", ""Zip_Code"": 13008, ""repetition"": ""B"", ""type_voie"": ""boulevard""}"
france b 158 92100 victor hugo rue nice clinique du parc,158,B,rue,Victor Hugo,92100,Nice,France,Clinique du Parc,"Parsing: france b 158 92100 victor hugo rue nice clinique du parc
Champs: {""Building_Number"": 158, ""City"": ""Nice"", ""Country"": ""France"", ""Recipient"": ""Clinique du Parc"", ""Street_Name"": ""Victor Hugo"", ""Zip_Code"": 92100, ""repetition"": ""B"", ""type_voie"": ""rue""}"
Mairie de Lyon 111 A chemin Jean Jaurès 67000 Strasbourg France,111,A,chemin,Jean Jaurès,67000,Strasbourg,France,Mairie de Lyon,"Parsing: Mairie de Lyon 111 A chemin Jean Jaurès 67000 Strasbourg France
Champs: {""Building_Number"": 111, ""City"": ""Strasbourg"", ""Country"": ""France"", ""Recipient"": ""Mairie de Lyon"", ""Street_Name"": ""Jean Jaurès"", ""Zip_Code"": 67000, ""repetition"": ""A"", ""type_voie"": ""chemin""}"
école saint-exupéry 61 b impasse de verdun 67000 bordeaux france,61,B,impasse,de Verdun,67000,Bordeaux,France,École Saint-Exupéry,"Parsing: école saint-exupéry 61 b impasse de verdun 67000 bordeaux france
Champs: {""Building_Number"": 61, ""City"": ""Bordeaux"", ""Country"": ""France"", ""Recipient"": ""École Saint-Exupéry"", ""Street_Name"": ""de Verdun"", ""Zip_Code"": 67000, ""repetition"": ""B"", ""type_voie"": ""impasse""}"
Paris France 39 92100 boulevard Jean Jaurès bis,39,bis,boulevard,Jean Jaurès,92100,Paris,France,,"Parsing: Paris France 39 92100 boulevard Jean Jaurès bis
Champs: {""Building_Number"": 39, ""City"": ""Paris"", ""Country"": ""France"", ""Recipient"": null, ""Street_Name"": ""Jean Jaurès"", ""Zip_Code"": 92100, ""repetition"": ""bis"", ""type_voie"": ""boulevard""}"
Pharmacie Centrale 190 B boulevard Jean Jaurès 6000 Bordeaux France,190,B,boulevard,Jean Jaurès,6000,Bordeaux,France,Pharmacie Centrale,"Parsing: Pharmacie Centrale 190 B boulevard Jean Jaurès 6000 Bordeaux France
Champs: {""Building_Number"": 190, ""City"": ""Bordeaux"", ""Country"": ""France"", ""Recipient"": ""Pharmacie Centrale"", ""Street_Name"": ""Jean Jaurès"", ""Zip_Code"": 6000, ""repetition"": ""B"", ""type_voie"": ""boulevard""}"
boulangerie martin 62 ter rue de verdun 67000 strasbourg france,62,ter,rue,de Verdun,67000,Strasbourg,France,Boulangerie Martin,"Parsing: boulangerie martin 62 ter rue de verdun 67000 strasbourg france
Champs: {""Building_Number"": 62, ""City"": ""Strasbourg"", ""Country"": ""France"", ""Recipient"": ""Boulangerie Martin"", ""Street_Name"": ""de Verdun"", ""Zip_Code"": 67000, ""repetition"": ""ter"", ""type_voie"": ""rue""}"
62 a rue victor hugo 75001 marseille france,62,A,rue,Victor Hugo,75001,Marseille,France,,"Parsing: 62 a rue victor hugo 75001 marseille france
Champs: {""Building_Number"": 62, ""City"": ""Marseille"", ""Country"": ""France"", ""Recipient"": null, ""Street_Name"": ""Victor Hugo"", ""Zip_Code"": 75001, ""repetition"": ""A"", ""type_voie"": ""rue""}"
Boulangerie Martin 48 B route du Général Leclerc 92100 Nice France,48,B,route,du Général Leclerc,92100,Nice,France,Boulangerie Martin,"Parsing: Boulangerie Martin 48 B route du Général Leclerc 92100 Nice France
Champs: {""Building_Number"": 48, ""City"": ""Nice"", ""Country"": ""France"", ""Recipient"": ""Boulangerie Martin"", ""Street_Name"": ""du Général Leclerc"", ""Zip_Code"": 92100, ""repetition"": ""B"", ""type_voie"": ""route""}"
Entreprise Dupuis 88 bis impasse des Lilas 44000 Toulouse France,88,bis,impasse,des Lilas,44000,Toulouse,France,Entreprise Dupuis,"Parsing: Entreprise Dupuis 88 bis impasse des Lilas 44000 Toulouse France
Champs: {""Building_Number"": 88, ""City"": ""Toulouse"", ""Country"": ""France"", ""Recipient"": ""Entreprise Dupuis"", ""Street_Name"": ""des Lilas"", ""Zip_Code"": 44000, ""repetition"": ""bis"", ""type_voie"": ""impasse""}"
boulevard 13008 france 66 boulogne-billancourt clinique du parc jean-baptiste clément,66,,boulevard,Jean-Baptiste Clément,13008,Boulogne-Billancourt,France,Clinique du Parc,"Parsing: boulevard 13008 france 66 boulogne-billancourt clinique du parc jean-baptiste clément
Champs: {""Building_Number"": 66, ""City"": ""Boulogne-Billancourt"", ""Country"": ""France"", ""Recipient"": ""Clinique du Parc"", ""Street_Name"": ""Jean-Baptiste Clément"", ""Zip_Code"": 13008, ""repetition"": null, ""type_voie"": ""boulevard""}"
Dr. Roux A 78 Pierre-et-Marie-Curie avenue France 33000 Strasbourg,78,A,avenue,Pierre-et-Marie-Curie,33000,Strasbourg,France,Dr. Roux,"Parsing: Dr. Roux A 78 Pierre-et-Marie-Curie avenue France 33000 Strasbourg
Champs: {""Building_Number"": 78, ""City"": ""Strasbourg"", ""Country"": ""France"", ""Recipient"": ""Dr. Roux"", ""Street_Name"": ""Pierre-et-Marie-Curie"", ""Zip_Code"": 33000, ""repetition"": ""A"", ""type_voie"": ""avenue""}"
106 impasse Louis-le-Grand 31000 Boulogne-Billancourt France,106,,impasse,Louis-le-Grand,31000,Boulogne-Billancourt,France,,"Parsing: 106 impasse Louis-le-Grand 31000 Boulogne-Billancourt France
Champs: {""Building_Number"": 106, ""City"": ""Boulogne-Billancourt"", ""Country"": ""France"", ""Recipient"": null, ""Street_Name"": ""Louis-le-Grand"", ""Zip_Code"": 31000, ""repetition"": null, ""type_voie"": ""impasse""}"
87 nantes france saint-jean-baptiste 6000 chemin clinique du parc,87,,chemin,Saint-Jean-Baptiste,6000,Nantes,France,Clinique du Parc,"Parsing: 87 nantes france saint-jean-baptiste 6000 chemin clinique du parc
Champs: {""Building_Number"": 87, ""City"": ""Nantes"", ""Country"": ""France"", ""Recipient"": ""Clinique du Parc"", ""Street_Name"": ""Saint-Jean-Baptiste"", ""Zip_Code"": 6000, ""repetition"": null, ""type_voie"": ""chemin""}"
crèche les poussins 154 avenue charles-de-gaulle 44000 bordeaux france,154,,avenue,Charles-de-Gaulle,44000,Bordeaux,France,Crèche Les Poussins,"Parsing: crèche les poussins 154 avenue charles-de-gaulle 44000 bordeaux france
Champs: {""Building_Number"": 154, ""City"": ""Bordeaux"", ""Country"": ""France"", ""Recipient"": ""Crèche Les Poussins"", ""Street_Name"": ""Charles-de-Gaulle"", ""Zip_Code"": 44000, ""repetition"": null, ""type_voie"": ""avenue""}"
Mme Faure 8 impasse Jean-Macé 44000 Nantes France,8,,impasse,Jean-Macé,44000,Nantes,France,Mme Faure,"Parsing: Mme Faure 8 impasse Jean-Macé 44000 Nantes France
Champs: {""Building_Number"": 8, ""City"": ""Nantes"", ""Country"": ""France"", ""Recipient"": ""Mme Faure"", ""Street_Name"": ""Jean-Macé"", ""Zip_Code"": 44000, ""repetition"": null, ""type_voie"": ""impasse""}"
café de la gare 109 rue paul-éluard 6000 nantes france,109,,rue,Paul-Éluard,6000,Nantes,France,Café de la Gare,"Parsing: café de la gare 109 rue paul-éluard 6000 nantes france
Champs: {""Building_Number"": 109, ""City"": ""Nantes"", ""Country"": ""France"", ""Recipient"": ""Café de la Gare"", ""Street_Name"": ""Paul-Éluard"", ""Zip_Code"": 6000, ""repetition"": null, ""type_voie"": ""rue""}"
jean-mermoz 69003 bordeaux route mme martin france 60,60,,route,Jean-Mermoz,69003,Bordeaux,France,Mme Martin,"Parsing: jean-mermoz 69003 bordeaux route mme martin france 60
Champs: {""Building_Number"": 60, ""City"": ""Bordeaux"", ""Country"": ""France"", ""Recipient"": ""Mme Martin"", ""Street_Name"": ""Jean-Mermoz"", ""Zip_Code"": 69003, ""repetition"": null, ""type_voie"": ""route""}"
mme lefevre 35 a rue andré-malraux 92100 strasbourg france,35,A,rue,André-Malraux,92100,Strasbourg,France,Mme Lefevre,"Parsing: mme lefevre 35 a rue andré-malraux 92100 strasbourg france
Champs: {""Building_Number"": 35, ""City"": ""Strasbourg"", ""Country"": ""France"", ""Recipient"": ""Mme Lefevre"", ""Street_Name"": ""André-Malraux"", ""Zip_Code"": 92100, ""repetition"": ""A"", ""type_voie"": ""rue""}"
nantes france impasse ter henri-barbusse 101 mme lefevre 67000,101,ter,impasse,Henri-Barbusse,67000,Nantes,France,Mme Lefevre,"Parsing: nantes france impasse ter henri-barbusse 101 mme lefevre 67000
Champs: {""Building_Number"": 101, ""City"": ""Nantes"", ""Country"": ""France"", ""Recipient"": ""Mme Lefevre"", ""Street_Name"": ""Henri-Barbusse"", ""Zip_Code"": 67000, ""repetition"": ""ter"", ""type_voie"": ""impasse""}"
