adresse,Building_Number,repetition,type_voie,Street_Name,Zip_Code,City,Country,Recipient,prompt
1 A route des Lilas 67000 Toulouse France,1,A,route,des Lilas,67000,Toulouse,France,,"Parsing: 1 A route des Lilas 67000 Toulouse France
Champs: {""Building_Number"": 1, ""City"": ""Toulouse"", ""Country"": ""France"", ""Recipient"": null, ""Street_Name"": ""des Lilas"", ""Zip_Code"": 67000, ""repetition"": ""A"", ""type_voie"": ""route""}"
92100 152 boulevard france des lilas marseille mme martin bis,152,bis,boulevard,des Lilas,92100,Marseille,France,Mme Martin,"Parsing: 92100 152 boulevard france des lilas marseille mme martin bis
Champs: {""Building_Number"": 152, ""City"": ""Marseille"", ""Country"": ""France"", ""Recipient"": ""Mme Martin"", ""Street_Name"": ""des Lilas"", ""Zip_Code"": 92100, ""repetition"": ""bis"", ""type_voie"": ""boulevard""}"
du général leclerc a nantes route m. durant 31000 51 france,51,A,route,du Général Leclerc,31000,Nantes,France,M. Durant,"Parsing: du général leclerc a nantes route m. durant 31000 51 france
Champs: {""Building_Number"": 51, ""City"": ""Nantes"", ""Country"": ""France"", ""Recipient"": ""M. Durant"", ""Street_Name"": ""du Général Leclerc"", ""Zip_Code"": 31000, ""repetition"": ""A"", ""type_voie"": ""route""}"
société leroy 161 route jean jaurès 6000 nantes france,161,,route,Jean Jaurès,6000,Nantes,France,Société Leroy,"Parsing: société leroy 161 route jean jaurès 6000 nantes france
Champs: {""Building_Number"": 161, ""City"": ""Nantes"", ""Country"": ""France"", ""Recipient"": ""Société Leroy"", ""Street_Name"": ""Jean Jaurès"", ""Zip_Code"": 6000, ""repetition"": null, ""type_voie"": ""route""}"
150 A route du Général Leclerc 31000 Nice France,150,A,route,du Général Leclerc,31000,Nice,France,,"Parsing: 150 A route du Général Leclerc 31000 Nice France
Champs: {""Building_Number"": 150, ""City"": ""Nice"", ""Country"": ""France"", ""Recipient"": null, ""Street_Name"": ""du Général Leclerc"", ""Zip_Code"": 31000, ""repetition"": ""A"", ""type_voie"": ""route""}"
société leroy 191 a boulevard des lilas 67000 toulouse france,191,A,boulevard,des Lilas,67000,Toulouse,France,Société Leroy,"Parsing: société leroy 191 a boulevard des lilas 67000 toulouse france
Champs: {""Building_Number"": 191, ""City"": ""Toulouse"", ""Country"": ""France"", ""Recipient"": ""Société Leroy"", ""Street_Name"": ""des Lilas"", ""Zip_Code"": 67000, ""repetition"": ""A"", ""type_voie"": ""boulevard""}"
Jean Jaurès 69003 M. Durant 39 Nice boulevard France,39,,boulevard,Jean Jaurès,69003,Nice,France,M. Durant,"Parsing: Jean Jaurès 69003 M. Durant 39 Nice boulevard France
Champs: {""Building_Number"": 39, ""City"": ""Nice"", ""Country"": ""France"", ""Recipient"": ""M. Durant"", ""Street_Name"": ""Jean Jaurès"", ""Zip_Code"": 69003, ""repetition"": null, ""type_voie"": ""boulevard""}"
france victor hugo 145 boulogne-billancourt chemin a 33000 mme martin,145,A,chemin,Victor Hugo,33000,Boulogne-Billancourt,France,Mme Martin,"Parsing: france victor hugo 145 boulogne-billancourt chemin a 33000 mme martin
Champs: {""Building_Number"": 145, ""City"": ""Boulogne-Billancourt"", ""Country"": ""France"", ""Recipient"": ""Mme Martin"", ""Street_Name"": ""Victor Hugo"", ""Zip_Code"": 33000, ""repetition"": ""A"", ""type_voie"": ""chemin""}"
mme martin 63 bis rue de la république 6000 nice france,63,bis,rue,de la République,6000,Nice,France,Mme Martin,"Parsing: mme martin 63 bis rue de la république 6000 nice france
Champs: {""Building_Number"": 63, ""City"": ""Nice"", ""Country"": ""France"", ""Recipient"": ""Mme Martin"", ""Street_Name"": ""de la République"", ""Zip_Code"": 6000, ""repetition"": ""bis"", ""type_voie"": ""rue""}"
mme martin 123 ter chemin des lilas 6000 paris france,123,ter,chemin,des Lilas,6000,Paris,France,Mme Martin,"Parsing: mme martin 123 ter chemin des lilas 6000 paris france
Champs: {""Building_Number"": 123, ""City"": ""Paris"", ""Country"": ""France"", ""Recipient"": ""Mme Martin"", ""Street_Name"": ""des Lilas"", ""Zip_Code"": 6000, ""repetition"": ""ter"", ""type_voie"": ""chemin""}"
192 rue des Lilas 33000 Lyon France,192,,rue,des Lilas,33000,Lyon,France,,"Parsing: 192 rue des Lilas 33000 Lyon France
Champs: {""Building_Number"": 192, ""City"": ""Lyon"", ""Country"": ""France"", ""Recipient"": null, ""Street_Name"": ""des Lilas"", ""Zip_Code"": 33000, ""repetition"": null, ""type_voie"": ""rue""}"
de Verdun Strasbourg route bis 164 Mme Martin 92100 France,164,bis,route,de Verdun,92100,Strasbourg,France,Mme Martin,"Parsing: de Verdun Strasbourg route bis 164 Mme Martin 92100 France
Champs: {""Building_Number"": 164, ""City"": ""Strasbourg"", ""Country"": ""France"", ""Recipient"": ""Mme Martin"", ""Street_Name"": ""de Verdun"", ""Zip_Code"": 92100, ""repetition"": ""bis"", ""type_voie"": ""route""}"
dupont 125 chemin de la république 92100 lyon france,125,,chemin,de la République,92100,Lyon,France,Dupont,"Parsing: dupont 125 chemin de la république 92100 lyon france
Champs: {""Building_Number"": 125, ""City"": ""Lyon"", ""Country"": ""France"", ""Recipient"": ""Dupont"", ""Street_Name"": ""de la République"", ""Zip_Code"": 92100, ""repetition"": null, ""type_voie"": ""chemin""}"
mme martin 35 ter boulevard de verdun 92100 marseille france,35,ter,boulevard,de Verdun,92100,Marseille,France,Mme Martin,"Parsing: mme martin 35 ter boulevard de verdun 92100 marseille france
Champs: {""Building_Number"": 35, ""City"": ""Marseille"", ""Country"": ""France"", ""Recipient"": ""Mme Martin"", ""Street_Name"": ""de Verdun"", ""Zip_Code"": 92100, ""repetition"": ""ter"", ""type_voie"": ""boulevard""}"
bordeaux de la république dupont a impasse france 67000 191,191,A,impasse,de la République,67000,Bordeaux,France,Dupont,"Parsing: bordeaux de la république dupont a impasse france 67000 191
Champs: {""Building_Number"": 191, ""City"": ""Bordeaux"", ""Country"": ""France"", ""Recipient"": ""Dupont"", ""Street_Name"": ""de la République"", ""Zip_Code"": 67000, ""repetition"": ""A"", ""type_voie"": ""impasse""}"
de la république 110 a 75001 impasse nantes france,110,A,impasse,de la République,75001,Nantes,France,,"Parsing: de la république 110 a 75001 impasse nantes france
Champs: {""Building_Number"": 110, ""City"": ""Nantes"", ""Country"": ""France"", ""Recipient"": null, ""Street_Name"": ""de la République"", ""Zip_Code"": 75001, ""repetition"": ""A"", ""type_voie"": ""impasse""}"
lyon de la république dupont 75001 12 route france,12,,route,de la République,75001,Lyon,France,Dupont,"Parsing: lyon de la république dupont 75001 12 route france
Champs: {""Building_Number"": 12, ""City"": ""Lyon"", ""Country"": ""France"", ""Recipient"": ""Dupont"", ""Street_Name"": ""de la République"", ""Zip_Code"": 75001, ""repetition"": null, ""type_voie"": ""route""}"
Mme Martin Toulouse des Lilas 107 B avenue France 75001,107,B,avenue,des Lilas,75001,Toulouse,France,Mme Martin,"Parsing: Mme Martin Toulouse des Lilas 107 B avenue France 75001
Champs: {""Building_Number"": 107, ""City"": ""Toulouse"", ""Country"": ""France"", ""Recipient"": ""Mme Martin"", ""Street_Name"": ""des Lilas"", ""Zip_Code"": 75001, ""repetition"": ""B"", ""type_voie"": ""avenue""}"
M. Durant 157 ter avenue Jean Jaurès 13008 Paris France,157,ter,avenue,Jean Jaurès,13008,Paris,France,M. Durant,"Parsing: M. Durant 157 ter avenue Jean Jaurès 13008 Paris France
Champs: {""Building_Number"": 157, ""City"": ""Paris"", ""Country"": ""France"", ""Recipient"": ""M. Durant"", ""Street_Name"": ""Jean Jaurès"", ""Zip_Code"": 13008, ""repetition"": ""ter"", ""type_voie"": ""avenue""}"
société leroy 175 bis rue victor hugo 44000 toulouse france,175,bis,rue,Victor Hugo,44000,Toulouse,France,Société Leroy,"Parsing: société leroy 175 bis rue victor hugo 44000 toulouse france
Champs: {""Building_Number"": 175, ""City"": ""Toulouse"", ""Country"": ""France"", ""Recipient"": ""Société Leroy"", ""Street_Name"": ""Victor Hugo"", ""Zip_Code"": 44000, ""repetition"": ""bis"", ""type_voie"": ""rue""}"
dupont 41 route du général leclerc 75001 strasbourg france,41,,route,du Général Leclerc,75001,Strasbourg,France,Dupont,"Parsing: dupont 41 route du général leclerc 75001 strasbourg france
Champs: {""Building_Number"": 41, ""City"": ""Strasbourg"", ""Country"": ""France"", ""Recipient"": ""Dupont"", ""Street_Name"": ""du Général Leclerc"", ""Zip_Code"": 75001, ""repetition"": null, ""type_voie"": ""route""}"
des Lilas France rue Lyon 38 M. Durant ter 13008,38,ter,rue,des Lilas,13008,Lyon,France,M. Durant,"Parsing: des Lilas France rue Lyon 38 M. Durant ter 13008
Champs: {""Building_Number"": 38, ""City"": ""Lyon"", ""Country"": ""France"", ""Recipient"": ""M. Durant"", ""Street_Name"": ""des Lilas"", ""Zip_Code"": 13008, ""repetition"": ""ter"", ""type_voie"": ""rue""}"
marseille 68 des lilas dupont france a route 69003,68,A,route,des Lilas,69003,Marseille,France,Dupont,"Parsing: marseille 68 des lilas dupont france a route 69003
Champs: {""Building_Number"": 68, ""City"": ""Marseille"", ""Country"": ""France"", ""Recipient"": ""Dupont"", ""Street_Name"": ""des Lilas"", ""Zip_Code"": 69003, ""repetition"": ""A"", ""type_voie"": ""route""}"
mme martin 28 bis rue du général leclerc 75001 nantes france,28,bis,rue,du Général Leclerc,75001,Nantes,France,Mme Martin,"Parsing: mme martin 28 bis rue du général leclerc 75001 nantes france
Champs: {""Building_Number"": 28, ""City"": ""Nantes"", ""Country"": ""France"", ""Recipient"": ""Mme Martin"", ""Street_Name"": ""du Général Leclerc"", ""Zip_Code"": 75001, ""repetition"": ""bis"", ""type_voie"": ""rue""}"
dupont 138 b route des lilas 67000 toulouse france,138,B,route,des Lilas,67000,Toulouse,France,Dupont,"Parsing: dupont 138 b route des lilas 67000 toulouse france
Champs: {""Building_Number"": 138, ""City"": ""Toulouse"", ""Country"": ""France"", ""Recipient"": ""Dupont"", ""Street_Name"": ""des Lilas"", ""Zip_Code"": 67000, ""repetition"": ""B"", ""type_voie"": ""route""}"
13008 avenue lyon jean jaurès 1 bis france,1,bis,avenue,Jean Jaurès,13008,Lyon,France,,"Parsing: 13008 avenue lyon jean jaurès 1 bis france
Champs: {""Building_Number"": 1, ""City"": ""Lyon"", ""Country"": ""France"", ""Recipient"": null, ""Street_Name"": ""Jean Jaurès"", ""Zip_Code"": 13008, ""repetition"": ""bis"", ""type_voie"": ""avenue""}"
m. durant 116 bis route des lilas 92100 marseille france,116,bis,route,des Lilas,92100,Marseille,France,M. Durant,"Parsing: m. durant 116 bis route des lilas 92100 marseille france
Champs: {""Building_Number"": 116, ""City"": ""Marseille"", ""Country"": ""France"", ""Recipient"": ""M. Durant"", ""Street_Name"": ""des Lilas"", ""Zip_Code"": 92100, ""repetition"": ""bis"", ""type_voie"": ""route""}"
Mme Martin 61 B route Jean Jaurès 33000 Bordeaux France,61,B,route,Jean Jaurès,33000,Bordeaux,France,Mme Martin,"Parsing: Mme Martin 61 B route Jean Jaurès 33000 Bordeaux France
Champs: {""Building_Number"": 61, ""City"": ""Bordeaux"", ""Country"": ""France"", ""Recipient"": ""Mme Martin"", ""Street_Name"": ""Jean Jaurès"", ""Zip_Code"": 33000, ""repetition"": ""B"", ""type_voie"": ""route""}"
dupont route france jean jaurès 16 marseille b 92100,16,B,route,Jean Jaurès,92100,Marseille,France,Dupont,"Parsing: dupont route france jean jaurès 16 marseille b 92100
Champs: {""Building_Number"": 16, ""City"": ""Marseille"", ""Country"": ""France"", ""Recipient"": ""Dupont"", ""Street_Name"": ""Jean Jaurès"", ""Zip_Code"": 92100, ""repetition"": ""B"", ""type_voie"": ""route""}"
avenue france mme martin ter 30 44000 victor hugo lyon,30,ter,avenue,Victor Hugo,44000,Lyon,France,Mme Martin,"Parsing: avenue france mme martin ter 30 44000 victor hugo lyon
Champs: {""Building_Number"": 30, ""City"": ""Lyon"", ""Country"": ""France"", ""Recipient"": ""Mme Martin"", ""Street_Name"": ""Victor Hugo"", ""Zip_Code"": 44000, ""repetition"": ""ter"", ""type_voie"": ""avenue""}"
rue m. durant france nice du général leclerc bis 92100 37,37,bis,rue,du Général Leclerc,92100,Nice,France,M. Durant,"Parsing: rue m. durant france nice du général leclerc bis 92100 37
Champs: {""Building_Number"": 37, ""City"": ""Nice"", ""Country"": ""France"", ""Recipient"": ""M. Durant"", ""Street_Name"": ""du Général Leclerc"", ""Zip_Code"": 92100, ""repetition"": ""bis"", ""type_voie"": ""rue""}"
m. durant 62 ter chemin des lilas 13008 marseille france,62,ter,chemin,des Lilas,13008,Marseille,France,M. Durant,"Parsing: m. durant 62 ter chemin des lilas 13008 marseille france
Champs: {""Building_Number"": 62, ""City"": ""Marseille"", ""Country"": ""France"", ""Recipient"": ""M. Durant"", ""Street_Name"": ""des Lilas"", ""Zip_Code"": 13008, ""repetition"": ""ter"", ""type_voie"": ""chemin""}"
france de la république 44000 3 route bis société leroy bordeaux,3,bis,route,de la République,44000,Bordeaux,France,Société Leroy,"Parsing: france de la république 44000 3 route bis société leroy bordeaux
Champs: {""Building_Number"": 3, ""City"": ""Bordeaux"", ""Country"": ""France"", ""Recipient"": ""Société Leroy"", ""Street_Name"": ""de la République"", ""Zip_Code"": 44000, ""repetition"": ""bis"", ""type_voie"": ""route""}"
M. Durant 70 A rue de la République 67000 Marseille France,70,A,rue,de la République,67000,Marseille,France,M. Durant,"Parsing: M. Durant 70 A rue de la République 67000 Marseille France
Champs: {""Building_Number"": 70, ""City"": ""Marseille"", ""Country"": ""France"", ""Recipient"": ""M. Durant"", ""Street_Name"": ""de la République"", ""Zip_Code"": 67000, ""repetition"": ""A"", ""type_voie"": ""rue""}"
110 bis chemin du général leclerc 6000 strasbourg france,110,bis,chemin,du Général Leclerc,6000,Strasbourg,France,,"Parsing: 110 bis chemin du général leclerc 6000 strasbourg france
Champs: {""Building_Number"": 110, ""City"": ""Strasbourg"", ""Country"": ""France"", ""Recipient"": null, ""Street_Name"": ""du Général Leclerc"", ""Zip_Code"": 6000, ""repetition"": ""bis"", ""type_voie"": ""chemin""}"
Dupont 109 bis boulevard des Lilas 33000 Toulouse France,109,bis,boulevard,des Lilas,33000,Toulouse,France,Dupont,"Parsing: Dupont 109 bis boulevard des Lilas 33000 Toulouse France
Champs: {""Building_Number"": 109, ""City"": ""Toulouse"", ""Country"": ""France"", ""Recipient"": ""Dupont"", ""Street_Name"": ""des Lilas"", ""Zip_Code"": 33000, ""repetition"": ""bis"", ""type_voie"": ""boulevard""}"
de la république mme martin route boulogne-billancourt 44000 81 france b,81,B,route,de la République,44000,Boulogne-Billancourt,France,Mme Martin,"Parsing: de la république mme martin route boulogne-billancourt 44000 81 france b
Champs: {""Building_Number"": 81, ""City"": ""Boulogne-Billancourt"", ""Country"": ""France"", ""Recipient"": ""Mme Martin"", ""Street_Name"": ""de la République"", ""Zip_Code"": 44000, ""repetition"": ""B"", ""type_voie"": ""route""}"
bis victor hugo bordeaux france mme martin 7 33000 chemin,7,bis,chemin,Victor Hugo,33000,Bordeaux,France,Mme Martin,"Parsing: bis victor hugo bordeaux france mme martin 7 33000 chemin
Champs: {""Building_Number"": 7, ""City"": ""Bordeaux"", ""Country"": ""France"", ""Recipient"": ""Mme Martin"", ""Street_Name"": ""Victor Hugo"", ""Zip_Code"": 33000, ""repetition"": ""bis"", ""type_voie"": ""chemin""}"
Victor Hugo 31000 A 121 Marseille chemin M. Durant France,121,A,chemin,Victor Hugo,31000,Marseille,France,M. Durant,"Parsing: Victor Hugo 31000 A 121 Marseille chemin M. Durant France
Champs: {""Building_Number"": 121, ""City"": ""Marseille"", ""Country"": ""France"", ""Recipient"": ""M. Durant"", ""Street_Name"": ""Victor Hugo"", ""Zip_Code"": 31000, ""repetition"": ""A"", ""type_voie"": ""chemin""}"
Dupont 194 bis boulevard de la République 44000 Nice France,194,bis,boulevard,de la République,44000,Nice,France,Dupont,"Parsing: Dupont 194 bis boulevard de la République 44000 Nice France
Champs: {""Building_Number"": 194, ""City"": ""Nice"", ""Country"": ""France"", ""Recipient"": ""Dupont"", ""Street_Name"": ""de la République"", ""Zip_Code"": 44000, ""repetition"": ""bis"", ""type_voie"": ""boulevard""}"
mme martin 81 a rue jean jaurès 67000 nice france,81,A,rue,Jean Jaurès,67000,Nice,France,Mme Martin,"Parsing: mme martin 81 a rue jean jaurès 67000 nice france
Champs: {""Building_Number"": 81, ""City"": ""Nice"", ""Country"": ""France"", ""Recipient"": ""Mme Martin"", ""Street_Name"": ""Jean Jaurès"", ""Zip_Code"": 67000, ""repetition"": ""A"", ""type_voie"": ""rue""}"
Dupont 106 ter avenue de Verdun 69003 Nantes France,106,ter,avenue,de Verdun,69003,Nantes,France,Dupont,"Parsing: Dupont 106 ter avenue de Verdun 69003 Nantes France
Champs: {""Building_Number"": 106, ""City"": ""Nantes"", ""Country"": ""France"", ""Recipient"": ""Dupont"", ""Street_Name"": ""de Verdun"", ""Zip_Code"": 69003, ""repetition"": ""ter"", ""type_voie"": ""avenue""}"
bis 13 Paris France Victor Hugo rue 31000,13,bis,rue,Victor Hugo,31000,Paris,France,,"Parsing: bis 13 Paris France Victor Hugo rue 31000
Champs: {""Building_Number"": 13, ""City"": ""Paris"", ""Country"": ""France"", ""Recipient"": null, ""Street_Name"": ""Victor Hugo"", ""Zip_Code"": 31000, ""repetition"": ""bis"", ""type_voie"": ""rue""}"
Mme Martin 146 A rue Jean Jaurès 69003 Bordeaux France,146,A,rue,Jean Jaurès,69003,Bordeaux,France,Mme Martin,"Parsing: Mme Martin 146 A rue Jean Jaurès 69003 Bordeaux France
Champs: {""Building_Number"": 146, ""City"": ""Bordeaux"", ""Country"": ""France"", ""Recipient"": ""Mme Martin"", ""Street_Name"": ""Jean Jaurès"", ""Zip_Code"": 69003, ""repetition"": ""A"", ""type_voie"": ""rue""}"
158 avenue des Lilas 67000 Marseille France,158,,avenue,des Lilas,67000,Marseille,France,,"Parsing: 158 avenue des Lilas 67000 Marseille France
Champs: {""Building_Number"": 158, ""City"": ""Marseille"", ""Country"": ""France"", ""Recipient"": null, ""Street_Name"": ""des Lilas"", ""Zip_Code"": 67000, ""repetition"": null, ""type_voie"": ""avenue""}"
13008 77 a impasse france dupont de verdun boulogne-billancourt,77,A,impasse,de Verdun,13008,Boulogne-Billancourt,France,Dupont,"Parsing: 13008 77 a impasse france dupont de verdun boulogne-billancourt
Champs: {""Building_Number"": 77, ""City"": ""Boulogne-Billancourt"", ""Country"": ""France"", ""Recipient"": ""Dupont"", ""Street_Name"": ""de Verdun"", ""Zip_Code"": 13008, ""repetition"": ""A"", ""type_voie"": ""impasse""}"
m. durant 26 ter impasse jean jaurès 33000 boulogne-billancourt france,26,ter,impasse,Jean Jaurès,33000,Boulogne-Billancourt,France,M. Durant,"Parsing: m. durant 26 ter impasse jean jaurès 33000 boulogne-billancourt france
Champs: {""Building_Number"": 26, ""City"": ""Boulogne-Billancourt"", ""Country"": ""France"", ""Recipient"": ""M. Durant"", ""Street_Name"": ""Jean Jaurès"", ""Zip_Code"": 33000, ""repetition"": ""ter"", ""type_voie"": ""impasse""}"
Société Leroy 43 bis chemin de Verdun 69003 Bordeaux France,43,bis,chemin,de Verdun,69003,Bordeaux,France,Société Leroy,"Parsing: Société Leroy 43 bis chemin de Verdun 69003 Bordeaux France
Champs: {""Building_Number"": 43, ""City"": ""Bordeaux"", ""Country"": ""France"", ""Recipient"": ""Société Leroy"", ""Street_Name"": ""de Verdun"", ""Zip_Code"": 69003, ""repetition"": ""bis"", ""type_voie"": ""chemin""}"
mme martin 186 avenue de la république 67000 marseille france,186,,avenue,de la République,67000,Marseille,France,Mme Martin,"Parsing: mme martin 186 avenue de la république 67000 marseille france
Champs: {""Building_Number"": 186, ""City"": ""Marseille"", ""Country"": ""France"", ""Recipient"": ""Mme Martin"", ""Street_Name"": ""de la République"", ""Zip_Code"": 67000, ""repetition"": null, ""type_voie"": ""avenue""}"
Société Leroy 54 ter impasse de la République 33000 Lyon France,54,ter,impasse,de la République,33000,Lyon,France,Société Leroy,"Parsing: Société Leroy 54 ter impasse de la République 33000 Lyon France
Champs: {""Building_Number"": 54, ""City"": ""Lyon"", ""Country"": ""France"", ""Recipient"": ""Société Leroy"", ""Street_Name"": ""de la République"", ""Zip_Code"": 33000, ""repetition"": ""ter"", ""type_voie"": ""impasse""}"
mme martin 131 ter impasse de la république 31000 nice france,131,ter,impasse,de la République,31000,Nice,France,Mme Martin,"Parsing: mme martin 131 ter impasse de la république 31000 nice france
Champs: {""Building_Number"": 131, ""City"": ""Nice"", ""Country"": ""France"", ""Recipient"": ""Mme Martin"", ""Street_Name"": ""de la République"", ""Zip_Code"": 31000, ""repetition"": ""ter"", ""type_voie"": ""impasse""}"
Société Leroy 187 A chemin Jean Jaurès 33000 Nantes France,187,A,chemin,Jean Jaurès,33000,Nantes,France,Société Leroy,"Parsing: Société Leroy 187 A chemin Jean Jaurès 33000 Nantes France
Champs: {""Building_Number"": 187, ""City"": ""Nantes"", ""Country"": ""France"", ""Recipient"": ""Société Leroy"", ""Street_Name"": ""Jean Jaurès"", ""Zip_Code"": 33000, ""repetition"": ""A"", ""type_voie"": ""chemin""}"
dupont 17 ter route de la république 92100 marseille france,17,ter,route,de la République,92100,Marseille,France,Dupont,"Parsing: dupont 17 ter route de la république 92100 marseille france
Champs: {""Building_Number"": 17, ""City"": ""Marseille"", ""Country"": ""France"", ""Recipient"": ""Dupont"", ""Street_Name"": ""de la République"", ""Zip_Code"": 92100, ""repetition"": ""ter"", ""type_voie"": ""route""}"
bis du général leclerc 33000 société leroy chemin nice france 71,71,bis,chemin,du Général Leclerc,33000,Nice,France,Société Leroy,"Parsing: bis du général leclerc 33000 société leroy chemin nice france 71
Champs: {""Building_Number"": 71, ""City"": ""Nice"", ""Country"": ""France"", ""Recipient"": ""Société Leroy"", ""Street_Name"": ""du Général Leclerc"", ""Zip_Code"": 33000, ""repetition"": ""bis"", ""type_voie"": ""chemin""}"
123 bis chemin Jean Jaurès 31000 Strasbourg France,123,bis,chemin,Jean Jaurès,31000,Strasbourg,France,,"Parsing: 123 bis chemin Jean Jaurès 31000 Strasbourg France
Champs: {""Building_Number"": 123, ""City"": ""Strasbourg"", ""Country"": ""France"", ""Recipient"": null, ""Street_Name"": ""Jean Jaurès"", ""Zip_Code"": 31000, ""repetition"": ""bis"", ""type_voie"": ""chemin""}"
mme martin nantes france victor hugo 33 13008 impasse,33,,impasse,Victor Hugo,13008,Nantes,France,Mme Martin,"Parsing: mme martin nantes france victor hugo 33 13008 impasse
Champs: {""Building_Number"": 33, ""City"": ""Nantes"", ""Country"": ""France"", ""Recipient"": ""Mme Martin"", ""Street_Name"": ""Victor Hugo"", ""Zip_Code"": 13008, ""repetition"": null, ""type_voie"": ""impasse""}"
dupont 148 ter chemin victor hugo 75001 marseille france,148,ter,chemin,Victor Hugo,75001,Marseille,France,Dupont,"Parsing: dupont 148 ter chemin victor hugo 75001 marseille france
Champs: {""Building_Number"": 148, ""City"": ""Marseille"", ""Country"": ""France"", ""Recipient"": ""Dupont"", ""Street_Name"": ""Victor Hugo"", ""Zip_Code"": 75001, ""repetition"": ""ter"", ""type_voie"": ""chemin""}"
société leroy 139 bis route de la république 6000 paris france,139,bis,route,de la République,6000,Paris,France,Société Leroy,"Parsing: société leroy 139 bis route de la république 6000 paris france
Champs: {""Building_Number"": 139, ""City"": ""Paris"", ""Country"": ""France"", ""Recipient"": ""Société Leroy"", ""Street_Name"": ""de la République"", ""Zip_Code"": 6000, ""repetition"": ""bis"", ""type_voie"": ""route""}"
Boulogne-Billancourt 75001 bis France Société Leroy des Lilas chemin 28,28,bis,chemin,des Lilas,75001,Boulogne-Billancourt,France,Société Leroy,"Parsing: Boulogne-Billancourt 75001 bis France Société Leroy des Lilas chemin 28
Champs: {""Building_Number"": 28, ""City"": ""Boulogne-Billancourt"", ""Country"": ""France"", ""Recipient"": ""Société Leroy"", ""Street_Name"": ""des Lilas"", ""Zip_Code"": 75001, ""repetition"": ""bis"", ""type_voie"": ""chemin""}"
1 bis impasse Jean Jaurès 13008 Lyon France,1,bis,impasse,Jean Jaurès,13008,Lyon,France,,"Parsing: 1 bis impasse Jean Jaurès 13008 Lyon France
Champs: {""Building_Number"": 1, ""City"": ""Lyon"", ""Country"": ""France"", ""Recipient"": null, ""Street_Name"": ""Jean Jaurès"", ""Zip_Code"": 13008, ""repetition"": ""bis"", ""type_voie"": ""impasse""}"
route de la République B France Strasbourg 44000 81,81,B,route,de la République,44000,Strasbourg,France,,"Parsing: route de la République B France Strasbourg 44000 81
Champs: {""Building_Number"": 81, ""City"": ""Strasbourg"", ""Country"": ""France"", ""Recipient"": null, ""Street_Name"": ""de la République"", ""Zip_Code"": 44000, ""repetition"": ""B"", ""type_voie"": ""route""}"
Société Leroy 154 ter avenue Jean Jaurès 67000 Paris France,154,ter,avenue,Jean Jaurès,67000,Paris,France,Société Leroy,"Parsing: Société Leroy 154 ter avenue Jean Jaurès 67000 Paris France
Champs: {""Building_Number"": 154, ""City"": ""Paris"", ""Country"": ""France"", ""Recipient"": ""Société Leroy"", ""Street_Name"": ""Jean Jaurès"", ""Zip_Code"": 67000, ""repetition"": ""ter"", ""type_voie"": ""avenue""}"
de la République 147 B Mme Martin 13008 France Toulouse rue,147,B,rue,de la République,13008,Toulouse,France,Mme Martin,"Parsing: de la République 147 B Mme Martin 13008 France Toulouse rue
Champs: {""Building_Number"": 147, ""City"": ""Toulouse"", ""Country"": ""France"", ""Recipient"": ""Mme Martin"", ""Street_Name"": ""de la République"", ""Zip_Code"": 13008, ""repetition"": ""B"", ""type_voie"": ""rue""}"
102 A route Victor Hugo 75001 Marseille France,102,A,route,Victor Hugo,75001,Marseille,France,,"Parsing: 102 A route Victor Hugo 75001 Marseille France
Champs: {""Building_Number"": 102, ""City"": ""Marseille"", ""Country"": ""France"", ""Recipient"": null, ""Street_Name"": ""Victor Hugo"", ""Zip_Code"": 75001, ""repetition"": ""A"", ""type_voie"": ""route""}"
Société Leroy 197 bis rue des Lilas 75001 Nantes France,197,bis,rue,des Lilas,75001,Nantes,France,Société Leroy,"Parsing: Société Leroy 197 bis rue des Lilas 75001 Nantes France
Champs: {""Building_Number"": 197, ""City"": ""Nantes"", ""Country"": ""France"", ""Recipient"": ""Société Leroy"", ""Street_Name"": ""des Lilas"", ""Zip_Code"": 75001, ""repetition"": ""bis"", ""type_voie"": ""rue""}"
Mme Martin 189 avenue Jean Jaurès 75001 Bordeaux France,189,,avenue,Jean Jaurès,75001,Bordeaux,France,Mme Martin,"Parsing: Mme Martin 189 avenue Jean Jaurès 75001 Bordeaux France
Champs: {""Building_Number"": 189, ""City"": ""Bordeaux"", ""Country"": ""France"", ""Recipient"": ""Mme Martin"", ""Street_Name"": ""Jean Jaurès"", ""Zip_Code"": 75001, ""repetition"": null, ""type_voie"": ""avenue""}"
Mme Martin 40 route des Lilas 44000 Boulogne-Billancourt France,40,,route,des Lilas,44000,Boulogne-Billancourt,France,Mme Martin,"Parsing: Mme Martin 40 route des Lilas 44000 Boulogne-Billancourt France
Champs: {""Building_Number"": 40, ""City"": ""Boulogne-Billancourt"", ""Country"": ""France"", ""Recipient"": ""Mme Martin"", ""Street_Name"": ""des Lilas"", ""Zip_Code"": 44000, ""repetition"": null, ""type_voie"": ""route""}"
mme martin 87 impasse du général leclerc 69003 nantes france,87,,impasse,du Général Leclerc,69003,Nantes,France,Mme Martin,"Parsing: mme martin 87 impasse du général leclerc 69003 nantes france
Champs: {""Building_Number"": 87, ""City"": ""Nantes"", ""Country"": ""France"", ""Recipient"": ""Mme Martin"", ""Street_Name"": ""du Général Leclerc"", ""Zip_Code"": 69003, ""repetition"": null, ""type_voie"": ""impasse""}"
france de verdun 13008 avenue 187 lyon dupont,187,,avenue,de Verdun,13008,Lyon,France,Dupont,"Parsing: france de verdun 13008 avenue 187 lyon dupont
Champs: {""Building_Number"": 187, ""City"": ""Lyon"", ""Country"": ""France"", ""Recipient"": ""Dupont"", ""Street_Name"": ""de Verdun"", ""Zip_Code"": 13008, ""repetition"": null, ""type_voie"": ""avenue""}"
106 6000 du Général Leclerc ter France Marseille M. Durant impasse,106,ter,impasse,du Général Leclerc,6000,Marseille,France,M. Durant,"Parsing: 106 6000 du Général Leclerc ter France Marseille M. Durant impasse
Champs: {""Building_Number"": 106, ""City"": ""Marseille"", ""Country"": ""France"", ""Recipient"": ""M. Durant"", ""Street_Name"": ""du Général Leclerc"", ""Zip_Code"": 6000, ""repetition"": ""ter"", ""type_voie"": ""impasse""}"
44000 du général leclerc france chemin b 65 m. durant nice,65,B,chemin,du Général Leclerc,44000,Nice,France,M. Durant,"Parsing: 44000 du général leclerc france chemin b 65 m. durant nice
Champs: {""Building_Number"": 65, ""City"": ""Nice"", ""Country"": ""France"", ""Recipient"": ""M. Durant"", ""Street_Name"": ""du Général Leclerc"", ""Zip_Code"": 44000, ""repetition"": ""B"", ""type_voie"": ""chemin""}"
73 B rue de Verdun 67000 Marseille France,73,B,rue,de Verdun,67000,Marseille,France,,"Parsing: 73 B rue de Verdun 67000 Marseille France
Champs: {""Building_Number"": 73, ""City"": ""Marseille"", ""Country"": ""France"", ""Recipient"": null, ""Street_Name"": ""de Verdun"", ""Zip_Code"": 67000, ""repetition"": ""B"", ""type_voie"": ""rue""}"
de la République 67000 France 70 Dupont avenue Paris B,70,B,avenue,de la République,67000,Paris,France,Dupont,"Parsing: de la République 67000 France 70 Dupont avenue Paris B
Champs: {""Building_Number"": 70, ""City"": ""Paris"", ""Country"": ""France"", ""Recipient"": ""Dupont"", ""Street_Name"": ""de la République"", ""Zip_Code"": 67000, ""repetition"": ""B"", ""type_voie"": ""avenue""}"
mme martin 87 b chemin de verdun 92100 toulouse france,87,B,chemin,de Verdun,92100,Toulouse,France,Mme Martin,"Parsing: mme martin 87 b chemin de verdun 92100 toulouse france
Champs: {""Building_Number"": 87, ""City"": ""Toulouse"", ""Country"": ""France"", ""Recipient"": ""Mme Martin"", ""Street_Name"": ""de Verdun"", ""Zip_Code"": 92100, ""repetition"": ""B"", ""type_voie"": ""chemin""}"
Mme Martin 107 ter chemin du Général Leclerc 33000 Marseille France,107,ter,chemin,du Général Leclerc,33000,Marseille,France,Mme Martin,"Parsing: Mme Martin 107 ter chemin du Général Leclerc 33000 Marseille France
Champs: {""Building_Number"": 107, ""City"": ""Marseille"", ""Country"": ""France"", ""Recipient"": ""Mme Martin"", ""Street_Name"": ""du Général Leclerc"", ""Zip_Code"": 33000, ""repetition"": ""ter"", ""type_voie"": ""chemin""}"
route ter Mme Martin France Nice 13008 15 Jean Jaurès,15,ter,route,Jean Jaurès,13008,Nice,France,Mme Martin,"Parsing: route ter Mme Martin France Nice 13008 15 Jean Jaurès
Champs: {""Building_Number"": 15, ""City"": ""Nice"", ""Country"": ""France"", ""Recipient"": ""Mme Martin"", ""Street_Name"": ""Jean Jaurès"", ""Zip_Code"": 13008, ""repetition"": ""ter"", ""type_voie"": ""route""}"
M. Durant 189 rue de la République 6000 Boulogne-Billancourt France,189,,rue,de la République,6000,Boulogne-Billancourt,France,M. Durant,"Parsing: M. Durant 189 rue de la République 6000 Boulogne-Billancourt France
Champs: {""Building_Number"": 189, ""City"": ""Boulogne-Billancourt"", ""Country"": ""France"", ""Recipient"": ""M. Durant"", ""Street_Name"": ""de la République"", ""Zip_Code"": 6000, ""repetition"": null, ""type_voie"": ""rue""}"
Dupont 180 B rue de Verdun 67000 Nantes France,180,B,rue,de Verdun,67000,Nantes,France,Dupont,"Parsing: Dupont 180 B rue de Verdun 67000 Nantes France
Champs: {""Building_Number"": 180, ""City"": ""Nantes"", ""Country"": ""France"", ""Recipient"": ""Dupont"", ""Street_Name"": ""de Verdun"", ""Zip_Code"": 67000, ""repetition"": ""B"", ""type_voie"": ""rue""}"
Mme Martin 48 B impasse du Général Leclerc 75001 Paris France,48,B,impasse,du Général Leclerc,75001,Paris,France,Mme Martin,"Parsing: Mme Martin 48 B impasse du Général Leclerc 75001 Paris France
Champs: {""Building_Number"": 48, ""City"": ""Paris"", ""Country"": ""France"", ""Recipient"": ""Mme Martin"", ""Street_Name"": ""du Général Leclerc"", ""Zip_Code"": 75001, ""repetition"": ""B"", ""type_voie"": ""impasse""}"
mme martin des lilas 109 avenue strasbourg b france 92100,109,B,avenue,des Lilas,92100,Strasbourg,France,Mme Martin,"Parsing: mme martin des lilas 109 avenue strasbourg b france 92100
Champs: {""Building_Number"": 109, ""City"": ""Strasbourg"", ""Country"": ""France"", ""Recipient"": ""Mme Martin"", ""Street_Name"": ""des Lilas"", ""Zip_Code"": 92100, ""repetition"": ""B"", ""type_voie"": ""avenue""}"
société leroy 157 bis route des lilas 33000 lyon france,157,bis,route,des Lilas,33000,Lyon,France,Société Leroy,"Parsing: société leroy 157 bis route des lilas 33000 lyon france
Champs: {""Building_Number"": 157, ""City"": ""Lyon"", ""Country"": ""France"", ""Recipient"": ""Société Leroy"", ""Street_Name"": ""des Lilas"", ""Zip_Code"": 33000, ""repetition"": ""bis"", ""type_voie"": ""route""}"
6000 101 nantes jean jaurès france m. durant avenue,101,,avenue,Jean Jaurès,6000,Nantes,France,M. Durant,"Parsing: 6000 101 nantes jean jaurès france m. durant avenue
Champs: {""Building_Number"": 101, ""City"": ""Nantes"", ""Country"": ""France"", ""Recipient"": ""M. Durant"", ""Street_Name"": ""Jean Jaurès"", ""Zip_Code"": 6000, ""repetition"": null, ""type_voie"": ""avenue""}"
67000 route 186 lyon de verdun dupont france,186,,route,de Verdun,67000,Lyon,France,Dupont,"Parsing: 67000 route 186 lyon de verdun dupont france
Champs: {""Building_Number"": 186, ""City"": ""Lyon"", ""Country"": ""France"", ""Recipient"": ""Dupont"", ""Street_Name"": ""de Verdun"", ""Zip_Code"": 67000, ""repetition"": null, ""type_voie"": ""route""}"
france impasse de verdun b nantes 81 92100 m. durant,81,B,impasse,de Verdun,92100,Nantes,France,M. Durant,"Parsing: france impasse de verdun b nantes 81 92100 m. durant
Champs: {""Building_Number"": 81, ""City"": ""Nantes"", ""Country"": ""France"", ""Recipient"": ""M. Durant"", ""Street_Name"": ""de Verdun"", ""Zip_Code"": 92100, ""repetition"": ""B"", ""type_voie"": ""impasse""}"
Mme Martin 15 chemin de Verdun 69003 Paris France,15,,chemin,de Verdun,69003,Paris,France,Mme Martin,"Parsing: Mme Martin 15 chemin de Verdun 69003 Paris France
Champs: {""Building_Number"": 15, ""City"": ""Paris"", ""Country"": ""France"", ""Recipient"": ""Mme Martin"", ""Street_Name"": ""de Verdun"", ""Zip_Code"": 69003, ""repetition"": null, ""type_voie"": ""chemin""}"
M. Durant 5 ter chemin du Général Leclerc 13008 Bordeaux France,5,ter,chemin,du Général Leclerc,13008,Bordeaux,France,M. Durant,"Parsing: M. Durant 5 ter chemin du Général Leclerc 13008 Bordeaux France
Champs: {""Building_Number"": 5, ""City"": ""Bordeaux"", ""Country"": ""France"", ""Recipient"": ""M. Durant"", ""Street_Name"": ""du Général Leclerc"", ""Zip_Code"": 13008, ""repetition"": ""ter"", ""type_voie"": ""chemin""}"
B Mme Martin 69003 146 France de Verdun Nice rue,146,B,rue,de Verdun,69003,Nice,France,Mme Martin,"Parsing: B Mme Martin 69003 146 France de Verdun Nice rue
Champs: {""Building_Number"": 146, ""City"": ""Nice"", ""Country"": ""France"", ""Recipient"": ""Mme Martin"", ""Street_Name"": ""de Verdun"", ""Zip_Code"": 69003, ""repetition"": ""B"", ""type_voie"": ""rue""}"
mme martin 64 bis rue victor hugo 67000 nantes france,64,bis,rue,Victor Hugo,67000,Nantes,France,Mme Martin,"Parsing: mme martin 64 bis rue victor hugo 67000 nantes france
Champs: {""Building_Number"": 64, ""City"": ""Nantes"", ""Country"": ""France"", ""Recipient"": ""Mme Martin"", ""Street_Name"": ""Victor Hugo"", ""Zip_Code"": 67000, ""repetition"": ""bis"", ""type_voie"": ""rue""}"
67000 chemin Paris 191 France A de la République,191,A,chemin,de la République,67000,Paris,France,,"Parsing: 67000 chemin Paris 191 France A de la République
Champs: {""Building_Number"": 191, ""City"": ""Paris"", ""Country"": ""France"", ""Recipient"": null, ""Street_Name"": ""de la République"", ""Zip_Code"": 67000, ""repetition"": ""A"", ""type_voie"": ""chemin""}"
M. Durant 155 ter avenue Victor Hugo 92100 Bordeaux France,155,ter,avenue,Victor Hugo,92100,Bordeaux,France,M. Durant,"Parsing: M. Durant 155 ter avenue Victor Hugo 92100 Bordeaux France
Champs: {""Building_Number"": 155, ""City"": ""Bordeaux"", ""Country"": ""France"", ""Recipient"": ""M. Durant"", ""Street_Name"": ""Victor Hugo"", ""Zip_Code"": 92100, ""repetition"": ""ter"", ""type_voie"": ""avenue""}"
Dupont 128 bis impasse du Général Leclerc 67000 Boulogne-Billancourt France,128,bis,impasse,du Général Leclerc,67000,Boulogne-Billancourt,France,Dupont,"Parsing: Dupont 128 bis impasse du Général Leclerc 67000 Boulogne-Billancourt France
Champs: {""Building_Number"": 128, ""City"": ""Boulogne-Billancourt"", ""Country"": ""France"", ""Recipient"": ""Dupont"", ""Street_Name"": ""du Général Leclerc"", ""Zip_Code"": 67000, ""repetition"": ""bis"", ""type_voie"": ""impasse""}"
Dupont 129 B impasse du Général Leclerc 33000 Lyon France,129,B,impasse,du Général Leclerc,33000,Lyon,France,Dupont,"Parsing: Dupont 129 B impasse du Général Leclerc 33000 Lyon France
Champs: {""Building_Number"": 129, ""City"": ""Lyon"", ""Country"": ""France"", ""Recipient"": ""Dupont"", ""Street_Name"": ""du Général Leclerc"", ""Zip_Code"": 33000, ""repetition"": ""B"", ""type_voie"": ""impasse""}"
M. Durant 100 boulevard de Verdun 13008 Paris France,100,,boulevard,de Verdun,13008,Paris,France,M. Durant,"Parsing: M. Durant 100 boulevard de Verdun 13008 Paris France
Champs: {""Building_Number"": 100, ""City"": ""Paris"", ""Country"": ""France"", ""Recipient"": ""M. Durant"", ""Street_Name"": ""de Verdun"", ""Zip_Code"": 13008, ""repetition"": null, ""type_voie"": ""boulevard""}"
lyon avenue m. durant 67000 victor hugo france 18,18,,avenue,Victor Hugo,67000,Lyon,France,M. Durant,"Parsing: lyon avenue m. durant 67000 victor hugo france 18
Champs: {""Building_Number"": 18, ""City"": ""Lyon"", ""Country"": ""France"", ""Recipient"": ""M. Durant"", ""Street_Name"": ""Victor Hugo"", ""Zip_Code"": 67000, ""repetition"": null, ""type_voie"": ""avenue""}"
137 bis avenue jean jaurès 6000 lyon france,137,bis,avenue,Jean Jaurès,6000,Lyon,France,,"Parsing: 137 bis avenue jean jaurès 6000 lyon france
Champs: {""Building_Number"": 137, ""City"": ""Lyon"", ""Country"": ""France"", ""Recipient"": null, ""Street_Name"": ""Jean Jaurès"", ""Zip_Code"": 6000, ""repetition"": ""bis"", ""type_voie"": ""avenue""}"
mme martin 119 bis impasse victor hugo 13008 nice france,119,bis,impasse,Victor Hugo,13008,Nice,France,Mme Martin,"Parsing: mme martin 119 bis impasse victor hugo 13008 nice france
Champs: {""Building_Number"": 119, ""City"": ""Nice"", ""Country"": ""France"", ""Recipient"": ""Mme Martin"", ""Street_Name"": ""Victor Hugo"", ""Zip_Code"": 13008, ""repetition"": ""bis"", ""type_voie"": ""impasse""}"
81 bis avenue des lilas 69003 strasbourg france,81,bis,avenue,des Lilas,69003,Strasbourg,France,,"Parsing: 81 bis avenue des lilas 69003 strasbourg france
Champs: {""Building_Number"": 81, ""City"": ""Strasbourg"", ""Country"": ""France"", ""Recipient"": null, ""Street_Name"": ""des Lilas"", ""Zip_Code"": 69003, ""repetition"": ""bis"", ""type_voie"": ""avenue""}"
mme martin 116 bis rue de la république 13008 lyon france,116,bis,rue,de la République,13008,Lyon,France,Mme Martin,"Parsing: mme martin 116 bis rue de la république 13008 lyon france
Champs: {""Building_Number"": 116, ""City"": ""Lyon"", ""Country"": ""France"", ""Recipient"": ""Mme Martin"", ""Street_Name"": ""de la République"", ""Zip_Code"": 13008, ""repetition"": ""bis"", ""type_voie"": ""rue""}"
31000 france b société leroy 62 route nantes de verdun,62,B,route,de Verdun,31000,Nantes,France,Société Leroy,"Parsing: 31000 france b société leroy 62 route nantes de verdun
Champs: {""Building_Number"": 62, ""City"": ""Nantes"", ""Country"": ""France"", ""Recipient"": ""Société Leroy"", ""Street_Name"": ""de Verdun"", ""Zip_Code"": 31000, ""repetition"": ""B"", ""type_voie"": ""route""}"
67000 de la république 55 boulevard france b nice,55,B,boulevard,de la République,67000,Nice,France,,"Parsing: 67000 de la république 55 boulevard france b nice
Champs: {""Building_Number"": 55, ""City"": ""Nice"", ""Country"": ""France"", ""Recipient"": null, ""Street_Name"": ""de la République"", ""Zip_Code"": 67000, ""repetition"": ""B"", ""type_voie"": ""boulevard""}"
société leroy 151 b boulevard de la république 31000 toulouse france,151,B,boulevard,de la République,31000,Toulouse,France,Société Leroy,"Parsing: société leroy 151 b boulevard de la république 31000 toulouse france
Champs: {""Building_Number"": 151, ""City"": ""Toulouse"", ""Country"": ""France"", ""Recipient"": ""Société Leroy"", ""Street_Name"": ""de la République"", ""Zip_Code"": 31000, ""repetition"": ""B"", ""type_voie"": ""boulevard""}"
france nantes 158 33000 de la république mme martin avenue ter,158,ter,avenue,de la République,33000,Nantes,France,Mme Martin,"Parsing: france nantes 158 33000 de la république mme martin avenue ter
Champs: {""Building_Number"": 158, ""City"": ""Nantes"", ""Country"": ""France"", ""Recipient"": ""Mme Martin"", ""Street_Name"": ""de la République"", ""Zip_Code"": 33000, ""repetition"": ""ter"", ""type_voie"": ""avenue""}"
31000 Société Leroy rue France 29 de la République Boulogne-Billancourt ter,29,ter,rue,de la République,31000,Boulogne-Billancourt,France,Société Leroy,"Parsing: 31000 Société Leroy rue France 29 de la République Boulogne-Billancourt ter
Champs: {""Building_Number"": 29, ""City"": ""Boulogne-Billancourt"", ""Country"": ""France"", ""Recipient"": ""Société Leroy"", ""Street_Name"": ""de la République"", ""Zip_Code"": 31000, ""repetition"": ""ter"", ""type_voie"": ""rue""}"
118 b boulevard du général leclerc 44000 toulouse france,118,B,boulevard,du Général Leclerc,44000,Toulouse,France,,"Parsing: 118 b boulevard du général leclerc 44000 toulouse france
Champs: {""Building_Number"": 118, ""City"": ""Toulouse"", ""Country"": ""France"", ""Recipient"": null, ""Street_Name"": ""du Général Leclerc"", ""Zip_Code"": 44000, ""repetition"": ""B"", ""type_voie"": ""boulevard""}"
France route 75001 de Verdun 172 Lyon B,172,B,route,de Verdun,75001,Lyon,France,,"Parsing: France route 75001 de Verdun 172 Lyon B
Champs: {""Building_Number"": 172, ""City"": ""Lyon"", ""Country"": ""France"", ""Recipient"": null, ""Street_Name"": ""de Verdun"", ""Zip_Code"": 75001, ""repetition"": ""B"", ""type_voie"": ""route""}"
nice a 41 dupont france victor hugo route 6000,41,A,route,Victor Hugo,6000,Nice,France,Dupont,"Parsing: nice a 41 dupont france victor hugo route 6000
Champs: {""Building_Number"": 41, ""City"": ""Nice"", ""Country"": ""France"", ""Recipient"": ""Dupont"", ""Street_Name"": ""Victor Hugo"", ""Zip_Code"": 6000, ""repetition"": ""A"", ""type_voie"": ""route""}"
134 rue des lilas 31000 boulogne-billancourt france,134,,rue,des Lilas,31000,Boulogne-Billancourt,France,,"Parsing: 134 rue des lilas 31000 boulogne-billancourt france
Champs: {""Building_Number"": 134, ""City"": ""Boulogne-Billancourt"", ""Country"": ""France"", ""Recipient"": null, ""Street_Name"": ""des Lilas"", ""Zip_Code"": 31000, ""repetition"": null, ""type_voie"": ""rue""}"
france toulouse 58 route de la république 6000 m. durant b,58,B,route,de la République,6000,Toulouse,France,M. Durant,"Parsing: france toulouse 58 route de la république 6000 m. durant b
Champs: {""Building_Number"": 58, ""City"": ""Toulouse"", ""Country"": ""France"", ""Recipient"": ""M. Durant"", ""Street_Name"": ""de la République"", ""Zip_Code"": 6000, ""repetition"": ""B"", ""type_voie"": ""route""}"
société leroy 106 b impasse jean jaurès 67000 nantes france,106,B,impasse,Jean Jaurès,67000,Nantes,France,Société Leroy,"Parsing: société leroy 106 b impasse jean jaurès 67000 nantes france
Champs: {""Building_Number"": 106, ""City"": ""Nantes"", ""Country"": ""France"", ""Recipient"": ""Société Leroy"", ""Street_Name"": ""Jean Jaurès"", ""Zip_Code"": 67000, ""repetition"": ""B"", ""type_voie"": ""impasse""}"
dupont 195 bis rue des lilas 6000 nice france,195,bis,rue,des Lilas,6000,Nice,France,Dupont,"Parsing: dupont 195 bis rue des lilas 6000 nice france
Champs: {""Building_Number"": 195, ""City"": ""Nice"", ""Country"": ""France"", ""Recipient"": ""Dupont"", ""Street_Name"": ""des Lilas"", ""Zip_Code"": 6000, ""repetition"": ""bis"", ""type_voie"": ""rue""}"
67000 chemin france 152 société leroy b jean jaurès boulogne-billancourt,152,B,chemin,Jean Jaurès,67000,Boulogne-Billancourt,France,Société Leroy,"Parsing: 67000 chemin france 152 société leroy b jean jaurès boulogne-billancourt
Champs: {""Building_Number"": 152, ""City"": ""Boulogne-Billancourt"", ""Country"": ""France"", ""Recipient"": ""Société Leroy"", ""Street_Name"": ""Jean Jaurès"", ""Zip_Code"": 67000, ""repetition"": ""B"", ""type_voie"": ""chemin""}"
Victor Hugo Mme Martin France bis 147 Paris 75001 impasse,147,bis,impasse,Victor Hugo,75001,Paris,France,Mme Martin,"Parsing: Victor Hugo Mme Martin France bis 147 Paris 75001 impasse
Champs: {""Building_Number"": 147, ""City"": ""Paris"", ""Country"": ""France"", ""Recipient"": ""Mme Martin"", ""Street_Name"": ""Victor Hugo"", ""Zip_Code"": 75001, ""repetition"": ""bis"", ""type_voie"": ""impasse""}"
Société Leroy 156 ter rue de la République 31000 Paris France,156,ter,rue,de la République,31000,Paris,France,Société Leroy,"Parsing: Société Leroy 156 ter rue de la République 31000 Paris France
Champs: {""Building_Number"": 156, ""City"": ""Paris"", ""Country"": ""France"", ""Recipient"": ""Société Leroy"", ""Street_Name"": ""de la République"", ""Zip_Code"": 31000, ""repetition"": ""ter"", ""type_voie"": ""rue""}"
mme martin 11 b impasse des lilas 33000 nice france,11,B,impasse,des Lilas,33000,Nice,France,Mme Martin,"Parsing: mme martin 11 b impasse des lilas 33000 nice france
Champs: {""Building_Number"": 11, ""City"": ""Nice"", ""Country"": ""France"", ""Recipient"": ""Mme Martin"", ""Street_Name"": ""des Lilas"", ""Zip_Code"": 33000, ""repetition"": ""B"", ""type_voie"": ""impasse""}"
M. Durant 194 bis impasse Jean Jaurès 67000 Paris France,194,bis,impasse,Jean Jaurès,67000,Paris,France,M. Durant,"Parsing: M. Durant 194 bis impasse Jean Jaurès 67000 Paris France
Champs: {""Building_Number"": 194, ""City"": ""Paris"", ""Country"": ""France"", ""Recipient"": ""M. Durant"", ""Street_Name"": ""Jean Jaurès"", ""Zip_Code"": 67000, ""repetition"": ""bis"", ""type_voie"": ""impasse""}"
Mme Martin 20 A boulevard Jean Jaurès 44000 Boulogne-Billancourt France,20,A,boulevard,Jean Jaurès,44000,Boulogne-Billancourt,France,Mme Martin,"Parsing: Mme Martin 20 A boulevard Jean Jaurès 44000 Boulogne-Billancourt France
Champs: {""Building_Number"": 20, ""City"": ""Boulogne-Billancourt"", ""Country"": ""France"", ""Recipient"": ""Mme Martin"", ""Street_Name"": ""Jean Jaurès"", ""Zip_Code"": 44000, ""repetition"": ""A"", ""type_voie"": ""boulevard""}"
105 75001 de la République ter Société Leroy Paris impasse France,105,ter,impasse,de la République,75001,Paris,France,Société Leroy,"Parsing: 105 75001 de la République ter Société Leroy Paris impasse France
Champs: {""Building_Number"": 105, ""City"": ""Paris"", ""Country"": ""France"", ""Recipient"": ""Société Leroy"", ""Street_Name"": ""de la République"", ""Zip_Code"": 75001, ""repetition"": ""ter"", ""type_voie"": ""impasse""}"
Mme Martin 115 ter rue des Lilas 44000 Nantes France,115,ter,rue,des Lilas,44000,Nantes,France,Mme Martin,"Parsing: Mme Martin 115 ter rue des Lilas 44000 Nantes France
Champs: {""Building_Number"": 115, ""City"": ""Nantes"", ""Country"": ""France"", ""Recipient"": ""Mme Martin"", ""Street_Name"": ""des Lilas"", ""Zip_Code"": 44000, ""repetition"": ""ter"", ""type_voie"": ""rue""}"
M. Durant 174 A impasse Jean Jaurès 67000 Boulogne-Billancourt France,174,A,impasse,Jean Jaurès,67000,Boulogne-Billancourt,France,M. Durant,"Parsing: M. Durant 174 A impasse Jean Jaurès 67000 Boulogne-Billancourt France
Champs: {""Building_Number"": 174, ""City"": ""Boulogne-Billancourt"", ""Country"": ""France"", ""Recipient"": ""M. Durant"", ""Street_Name"": ""Jean Jaurès"", ""Zip_Code"": 67000, ""repetition"": ""A"", ""type_voie"": ""impasse""}"
B Paris Jean Jaurès 92100 62 M. Durant avenue France,62,B,avenue,Jean Jaurès,92100,Paris,France,M. Durant,"Parsing: B Paris Jean Jaurès 92100 62 M. Durant avenue France
Champs: {""Building_Number"": 62, ""City"": ""Paris"", ""Country"": ""France"", ""Recipient"": ""M. Durant"", ""Street_Name"": ""Jean Jaurès"", ""Zip_Code"": 92100, ""repetition"": ""B"", ""type_voie"": ""avenue""}"
Dupont 117 ter chemin Victor Hugo 44000 Bordeaux France,117,ter,chemin,Victor Hugo,44000,Bordeaux,France,Dupont,"Parsing: Dupont 117 ter chemin Victor Hugo 44000 Bordeaux France
Champs: {""Building_Number"": 117, ""City"": ""Bordeaux"", ""Country"": ""France"", ""Recipient"": ""Dupont"", ""Street_Name"": ""Victor Hugo"", ""Zip_Code"": 44000, ""repetition"": ""ter"", ""type_voie"": ""chemin""}"
Toulouse 33000 rue du Général Leclerc A 139 France,139,A,rue,du Général Leclerc,33000,Toulouse,France,,"Parsing: Toulouse 33000 rue du Général Leclerc A 139 France
Champs: {""Building_Number"": 139, ""City"": ""Toulouse"", ""Country"": ""France"", ""Recipient"": null, ""Street_Name"": ""du Général Leclerc"", ""Zip_Code"": 33000, ""repetition"": ""A"", ""type_voie"": ""rue""}"
de la République 44000 A Dupont rue France 31 Lyon,31,A,rue,de la République,44000,Lyon,France,Dupont,"Parsing: de la République 44000 A Dupont rue France 31 Lyon
Champs: {""Building_Number"": 31, ""City"": ""Lyon"", ""Country"": ""France"", ""Recipient"": ""Dupont"", ""Street_Name"": ""de la République"", ""Zip_Code"": 44000, ""repetition"": ""A"", ""type_voie"": ""rue""}"
société leroy 16 bis impasse de la république 33000 bordeaux france,16,bis,impasse,de la République,33000,Bordeaux,France,Société Leroy,"Parsing: société leroy 16 bis impasse de la république 33000 bordeaux france
Champs: {""Building_Number"": 16, ""City"": ""Bordeaux"", ""Country"": ""France"", ""Recipient"": ""Société Leroy"", ""Street_Name"": ""de la République"", ""Zip_Code"": 33000, ""repetition"": ""bis"", ""type_voie"": ""impasse""}"
dupont 46 b avenue victor hugo 92100 strasbourg france,46,B,avenue,Victor Hugo,92100,Strasbourg,France,Dupont,"Parsing: dupont 46 b avenue victor hugo 92100 strasbourg france
Champs: {""Building_Number"": 46, ""City"": ""Strasbourg"", ""Country"": ""France"", ""Recipient"": ""Dupont"", ""Street_Name"": ""Victor Hugo"", ""Zip_Code"": 92100, ""repetition"": ""B"", ""type_voie"": ""avenue""}"
rue 75001 de verdun france 126 boulogne-billancourt,126,,rue,de Verdun,75001,Boulogne-Billancourt,France,,"Parsing: rue 75001 de verdun france 126 boulogne-billancourt
Champs: {""Building_Number"": 126, ""City"": ""Boulogne-Billancourt"", ""Country"": ""France"", ""Recipient"": null, ""Street_Name"": ""de Verdun"", ""Zip_Code"": 75001, ""repetition"": null, ""type_voie"": ""rue""}"
113 ter route jean jaurès 67000 bordeaux france,113,ter,route,Jean Jaurès,67000,Bordeaux,France,,"Parsing: 113 ter route jean jaurès 67000 bordeaux france
Champs: {""Building_Number"": 113, ""City"": ""Bordeaux"", ""Country"": ""France"", ""Recipient"": null, ""Street_Name"": ""Jean Jaurès"", ""Zip_Code"": 67000, ""repetition"": ""ter"", ""type_voie"": ""route""}"
Paris Dupont 129 France boulevard Jean Jaurès 31000 B,129,B,boulevard,Jean Jaurès,31000,Paris,France,Dupont,"Parsing: Paris Dupont 129 France boulevard Jean Jaurès 31000 B
Champs: {""Building_Number"": 129, ""City"": ""Paris"", ""Country"": ""France"", ""Recipient"": ""Dupont"", ""Street_Name"": ""Jean Jaurès"", ""Zip_Code"": 31000, ""repetition"": ""B"", ""type_voie"": ""boulevard""}"
75001 du général leclerc avenue ter 112 france nice mme martin,112,ter,avenue,du Général Leclerc,75001,Nice,France,Mme Martin,"Parsing: 75001 du général leclerc avenue ter 112 france nice mme martin
Champs: {""Building_Number"": 112, ""City"": ""Nice"", ""Country"": ""France"", ""Recipient"": ""Mme Martin"", ""Street_Name"": ""du Général Leclerc"", ""Zip_Code"": 75001, ""repetition"": ""ter"", ""type_voie"": ""avenue""}"
Mme Martin 77 ter rue du Général Leclerc 31000 Nantes France,77,ter,rue,du Général Leclerc,31000,Nantes,France,Mme Martin,"Parsing: Mme Martin 77 ter rue du Général Leclerc 31000 Nantes France
Champs: {""Building_Number"": 77, ""City"": ""Nantes"", ""Country"": ""France"", ""Recipient"": ""Mme Martin"", ""Street_Name"": ""du Général Leclerc"", ""Zip_Code"": 31000, ""repetition"": ""ter"", ""type_voie"": ""rue""}"
44000 chemin Nantes ter 167 Victor Hugo France,167,ter,chemin,Victor Hugo,44000,Nantes,France,,"Parsing: 44000 chemin Nantes ter 167 Victor Hugo France
Champs: {""Building_Number"": 167, ""City"": ""Nantes"", ""Country"": ""France"", ""Recipient"": null, ""Street_Name"": ""Victor Hugo"", ""Zip_Code"": 44000, ""repetition"": ""ter"", ""type_voie"": ""chemin""}"
dupont bis 141 boulevard 33000 marseille du général leclerc france,141,bis,boulevard,du Général Leclerc,33000,Marseille,France,Dupont,"Parsing: dupont bis 141 boulevard 33000 marseille du général leclerc france
Champs: {""Building_Number"": 141, ""City"": ""Marseille"", ""Country"": ""France"", ""Recipient"": ""Dupont"", ""Street_Name"": ""du Général Leclerc"", ""Zip_Code"": 33000, ""repetition"": ""bis"", ""type_voie"": ""boulevard""}"
m. durant 92100 france b 86 chemin du général leclerc marseille,86,B,chemin,du Général Leclerc,92100,Marseille,France,M. Durant,"Parsing: m. durant 92100 france b 86 chemin du général leclerc marseille
Champs: {""Building_Number"": 86, ""City"": ""Marseille"", ""Country"": ""France"", ""Recipient"": ""M. Durant"", ""Street_Name"": ""du Général Leclerc"", ""Zip_Code"": 92100, ""repetition"": ""B"", ""type_voie"": ""chemin""}"
90 bis boulevard de verdun 92100 nantes france,90,bis,boulevard,de Verdun,92100,Nantes,France,,"Parsing: 90 bis boulevard de verdun 92100 nantes france
Champs: {""Building_Number"": 90, ""City"": ""Nantes"", ""Country"": ""France"", ""Recipient"": null, ""Street_Name"": ""de Verdun"", ""Zip_Code"": 92100, ""repetition"": ""bis"", ""type_voie"": ""boulevard""}"
Dupont 144 avenue des Lilas 75001 Toulouse France,144,,avenue,des Lilas,75001,Toulouse,France,Dupont,"Parsing: Dupont 144 avenue des Lilas 75001 Toulouse France
Champs: {""Building_Number"": 144, ""City"": ""Toulouse"", ""Country"": ""France"", ""Recipient"": ""Dupont"", ""Street_Name"": ""des Lilas"", ""Zip_Code"": 75001, ""repetition"": null, ""type_voie"": ""avenue""}"
du général leclerc bis 7 bordeaux impasse 92100 france mme martin,7,bis,impasse,du Général Leclerc,92100,Bordeaux,France,Mme Martin,"Parsing: du général leclerc bis 7 bordeaux impasse 92100 france mme martin
Champs: {""Building_Number"": 7, ""City"": ""Bordeaux"", ""Country"": ""France"", ""Recipient"": ""Mme Martin"", ""Street_Name"": ""du Général Leclerc"", ""Zip_Code"": 92100, ""repetition"": ""bis"", ""type_voie"": ""impasse""}"
dupont 34 bis route de verdun 13008 lyon france,34,bis,route,de Verdun,13008,Lyon,France,Dupont,"Parsing: dupont 34 bis route de verdun 13008 lyon france
Champs: {""Building_Number"": 34, ""City"": ""Lyon"", ""Country"": ""France"", ""Recipient"": ""Dupont"", ""Street_Name"": ""de Verdun"", ""Zip_Code"": 13008, ""repetition"": ""bis"", ""type_voie"": ""route""}"
Mme Martin 146 A chemin Jean Jaurès 6000 Boulogne-Billancourt France,146,A,chemin,Jean Jaurès,6000,Boulogne-Billancourt,France,Mme Martin,"Parsing: Mme Martin 146 A chemin Jean Jaurès 6000 Boulogne-Billancourt France
Champs: {""Building_Number"": 146, ""City"": ""Boulogne-Billancourt"", ""Country"": ""France"", ""Recipient"": ""Mme Martin"", ""Street_Name"": ""Jean Jaurès"", ""Zip_Code"": 6000, ""repetition"": ""A"", ""type_voie"": ""chemin""}"
boulevard nice france société leroy b 67000 90 jean jaurès,90,B,boulevard,Jean Jaurès,67000,Nice,France,Société Leroy,"Parsing: boulevard nice france société leroy b 67000 90 jean jaurès
Champs: {""Building_Number"": 90, ""City"": ""Nice"", ""Country"": ""France"", ""Recipient"": ""Société Leroy"", ""Street_Name"": ""Jean Jaurès"", ""Zip_Code"": 67000, ""repetition"": ""B"", ""type_voie"": ""boulevard""}"
France Victor Hugo rue Société Leroy 13008 Nice 152 B,152,B,rue,Victor Hugo,13008,Nice,France,Société Leroy,"Parsing: France Victor Hugo rue Société Leroy 13008 Nice 152 B
Champs: {""Building_Number"": 152, ""City"": ""Nice"", ""Country"": ""France"", ""Recipient"": ""Société Leroy"", ""Street_Name"": ""Victor Hugo"", ""Zip_Code"": 13008, ""repetition"": ""B"", ""type_voie"": ""rue""}"
b de verdun france nice 30 chemin société leroy 31000,30,B,chemin,de Verdun,31000,Nice,France,Société Leroy,"Parsing: b de verdun france nice 30 chemin société leroy 31000
Champs: {""Building_Number"": 30, ""City"": ""Nice"", ""Country"": ""France"", ""Recipient"": ""Société Leroy"", ""Street_Name"": ""de Verdun"", ""Zip_Code"": 31000, ""repetition"": ""B"", ""type_voie"": ""chemin""}"
Société Leroy 59 B avenue du Général Leclerc 69003 Paris France,59,B,avenue,du Général Leclerc,69003,Paris,France,Société Leroy,"Parsing: Société Leroy 59 B avenue du Général Leclerc 69003 Paris France
Champs: {""Building_Number"": 59, ""City"": ""Paris"", ""Country"": ""France"", ""Recipient"": ""Société Leroy"", ""Street_Name"": ""du Général Leclerc"", ""Zip_Code"": 69003, ""repetition"": ""B"", ""type_voie"": ""avenue""}"
société leroy 162 b route jean jaurès 6000 nantes france,162,B,route,Jean Jaurès,6000,Nantes,France,Société Leroy,"Parsing: société leroy 162 b route jean jaurès 6000 nantes france
Champs: {""Building_Number"": 162, ""City"": ""Nantes"", ""Country"": ""France"", ""Recipient"": ""Société Leroy"", ""Street_Name"": ""Jean Jaurès"", ""Zip_Code"": 6000, ""repetition"": ""B"", ""type_voie"": ""route""}"
Mme Martin 146 route de Verdun 69003 Boulogne-Billancourt France,146,,route,de Verdun,69003,Boulogne-Billancourt,France,Mme Martin,"Parsing: Mme Martin 146 route de Verdun 69003 Boulogne-Billancourt France
Champs: {""Building_Number"": 146, ""City"": ""Boulogne-Billancourt"", ""Country"": ""France"", ""Recipient"": ""Mme Martin"", ""Street_Name"": ""de Verdun"", ""Zip_Code"": 69003, ""repetition"": null, ""type_voie"": ""route""}"
Société Leroy 194 B route Victor Hugo 33000 Boulogne-Billancourt France,194,B,route,Victor Hugo,33000,Boulogne-Billancourt,France,Société Leroy,"Parsing: Société Leroy 194 B route Victor Hugo 33000 Boulogne-Billancourt France
Champs: {""Building_Number"": 194, ""City"": ""Boulogne-Billancourt"", ""Country"": ""France"", ""Recipient"": ""Société Leroy"", ""Street_Name"": ""Victor Hugo"", ""Zip_Code"": 33000, ""repetition"": ""B"", ""type_voie"": ""route""}"
société leroy 167 avenue de la république 13008 marseille france,167,,avenue,de la République,13008,Marseille,France,Société Leroy,"Parsing: société leroy 167 avenue de la république 13008 marseille france
Champs: {""Building_Number"": 167, ""City"": ""Marseille"", ""Country"": ""France"", ""Recipient"": ""Société Leroy"", ""Street_Name"": ""de la République"", ""Zip_Code"": 13008, ""repetition"": null, ""type_voie"": ""avenue""}"
91 a avenue victor hugo 92100 nantes france,91,A,avenue,Victor Hugo,92100,Nantes,France,,"Parsing: 91 a avenue victor hugo 92100 nantes france
Champs: {""Building_Number"": 91, ""City"": ""Nantes"", ""Country"": ""France"", ""Recipient"": null, ""Street_Name"": ""Victor Hugo"", ""Zip_Code"": 92100, ""repetition"": ""A"", ""type_voie"": ""avenue""}"
Société Leroy 158 A boulevard Victor Hugo 75001 Nantes France,158,A,boulevard,Victor Hugo,75001,Nantes,France,Société Leroy,"Parsing: Société Leroy 158 A boulevard Victor Hugo 75001 Nantes France
Champs: {""Building_Number"": 158, ""City"": ""Nantes"", ""Country"": ""France"", ""Recipient"": ""Société Leroy"", ""Street_Name"": ""Victor Hugo"", ""Zip_Code"": 75001, ""repetition"": ""A"", ""type_voie"": ""boulevard""}"
lyon de verdun m. durant 92100 ter 163 impasse france,163,ter,impasse,de Verdun,92100,Lyon,France,M. Durant,"Parsing: lyon de verdun m. durant 92100 ter 163 impasse france
Champs: {""Building_Number"": 163, ""City"": ""Lyon"", ""Country"": ""France"", ""Recipient"": ""M. Durant"", ""Street_Name"": ""de Verdun"", ""Zip_Code"": 92100, ""repetition"": ""ter"", ""type_voie"": ""impasse""}"
M. Durant 173 ter avenue Jean Jaurès 13008 Strasbourg France,173,ter,avenue,Jean Jaurès,13008,Strasbourg,France,M. Durant,"Parsing: M. Durant 173 ter avenue Jean Jaurès 13008 Strasbourg France
Champs: {""Building_Number"": 173, ""City"": ""Strasbourg"", ""Country"": ""France"", ""Recipient"": ""M. Durant"", ""Street_Name"": ""Jean Jaurès"", ""Zip_Code"": 13008, ""repetition"": ""ter"", ""type_voie"": ""avenue""}"
Dupont 101 A impasse Jean Jaurès 6000 Strasbourg France,101,A,impasse,Jean Jaurès,6000,Strasbourg,France,Dupont,"Parsing: Dupont 101 A impasse Jean Jaurès 6000 Strasbourg France
Champs: {""Building_Number"": 101, ""City"": ""Strasbourg"", ""Country"": ""France"", ""Recipient"": ""Dupont"", ""Street_Name"": ""Jean Jaurès"", ""Zip_Code"": 6000, ""repetition"": ""A"", ""type_voie"": ""impasse""}"
Bordeaux France Jean Jaurès route Mme Martin 69003 101,101,,route,Jean Jaurès,69003,Bordeaux,France,Mme Martin,"Parsing: Bordeaux France Jean Jaurès route Mme Martin 69003 101
Champs: {""Building_Number"": 101, ""City"": ""Bordeaux"", ""Country"": ""France"", ""Recipient"": ""Mme Martin"", ""Street_Name"": ""Jean Jaurès"", ""Zip_Code"": 69003, ""repetition"": null, ""type_voie"": ""route""}"
44000 37 de Verdun rue Boulogne-Billancourt B M. Durant France,37,B,rue,de Verdun,44000,Boulogne-Billancourt,France,M. Durant,"Parsing: 44000 37 de Verdun rue Boulogne-Billancourt B M. Durant France
Champs: {""Building_Number"": 37, ""City"": ""Boulogne-Billancourt"", ""Country"": ""France"", ""Recipient"": ""M. Durant"", ""Street_Name"": ""de Verdun"", ""Zip_Code"": 44000, ""repetition"": ""B"", ""type_voie"": ""rue""}"
toulouse avenue 31000 177 a france m. durant des lilas,177,A,avenue,des Lilas,31000,Toulouse,France,M. Durant,"Parsing: toulouse avenue 31000 177 a france m. durant des lilas
Champs: {""Building_Number"": 177, ""City"": ""Toulouse"", ""Country"": ""France"", ""Recipient"": ""M. Durant"", ""Street_Name"": ""des Lilas"", ""Zip_Code"": 31000, ""repetition"": ""A"", ""type_voie"": ""avenue""}"
M. Durant 110 bis impasse Victor Hugo 75001 Nantes France,110,bis,impasse,Victor Hugo,75001,Nantes,France,M. Durant,"Parsing: M. Durant 110 bis impasse Victor Hugo 75001 Nantes France
Champs: {""Building_Number"": 110, ""City"": ""Nantes"", ""Country"": ""France"", ""Recipient"": ""M. Durant"", ""Street_Name"": ""Victor Hugo"", ""Zip_Code"": 75001, ""repetition"": ""bis"", ""type_voie"": ""impasse""}"
France bis 7 13008 Nice boulevard des Lilas M. Durant,7,bis,boulevard,des Lilas,13008,Nice,France,M. Durant,"Parsing: France bis 7 13008 Nice boulevard des Lilas M. Durant
Champs: {""Building_Number"": 7, ""City"": ""Nice"", ""Country"": ""France"", ""Recipient"": ""M. Durant"", ""Street_Name"": ""des Lilas"", ""Zip_Code"": 13008, ""repetition"": ""bis"", ""type_voie"": ""boulevard""}"
ter 44000 de verdun 51 m. durant boulevard france strasbourg,51,ter,boulevard,de Verdun,44000,Strasbourg,France,M. Durant,"Parsing: ter 44000 de verdun 51 m. durant boulevard france strasbourg
Champs: {""Building_Number"": 51, ""City"": ""Strasbourg"", ""Country"": ""France"", ""Recipient"": ""M. Durant"", ""Street_Name"": ""de Verdun"", ""Zip_Code"": 44000, ""repetition"": ""ter"", ""type_voie"": ""boulevard""}"
mme martin 101 b chemin de verdun 69003 nice france,101,B,chemin,de Verdun,69003,Nice,France,Mme Martin,"Parsing: mme martin 101 b chemin de verdun 69003 nice france
Champs: {""Building_Number"": 101, ""City"": ""Nice"", ""Country"": ""France"", ""Recipient"": ""Mme Martin"", ""Street_Name"": ""de Verdun"", ""Zip_Code"": 69003, ""repetition"": ""B"", ""type_voie"": ""chemin""}"
m. durant 62 avenue de verdun 75001 paris france,62,,avenue,de Verdun,75001,Paris,France,M. Durant,"Parsing: m. durant 62 avenue de verdun 75001 paris france
Champs: {""Building_Number"": 62, ""City"": ""Paris"", ""Country"": ""France"", ""Recipient"": ""M. Durant"", ""Street_Name"": ""de Verdun"", ""Zip_Code"": 75001, ""repetition"": null, ""type_voie"": ""avenue""}"
société leroy 193 b chemin de la république 33000 bordeaux france,193,B,chemin,de la République,33000,Bordeaux,France,Société Leroy,"Parsing: société leroy 193 b chemin de la république 33000 bordeaux france
Champs: {""Building_Number"": 193, ""City"": ""Bordeaux"", ""Country"": ""France"", ""Recipient"": ""Société Leroy"", ""Street_Name"": ""de la République"", ""Zip_Code"": 33000, ""repetition"": ""B"", ""type_voie"": ""chemin""}"
société leroy 35 a impasse victor hugo 33000 paris france,35,A,impasse,Victor Hugo,33000,Paris,France,Société Leroy,"Parsing: société leroy 35 a impasse victor hugo 33000 paris france
Champs: {""Building_Number"": 35, ""City"": ""Paris"", ""Country"": ""France"", ""Recipient"": ""Société Leroy"", ""Street_Name"": ""Victor Hugo"", ""Zip_Code"": 33000, ""repetition"": ""A"", ""type_voie"": ""impasse""}"
de la république chemin france boulogne-billancourt 44000 bis m. durant 180,180,bis,chemin,de la République,44000,Boulogne-Billancourt,France,M. Durant,"Parsing: de la république chemin france boulogne-billancourt 44000 bis m. durant 180
Champs: {""Building_Number"": 180, ""City"": ""Boulogne-Billancourt"", ""Country"": ""France"", ""Recipient"": ""M. Durant"", ""Street_Name"": ""de la République"", ""Zip_Code"": 44000, ""repetition"": ""bis"", ""type_voie"": ""chemin""}"
a 13008 du général leclerc 77 france nantes route,77,A,route,du Général Leclerc,13008,Nantes,France,,"Parsing: a 13008 du général leclerc 77 france nantes route
Champs: {""Building_Number"": 77, ""City"": ""Nantes"", ""Country"": ""France"", ""Recipient"": null, ""Street_Name"": ""du Général Leclerc"", ""Zip_Code"": 13008, ""repetition"": ""A"", ""type_voie"": ""route""}"
196 Marseille de Verdun boulevard ter France 67000 Dupont,196,ter,boulevard,de Verdun,67000,Marseille,France,Dupont,"Parsing: 196 Marseille de Verdun boulevard ter France 67000 Dupont
Champs: {""Building_Number"": 196, ""City"": ""Marseille"", ""Country"": ""France"", ""Recipient"": ""Dupont"", ""Street_Name"": ""de Verdun"", ""Zip_Code"": 67000, ""repetition"": ""ter"", ""type_voie"": ""boulevard""}"
france 67 des lilas rue 6000 a nantes,67,A,rue,des Lilas,6000,Nantes,France,,"Parsing: france 67 des lilas rue 6000 a nantes
Champs: {""Building_Number"": 67, ""City"": ""Nantes"", ""Country"": ""France"", ""Recipient"": null, ""Street_Name"": ""des Lilas"", ""Zip_Code"": 6000, ""repetition"": ""A"", ""type_voie"": ""rue""}"
7 ter impasse victor hugo 75001 bordeaux france,7,ter,impasse,Victor Hugo,75001,Bordeaux,France,,"Parsing: 7 ter impasse victor hugo 75001 bordeaux france
Champs: {""Building_Number"": 7, ""City"": ""Bordeaux"", ""Country"": ""France"", ""Recipient"": null, ""Street_Name"": ""Victor Hugo"", ""Zip_Code"": 75001, ""repetition"": ""ter"", ""type_voie"": ""impasse""}"
mme martin 188 route victor hugo 13008 marseille france,188,,route,Victor Hugo,13008,Marseille,France,Mme Martin,"Parsing: mme martin 188 route victor hugo 13008 marseille france
Champs: {""Building_Number"": 188, ""City"": ""Marseille"", ""Country"": ""France"", ""Recipient"": ""Mme Martin"", ""Street_Name"": ""Victor Hugo"", ""Zip_Code"": 13008, ""repetition"": null, ""type_voie"": ""route""}"
9 jean jaurès impasse france société leroy lyon 13008,9,,impasse,Jean Jaurès,13008,Lyon,France,Société Leroy,"Parsing: 9 jean jaurès impasse france société leroy lyon 13008
Champs: {""Building_Number"": 9, ""City"": ""Lyon"", ""Country"": ""France"", ""Recipient"": ""Société Leroy"", ""Street_Name"": ""Jean Jaurès"", ""Zip_Code"": 13008, ""repetition"": null, ""type_voie"": ""impasse""}"
66 13008 France impasse Dupont Paris de Verdun,66,,impasse,de Verdun,13008,Paris,France,Dupont,"Parsing: 66 13008 France impasse Dupont Paris de Verdun
Champs: {""Building_Number"": 66, ""City"": ""Paris"", ""Country"": ""France"", ""Recipient"": ""Dupont"", ""Street_Name"": ""de Verdun"", ""Zip_Code"": 13008, ""repetition"": null, ""type_voie"": ""impasse""}"
Dupont 139 A avenue des Lilas 67000 Strasbourg France,139,A,avenue,des Lilas,67000,Strasbourg,France,Dupont,"Parsing: Dupont 139 A avenue des Lilas 67000 Strasbourg France
Champs: {""Building_Number"": 139, ""City"": ""Strasbourg"", ""Country"": ""France"", ""Recipient"": ""Dupont"", ""Street_Name"": ""des Lilas"", ""Zip_Code"": 67000, ""repetition"": ""A"", ""type_voie"": ""avenue""}"
M. Durant 57 avenue Jean Jaurès 67000 Bordeaux France,57,,avenue,Jean Jaurès,67000,Bordeaux,France,M. Durant,"Parsing: M. Durant 57 avenue Jean Jaurès 67000 Bordeaux France
Champs: {""Building_Number"": 57, ""City"": ""Bordeaux"", ""Country"": ""France"", ""Recipient"": ""M. Durant"", ""Street_Name"": ""Jean Jaurès"", ""Zip_Code"": 67000, ""repetition"": null, ""type_voie"": ""avenue""}"
Dupont 169 A impasse Victor Hugo 92100 Boulogne-Billancourt France,169,A,impasse,Victor Hugo,92100,Boulogne-Billancourt,France,Dupont,"Parsing: Dupont 169 A impasse Victor Hugo 92100 Boulogne-Billancourt France
Champs: {""Building_Number"": 169, ""City"": ""Boulogne-Billancourt"", ""Country"": ""France"", ""Recipient"": ""Dupont"", ""Street_Name"": ""Victor Hugo"", ""Zip_Code"": 92100, ""repetition"": ""A"", ""type_voie"": ""impasse""}"
mme martin 84 boulevard jean jaurès 33000 lyon france,84,,boulevard,Jean Jaurès,33000,Lyon,France,Mme Martin,"Parsing: mme martin 84 boulevard jean jaurès 33000 lyon france
Champs: {""Building_Number"": 84, ""City"": ""Lyon"", ""Country"": ""France"", ""Recipient"": ""Mme Martin"", ""Street_Name"": ""Jean Jaurès"", ""Zip_Code"": 33000, ""repetition"": null, ""type_voie"": ""boulevard""}"
Dupont 50 bis impasse Victor Hugo 31000 Bordeaux France,50,bis,impasse,Victor Hugo,31000,Bordeaux,France,Dupont,"Parsing: Dupont 50 bis impasse Victor Hugo 31000 Bordeaux France
Champs: {""Building_Number"": 50, ""City"": ""Bordeaux"", ""Country"": ""France"", ""Recipient"": ""Dupont"", ""Street_Name"": ""Victor Hugo"", ""Zip_Code"": 31000, ""repetition"": ""bis"", ""type_voie"": ""impasse""}"
dupont 149 b avenue victor hugo 69003 lyon france,149,B,avenue,Victor Hugo,69003,Lyon,France,Dupont,"Parsing: dupont 149 b avenue victor hugo 69003 lyon france
Champs: {""Building_Number"": 149, ""City"": ""Lyon"", ""Country"": ""France"", ""Recipient"": ""Dupont"", ""Street_Name"": ""Victor Hugo"", ""Zip_Code"": 69003, ""repetition"": ""B"", ""type_voie"": ""avenue""}"
118 ter boulevard victor hugo 31000 strasbourg france,118,ter,boulevard,Victor Hugo,31000,Strasbourg,France,,"Parsing: 118 ter boulevard victor hugo 31000 strasbourg france
Champs: {""Building_Number"": 118, ""City"": ""Strasbourg"", ""Country"": ""France"", ""Recipient"": null, ""Street_Name"": ""Victor Hugo"", ""Zip_Code"": 31000, ""repetition"": ""ter"", ""type_voie"": ""boulevard""}"
société leroy 42 ter rue du général leclerc 13008 strasbourg france,42,ter,rue,du Général Leclerc,13008,Strasbourg,France,Société Leroy,"Parsing: société leroy 42 ter rue du général leclerc 13008 strasbourg france
Champs: {""Building_Number"": 42, ""City"": ""Strasbourg"", ""Country"": ""France"", ""Recipient"": ""Société Leroy"", ""Street_Name"": ""du Général Leclerc"", ""Zip_Code"": 13008, ""repetition"": ""ter"", ""type_voie"": ""rue""}"
Dupont 124 A chemin de Verdun 75001 Paris France,124,A,chemin,de Verdun,75001,Paris,France,Dupont,"Parsing: Dupont 124 A chemin de Verdun 75001 Paris France
Champs: {""Building_Number"": 124, ""City"": ""Paris"", ""Country"": ""France"", ""Recipient"": ""Dupont"", ""Street_Name"": ""de Verdun"", ""Zip_Code"": 75001, ""repetition"": ""A"", ""type_voie"": ""chemin""}"
mme martin 42 a route de verdun 13008 bordeaux france,42,A,route,de Verdun,13008,Bordeaux,France,Mme Martin,"Parsing: mme martin 42 a route de verdun 13008 bordeaux france
Champs: {""Building_Number"": 42, ""City"": ""Bordeaux"", ""Country"": ""France"", ""Recipient"": ""Mme Martin"", ""Street_Name"": ""de Verdun"", ""Zip_Code"": 13008, ""repetition"": ""A"", ""type_voie"": ""route""}"
avenue bis france mme martin 122 33000 jean jaurès boulogne-billancourt,122,bis,avenue,Jean Jaurès,33000,Boulogne-Billancourt,France,Mme Martin,"Parsing: avenue bis france mme martin 122 33000 jean jaurès boulogne-billancourt
Champs: {""Building_Number"": 122, ""City"": ""Boulogne-Billancourt"", ""Country"": ""France"", ""Recipient"": ""Mme Martin"", ""Street_Name"": ""Jean Jaurès"", ""Zip_Code"": 33000, ""repetition"": ""bis"", ""type_voie"": ""avenue""}"
société leroy 88 a boulevard des lilas 13008 marseille france,88,A,boulevard,des Lilas,13008,Marseille,France,Société Leroy,"Parsing: société leroy 88 a boulevard des lilas 13008 marseille france
Champs: {""Building_Number"": 88, ""City"": ""Marseille"", ""Country"": ""France"", ""Recipient"": ""Société Leroy"", ""Street_Name"": ""des Lilas"", ""Zip_Code"": 13008, ""repetition"": ""A"", ""type_voie"": ""boulevard""}"
Mme Martin 195 bis avenue de la République 67000 Lyon France,195,bis,avenue,de la République,67000,Lyon,France,Mme Martin,"Parsing: Mme Martin 195 bis avenue de la République 67000 Lyon France
Champs: {""Building_Number"": 195, ""City"": ""Lyon"", ""Country"": ""France"", ""Recipient"": ""Mme Martin"", ""Street_Name"": ""de la République"", ""Zip_Code"": 67000, ""repetition"": ""bis"", ""type_voie"": ""avenue""}"
Nantes B du Général Leclerc 67000 168 avenue France,168,B,avenue,du Général Leclerc,67000,Nantes,France,,"Parsing: Nantes B du Général Leclerc 67000 168 avenue France
Champs: {""Building_Number"": 168, ""City"": ""Nantes"", ""Country"": ""France"", ""Recipient"": null, ""Street_Name"": ""du Général Leclerc"", ""Zip_Code"": 67000, ""repetition"": ""B"", ""type_voie"": ""avenue""}"
dupont 80 rue du général leclerc 75001 nantes france,80,,rue,du Général Leclerc,75001,Nantes,France,Dupont,"Parsing: dupont 80 rue du général leclerc 75001 nantes france
Champs: {""Building_Number"": 80, ""City"": ""Nantes"", ""Country"": ""France"", ""Recipient"": ""Dupont"", ""Street_Name"": ""du Général Leclerc"", ""Zip_Code"": 75001, ""repetition"": null, ""type_voie"": ""rue""}"
dupont 192 a boulevard de verdun 69003 boulogne-billancourt france,192,A,boulevard,de Verdun,69003,Boulogne-Billancourt,France,Dupont,"Parsing: dupont 192 a boulevard de verdun 69003 boulogne-billancourt france
Champs: {""Building_Number"": 192, ""City"": ""Boulogne-Billancourt"", ""Country"": ""France"", ""Recipient"": ""Dupont"", ""Street_Name"": ""de Verdun"", ""Zip_Code"": 69003, ""repetition"": ""A"", ""type_voie"": ""boulevard""}"
Mme Martin 126 ter impasse de Verdun 44000 Strasbourg France,126,ter,impasse,de Verdun,44000,Strasbourg,France,Mme Martin,"Parsing: Mme Martin 126 ter impasse de Verdun 44000 Strasbourg France
Champs: {""Building_Number"": 126, ""City"": ""Strasbourg"", ""Country"": ""France"", ""Recipient"": ""Mme Martin"", ""Street_Name"": ""de Verdun"", ""Zip_Code"": 44000, ""repetition"": ""ter"", ""type_voie"": ""impasse""}"
189 france m. durant strasbourg 67000 du général leclerc avenue,189,,avenue,du Général Leclerc,67000,Strasbourg,France,M. Durant,"Parsing: 189 france m. durant strasbourg 67000 du général leclerc avenue
Champs: {""Building_Number"": 189, ""City"": ""Strasbourg"", ""Country"": ""France"", ""Recipient"": ""M. Durant"", ""Street_Name"": ""du Général Leclerc"", ""Zip_Code"": 67000, ""repetition"": null, ""type_voie"": ""avenue""}"
127 ter rue Jean Jaurès 92100 Paris France,127,ter,rue,Jean Jaurès,92100,Paris,France,,"Parsing: 127 ter rue Jean Jaurès 92100 Paris France
Champs: {""Building_Number"": 127, ""City"": ""Paris"", ""Country"": ""France"", ""Recipient"": null, ""Street_Name"": ""Jean Jaurès"", ""Zip_Code"": 92100, ""repetition"": ""ter"", ""type_voie"": ""rue""}"
société leroy 112 b chemin de verdun 13008 paris france,112,B,chemin,de Verdun,13008,Paris,France,Société Leroy,"Parsing: société leroy 112 b chemin de verdun 13008 paris france
Champs: {""Building_Number"": 112, ""City"": ""Paris"", ""Country"": ""France"", ""Recipient"": ""Société Leroy"", ""Street_Name"": ""de Verdun"", ""Zip_Code"": 13008, ""repetition"": ""B"", ""type_voie"": ""chemin""}"
m. durant 15 bis route jean jaurès 44000 bordeaux france,15,bis,route,Jean Jaurès,44000,Bordeaux,France,M. Durant,"Parsing: m. durant 15 bis route jean jaurès 44000 bordeaux france
Champs: {""Building_Number"": 15, ""City"": ""Bordeaux"", ""Country"": ""France"", ""Recipient"": ""M. Durant"", ""Street_Name"": ""Jean Jaurès"", ""Zip_Code"": 44000, ""repetition"": ""bis"", ""type_voie"": ""route""}"
B M. Durant des Lilas Nantes 152 France 13008 impasse,152,B,impasse,des Lilas,13008,Nantes,France,M. Durant,"Parsing: B M. Durant des Lilas Nantes 152 France 13008 impasse
Champs: {""Building_Number"": 152, ""City"": ""Nantes"", ""Country"": ""France"", ""Recipient"": ""M. Durant"", ""Street_Name"": ""des Lilas"", ""Zip_Code"": 13008, ""repetition"": ""B"", ""type_voie"": ""impasse""}"
des lilas boulevard 30 société leroy bordeaux 13008 france,30,,boulevard,des Lilas,13008,Bordeaux,France,Société Leroy,"Parsing: des lilas boulevard 30 société leroy bordeaux 13008 france
Champs: {""Building_Number"": 30, ""City"": ""Bordeaux"", ""Country"": ""France"", ""Recipient"": ""Société Leroy"", ""Street_Name"": ""des Lilas"", ""Zip_Code"": 13008, ""repetition"": null, ""type_voie"": ""boulevard""}"
Mme Martin 163 ter rue Jean Jaurès 33000 Nice France,163,ter,rue,Jean Jaurès,33000,Nice,France,Mme Martin,"Parsing: Mme Martin 163 ter rue Jean Jaurès 33000 Nice France
Champs: {""Building_Number"": 163, ""City"": ""Nice"", ""Country"": ""France"", ""Recipient"": ""Mme Martin"", ""Street_Name"": ""Jean Jaurès"", ""Zip_Code"": 33000, ""repetition"": ""ter"", ""type_voie"": ""rue""}"
Mme Martin 171 A avenue du Général Leclerc 67000 Boulogne-Billancourt France,171,A,avenue,du Général Leclerc,67000,Boulogne-Billancourt,France,Mme Martin,"Parsing: Mme Martin 171 A avenue du Général Leclerc 67000 Boulogne-Billancourt France
Champs: {""Building_Number"": 171, ""City"": ""Boulogne-Billancourt"", ""Country"": ""France"", ""Recipient"": ""Mme Martin"", ""Street_Name"": ""du Général Leclerc"", ""Zip_Code"": 67000, ""repetition"": ""A"", ""type_voie"": ""avenue""}"
Société Leroy 32 impasse de la République 31000 Nantes France,32,,impasse,de la République,31000,Nantes,France,Société Leroy,"Parsing: Société Leroy 32 impasse de la République 31000 Nantes France
Champs: {""Building_Number"": 32, ""City"": ""Nantes"", ""Country"": ""France"", ""Recipient"": ""Société Leroy"", ""Street_Name"": ""de la République"", ""Zip_Code"": 31000, ""repetition"": null, ""type_voie"": ""impasse""}"
69003 rue Mme Martin France de Verdun Nantes 4,4,,rue,de Verdun,69003,Nantes,France,Mme Martin,"Parsing: 69003 rue Mme Martin France de Verdun Nantes 4
Champs: {""Building_Number"": 4, ""City"": ""Nantes"", ""Country"": ""France"", ""Recipient"": ""Mme Martin"", ""Street_Name"": ""de Verdun"", ""Zip_Code"": 69003, ""repetition"": null, ""type_voie"": ""rue""}"
Mme Martin 173 A chemin des Lilas 33000 Boulogne-Billancourt France,173,A,chemin,des Lilas,33000,Boulogne-Billancourt,France,Mme Martin,"Parsing: Mme Martin 173 A chemin des Lilas 33000 Boulogne-Billancourt France
Champs: {""Building_Number"": 173, ""City"": ""Boulogne-Billancourt"", ""Country"": ""France"", ""Recipient"": ""Mme Martin"", ""Street_Name"": ""des Lilas"", ""Zip_Code"": 33000, ""repetition"": ""A"", ""type_voie"": ""chemin""}"
Société Leroy 65 ter chemin des Lilas 67000 Toulouse France,65,ter,chemin,des Lilas,67000,Toulouse,France,Société Leroy,"Parsing: Société Leroy 65 ter chemin des Lilas 67000 Toulouse France
Champs: {""Building_Number"": 65, ""City"": ""Toulouse"", ""Country"": ""France"", ""Recipient"": ""Société Leroy"", ""Street_Name"": ""des Lilas"", ""Zip_Code"": 67000, ""repetition"": ""ter"", ""type_voie"": ""chemin""}"
143 a avenue de la république 13008 marseille france,143,A,avenue,de la République,13008,Marseille,France,,"Parsing: 143 a avenue de la république 13008 marseille france
Champs: {""Building_Number"": 143, ""City"": ""Marseille"", ""Country"": ""France"", ""Recipient"": null, ""Street_Name"": ""de la République"", ""Zip_Code"": 13008, ""repetition"": ""A"", ""type_voie"": ""avenue""}"
147 a route des lilas 13008 nice france,147,A,route,des Lilas,13008,Nice,France,,"Parsing: 147 a route des lilas 13008 nice france
Champs: {""Building_Number"": 147, ""City"": ""Nice"", ""Country"": ""France"", ""Recipient"": null, ""Street_Name"": ""des Lilas"", ""Zip_Code"": 13008, ""repetition"": ""A"", ""type_voie"": ""route""}"
